Iso3166_1_alpha2,Iso3166_1_alpha3,CountryName,Iso3166_2_subdivision,ProvinceName
AD,AND,Andorra,AD-02,Canillo
AD,AND,Andorra,AD-03,Encamp
AD,AND,Andorra,AD-04,La Massana
AD,AND,Andorra,AD-05,Ordino
AD,AND,Andorra,AD-06,Sant Julià de Lòria
AD,AND,Andorra,AD-07,Andorra la Vella
AD,AND,Andorra,AD-08,Escaldes-Engordany
AE,ARE,United Arab Emirates,AE-AJ,'Ajmān
AE,ARE,United Arab Emirates,AE-AZ,Abū Z̧aby
AE,ARE,United Arab Emirates,AE-DU,Dubayy
AE,ARE,United Arab Emirates,AE-FU,Al Fujayrah
AE,ARE,United Arab Emirates,AE-RK,Ra's al Khaymah
AE,ARE,United Arab Emirates,AE-SH,Ash Shāriqah
AE,ARE,United Arab Emirates,AE-UQ,Umm al Qaywayn
AF,AFG,Afghanistan,AF-BAL,Balkh
AF,AFG,Afghanistan,AF-BAM,Bāmyān
AF,AFG,Afghanistan,AF-BDG,Bādghīs
AF,AFG,Afghanistan,AF-BDS,Badakhshān
AF,AFG,Afghanistan,AF-BGL,Baghlān
AF,AFG,Afghanistan,AF-DAY,Dāykundī
AF,AFG,Afghanistan,AF-FRA,Farāh
AF,AFG,Afghanistan,AF-FYB,Fāryāb
AF,AFG,Afghanistan,AF-GHA,Ghaznī
AF,AFG,Afghanistan,AF-GHO,Ghōr
AF,AFG,Afghanistan,AF-HEL,Helmand
AF,AFG,Afghanistan,AF-HER,Herāt
AF,AFG,Afghanistan,AF-JOW,Jowzjān
AF,AFG,Afghanistan,AF-KAB,Kābul
AF,AFG,Afghanistan,AF-KAN,Kandahār
AF,AFG,Afghanistan,AF-KAP,Kāpīsā
AF,AFG,Afghanistan,AF-KDZ,Kunduz
AF,AFG,Afghanistan,AF-KHO,Khōst
AF,AFG,Afghanistan,AF-KNR,Kunar
AF,AFG,Afghanistan,AF-LAG,Laghmān
AF,AFG,Afghanistan,AF-LOG,Lōgar
AF,AFG,Afghanistan,AF-NAN,Nangarhār
AF,AFG,Afghanistan,AF-NIM,Nīmrōz
AF,AFG,Afghanistan,AF-NUR,Nūristān
AF,AFG,Afghanistan,AF-PAN,Panjshayr
AF,AFG,Afghanistan,AF-PAR,Parwān
AF,AFG,Afghanistan,AF-PIA,Paktiyā
AF,AFG,Afghanistan,AF-PKA,Paktīkā
AF,AFG,Afghanistan,AF-SAM,Samangān
AF,AFG,Afghanistan,AF-SAR,Sar-e Pul
AF,AFG,Afghanistan,AF-TAK,Takhār
AF,AFG,Afghanistan,AF-URU,Uruzgān
AF,AFG,Afghanistan,AF-WAR,Wardak
AF,AFG,Afghanistan,AF-ZAB,Zābul
AG,ATG,Antigua And Barbuda,AG-03,Saint George
AG,ATG,Antigua And Barbuda,AG-04,Saint John
AG,ATG,Antigua And Barbuda,AG-05,Saint Mary
AG,ATG,Antigua And Barbuda,AG-06,Saint Paul
AG,ATG,Antigua And Barbuda,AG-07,Saint Peter
AG,ATG,Antigua And Barbuda,AG-08,Saint Philip
AG,ATG,Antigua And Barbuda,AG-10,Barbuda
AG,ATG,Antigua And Barbuda,AG-11,Redonda
AI,AIA,Anguilla,AI-AI,Anguilla
AL,ALB,Albania,AL-01,Berat
AL,ALB,Albania,AL-02,Durrës
AL,ALB,Albania,AL-03,Elbasan
AL,ALB,Albania,AL-04,Fier
AL,ALB,Albania,AL-05,Gjirokastër
AL,ALB,Albania,AL-06,Korçë
AL,ALB,Albania,AL-07,Kukës
AL,ALB,Albania,AL-08,Lezhë
AL,ALB,Albania,AL-09,Dibër
AL,ALB,Albania,AL-10,Shkodër
AL,ALB,Albania,AL-11,Tiranë
AL,ALB,Albania,AL-12,Vlorë
AL,ALB,Albania,AL-BR,Berat
AL,ALB,Albania,AL-BU,Bulqizë
AL,ALB,Albania,AL-DI,Dibër
AL,ALB,Albania,AL-DL,Delvinë
AL,ALB,Albania,AL-DR,Durrës
AL,ALB,Albania,AL-DV,Devoll
AL,ALB,Albania,AL-EL,Elbasan
AL,ALB,Albania,AL-ER,Kolonjë
AL,ALB,Albania,AL-FR,Fier
AL,ALB,Albania,AL-GJ,Gjirokastër
AL,ALB,Albania,AL-GR,Gramsh
AL,ALB,Albania,AL-HA,Has
AL,ALB,Albania,AL-KA,Kavajë
AL,ALB,Albania,AL-KB,Kurbin
AL,ALB,Albania,AL-KC,Kuçovë
AL,ALB,Albania,AL-KO,Korçë
AL,ALB,Albania,AL-KR,Krujë
AL,ALB,Albania,AL-KU,Kukës
AL,ALB,Albania,AL-LB,Librazhd
AL,ALB,Albania,AL-LE,Lezhë
AL,ALB,Albania,AL-LU,Lushnjë
AL,ALB,Albania,AL-MK,Mallakastër
AL,ALB,Albania,AL-MM,Malësi e Madhe
AL,ALB,Albania,AL-MR,Mirditë
AL,ALB,Albania,AL-MT,Mat
AL,ALB,Albania,AL-PG,Pogradec
AL,ALB,Albania,AL-PQ,Peqin
AL,ALB,Albania,AL-PR,Përmet
AL,ALB,Albania,AL-PU,Pukë
AL,ALB,Albania,AL-SH,Shkodër
AL,ALB,Albania,AL-SK,Skrapar
AL,ALB,Albania,AL-SR,Sarandë
AL,ALB,Albania,AL-TE,Tepelenë
AL,ALB,Albania,AL-TP,Tropojë
AL,ALB,Albania,AL-TR,Tiranë
AL,ALB,Albania,AL-VL,Vlorë
AM,ARM,Armenia,AM-AG,Aragac̣otn
AM,ARM,Armenia,AM-AR,Ararat
AM,ARM,Armenia,AM-AV,Armavir
AM,ARM,Armenia,AM-ER,Erevan
AM,ARM,Armenia,AM-GR,Geġark'unik'
AM,ARM,Armenia,AM-KT,Kotayk'
AM,ARM,Armenia,AM-LO,Loṙi
AM,ARM,Armenia,AM-SH,Širak
AM,ARM,Armenia,AM-SU,Syunik'
AM,ARM,Armenia,AM-TV,Tavuš
AM,ARM,Armenia,AM-VD,Vayoć Jor
AO,AGO,Angola,AO-BGO,Bengo
AO,AGO,Angola,AO-BGU,Benguela
AO,AGO,Angola,AO-BIE,Bié
AO,AGO,Angola,AO-CAB,Cabinda
AO,AGO,Angola,AO-CCU,Kuando Kubango
AO,AGO,Angola,AO-CNN,Cunene
AO,AGO,Angola,AO-CNO,Kwanza Norte
AO,AGO,Angola,AO-CUS,Kwanza Sul
AO,AGO,Angola,AO-HUA,Huambo
AO,AGO,Angola,AO-HUI,Huíla
AO,AGO,Angola,AO-LNO,Lunda Norte
AO,AGO,Angola,AO-LSU,Lunda Sul
AO,AGO,Angola,AO-LUA,Luanda
AO,AGO,Angola,AO-MAL,Malange
AO,AGO,Angola,AO-MOX,Moxico
AO,AGO,Angola,AO-NAM,Namibe
AO,AGO,Angola,AO-UIG,Uíge
AO,AGO,Angola,AO-ZAI,Zaire
AQ,ATA,Antarctica,AQ-AQ,Antarctica
AR,ARG,Argentina,AR-A,Salta
AR,ARG,Argentina,AR-B,Buenos Aires
AR,ARG,Argentina,AR-C,Ciudad Autónoma de Buenos Aires
AR,ARG,Argentina,AR-D,San Luis
AR,ARG,Argentina,AR-E,Entre Ríos
AR,ARG,Argentina,AR-F,La Rioja
AR,ARG,Argentina,AR-G,Santiago del Estero
AR,ARG,Argentina,AR-H,Chaco
AR,ARG,Argentina,AR-J,San Juan
AR,ARG,Argentina,AR-K,Catamarca
AR,ARG,Argentina,AR-L,La Pampa
AR,ARG,Argentina,AR-M,Mendoza
AR,ARG,Argentina,AR-N,Misiones
AR,ARG,Argentina,AR-P,Formosa
AR,ARG,Argentina,AR-Q,Neuquén
AR,ARG,Argentina,AR-R,Río Negro
AR,ARG,Argentina,AR-S,Santa Fe
AR,ARG,Argentina,AR-T,Tucumán
AR,ARG,Argentina,AR-U,Chubut
AR,ARG,Argentina,AR-V,Tierra del Fuego
AR,ARG,Argentina,AR-W,Corrientes
AR,ARG,Argentina,AR-X,Córdoba
AR,ARG,Argentina,AR-Y,Jujuy
AR,ARG,Argentina,AR-Z,Santa Cruz
AS,ASM,American Samoa,AS-AS,American Samoa
AT,AUT,Austria,AT-1,Burgenland
AT,AUT,Austria,AT-2,Kärnten
AT,AUT,Austria,AT-3,Niederösterreich
AT,AUT,Austria,AT-4,Oberösterreich
AT,AUT,Austria,AT-5,Salzburg
AT,AUT,Austria,AT-6,Steiermark
AT,AUT,Austria,AT-7,Tirol
AT,AUT,Austria,AT-8,Vorarlberg
AT,AUT,Austria,AT-9,Wien
AU,AUS,Australia,AU-ACT,Australian Capital Territory
AU,AUS,Australia,AU-NSW,New South Wales
AU,AUS,Australia,AU-NT,Northern Territory
AU,AUS,Australia,AU-QLD,Queensland
AU,AUS,Australia,AU-SA,South Australia
AU,AUS,Australia,AU-TAS,Tasmania
AU,AUS,Australia,AU-VIC,Victoria
AU,AUS,Australia,AU-WA,Western Australia
AW,ABW,Aruba,AW-AW,Aruba
AX,ALA,Aland Islands,AX-AX,Åland Islands
AZ,AZE,Azerbaijan,AZ-ABS,Abşeron
AZ,AZE,Azerbaijan,AZ-AGA,Ağstafa
AZ,AZE,Azerbaijan,AZ-AGC,Ağcabәdi
AZ,AZE,Azerbaijan,AZ-AGM,Ağdam
AZ,AZE,Azerbaijan,AZ-AGS,Ağdaş
AZ,AZE,Azerbaijan,AZ-AGU,Ağsu
AZ,AZE,Azerbaijan,AZ-AST,Astara
AZ,AZE,Azerbaijan,AZ-BA,Bakı
AZ,AZE,Azerbaijan,AZ-BAB,Babək
AZ,AZE,Azerbaijan,AZ-BAL,Balakən
AZ,AZE,Azerbaijan,AZ-BAR,Bərdə
AZ,AZE,Azerbaijan,AZ-BEY,Beyləqan
AZ,AZE,Azerbaijan,AZ-BIL,Biləsuvar
AZ,AZE,Azerbaijan,AZ-CAB,Cəbrayıl
AZ,AZE,Azerbaijan,AZ-CAL,Cəlilabad
AZ,AZE,Azerbaijan,AZ-CUL,Culfa
AZ,AZE,Azerbaijan,AZ-DAS,Daşkəsən
AZ,AZE,Azerbaijan,AZ-FUZ,Füzuli
AZ,AZE,Azerbaijan,AZ-GA,Gәncә
AZ,AZE,Azerbaijan,AZ-GAD,Gədəbəy
AZ,AZE,Azerbaijan,AZ-GOR,Goranboy
AZ,AZE,Azerbaijan,AZ-GOY,Göyçay
AZ,AZE,Azerbaijan,AZ-GYG,Göygöl
AZ,AZE,Azerbaijan,AZ-HAC,Hacıqabul
AZ,AZE,Azerbaijan,AZ-IMI,İmişli
AZ,AZE,Azerbaijan,AZ-ISM,İsmayıllı
AZ,AZE,Azerbaijan,AZ-KAL,Kəlbəcər
AZ,AZE,Azerbaijan,AZ-KAN,Kǝngǝrli
AZ,AZE,Azerbaijan,AZ-KUR,Kürdəmir
AZ,AZE,Azerbaijan,AZ-LA,Lәnkәran
AZ,AZE,Azerbaijan,AZ-LAC,Laçın
AZ,AZE,Azerbaijan,AZ-LAN,Lənkəran
AZ,AZE,Azerbaijan,AZ-LER,Lerik
AZ,AZE,Azerbaijan,AZ-MAS,Masallı
AZ,AZE,Azerbaijan,AZ-MI,Mingәçevir
AZ,AZE,Azerbaijan,AZ-NA,Naftalan
AZ,AZE,Azerbaijan,AZ-NEF,Neftçala
AZ,AZE,Azerbaijan,AZ-NV,Naxçıvan
AZ,AZE,Azerbaijan,AZ-NX,Naxçıvan
AZ,AZE,Azerbaijan,AZ-OGU,Oğuz
AZ,AZE,Azerbaijan,AZ-ORD,Ordubad
AZ,AZE,Azerbaijan,AZ-QAB,Qәbәlә
AZ,AZE,Azerbaijan,AZ-QAX,Qax
AZ,AZE,Azerbaijan,AZ-QAZ,Qazax
AZ,AZE,Azerbaijan,AZ-QBA,Quba
AZ,AZE,Azerbaijan,AZ-QBI,Qubadlı
AZ,AZE,Azerbaijan,AZ-QOB,Qobustan
AZ,AZE,Azerbaijan,AZ-QUS,Qusar
AZ,AZE,Azerbaijan,AZ-SA,Şәki
AZ,AZE,Azerbaijan,AZ-SAB,Sabirabad
AZ,AZE,Azerbaijan,AZ-SAD,Sәdәrәk
AZ,AZE,Azerbaijan,AZ-SAH,Şahbuz
AZ,AZE,Azerbaijan,AZ-SAK,Şәki
AZ,AZE,Azerbaijan,AZ-SAL,Salyan
AZ,AZE,Azerbaijan,AZ-SAR,Şәrur
AZ,AZE,Azerbaijan,AZ-SAT,Saatlı
AZ,AZE,Azerbaijan,AZ-SBN,Şabran
AZ,AZE,Azerbaijan,AZ-SIY,Siyәzәn
AZ,AZE,Azerbaijan,AZ-SKR,Şәmkir
AZ,AZE,Azerbaijan,AZ-SM,Sumqayıt
AZ,AZE,Azerbaijan,AZ-SMI,Şamaxı
AZ,AZE,Azerbaijan,AZ-SMX,Samux
AZ,AZE,Azerbaijan,AZ-SR,Şirvan
AZ,AZE,Azerbaijan,AZ-SUS,Şuşa
AZ,AZE,Azerbaijan,AZ-TAR,Tәrtәr
AZ,AZE,Azerbaijan,AZ-TOV,Tovuz
AZ,AZE,Azerbaijan,AZ-UCA,Ucar
AZ,AZE,Azerbaijan,AZ-XA,Xankәndi
AZ,AZE,Azerbaijan,AZ-XAC,Xaçmaz
AZ,AZE,Azerbaijan,AZ-XCI,Xocalı
AZ,AZE,Azerbaijan,AZ-XIZ,Xızı
AZ,AZE,Azerbaijan,AZ-XVD,Xocavәnd
AZ,AZE,Azerbaijan,AZ-YAR,Yardımlı
AZ,AZE,Azerbaijan,AZ-YE,Yevlax
AZ,AZE,Azerbaijan,AZ-YEV,Yevlax
AZ,AZE,Azerbaijan,AZ-ZAN,Zәngilan
AZ,AZE,Azerbaijan,AZ-ZAQ,Zaqatala
AZ,AZE,Azerbaijan,AZ-ZAR,Zәrdab
BA,BIH,Bosnia,BA-01,Unsko-sanska županija
BA,BIH,Bosnia,BA-02,Posavska županija
BA,BIH,Bosnia,BA-03,Tuzlanska županija
BA,BIH,Bosnia,BA-04,Zeničko-dobojska županija
BA,BIH,Bosnia,BA-05,Bosansko-podrinjska županija
BA,BIH,Bosnia,BA-06,Srednjobosanska županija
BA,BIH,Bosnia,BA-07,Hercegovačko-neretvanska županija
BA,BIH,Bosnia,BA-08,Zapadnohercegovačka županija
BA,BIH,Bosnia,BA-09,Kanton Sarajevo
BA,BIH,Bosnia,BA-10,Kanton br. 10
BA,BIH,Bosnia,BA-BIH,Federacija Bosne i Hercegovine
BA,BIH,Bosnia,BA-BRC,Brčko distrikt
BA,BIH,Bosnia,BA-SRP,Republika Srpska
BB,BRB,Barbados,BB-01,Christ Church
BB,BRB,Barbados,BB-02,Saint Andrew
BB,BRB,Barbados,BB-03,Saint George
BB,BRB,Barbados,BB-04,Saint James
BB,BRB,Barbados,BB-05,Saint John
BB,BRB,Barbados,BB-06,Saint Joseph
BB,BRB,Barbados,BB-07,Saint Lucy
BB,BRB,Barbados,BB-08,Saint Michael
BB,BRB,Barbados,BB-09,Saint Peter
BB,BRB,Barbados,BB-10,Saint Philip
BB,BRB,Barbados,BB-11,Saint Thomas
BD,BGD,Bangladesh,BD-01,Bandarban
BD,BGD,Bangladesh,BD-02,Barguna
BD,BGD,Bangladesh,BD-03,Bogra
BD,BGD,Bangladesh,BD-04,Brahmanbaria
BD,BGD,Bangladesh,BD-05,Bagerhat
BD,BGD,Bangladesh,BD-06,Barisal
BD,BGD,Bangladesh,BD-07,Bhola
BD,BGD,Bangladesh,BD-08,Comilla
BD,BGD,Bangladesh,BD-09,Chandpur
BD,BGD,Bangladesh,BD-10,Chittagong
BD,BGD,Bangladesh,BD-11,Cox's Bazar
BD,BGD,Bangladesh,BD-12,Chuadanga
BD,BGD,Bangladesh,BD-13,Dhaka
BD,BGD,Bangladesh,BD-14,Dinajpur
BD,BGD,Bangladesh,BD-15,Faridpur
BD,BGD,Bangladesh,BD-16,Feni
BD,BGD,Bangladesh,BD-17,Gopalganj
BD,BGD,Bangladesh,BD-18,Gazipur
BD,BGD,Bangladesh,BD-19,Gaibandha
BD,BGD,Bangladesh,BD-20,Habiganj
BD,BGD,Bangladesh,BD-21,Jamalpur
BD,BGD,Bangladesh,BD-22,Jessore
BD,BGD,Bangladesh,BD-23,Jhenaidah
BD,BGD,Bangladesh,BD-24,Jaipurhat
BD,BGD,Bangladesh,BD-25,Jhalakati
BD,BGD,Bangladesh,BD-26,Kishoreganj
BD,BGD,Bangladesh,BD-27,Khulna
BD,BGD,Bangladesh,BD-28,Kurigram
BD,BGD,Bangladesh,BD-29,Khagrachari
BD,BGD,Bangladesh,BD-30,Kushtia
BD,BGD,Bangladesh,BD-31,Lakshmipur
BD,BGD,Bangladesh,BD-32,Lalmonirhat
BD,BGD,Bangladesh,BD-33,Manikganj
BD,BGD,Bangladesh,BD-34,Mymensingh
BD,BGD,Bangladesh,BD-35,Munshiganj
BD,BGD,Bangladesh,BD-36,Madaripur
BD,BGD,Bangladesh,BD-37,Magura
BD,BGD,Bangladesh,BD-38,Moulvibazar
BD,BGD,Bangladesh,BD-39,Meherpur
BD,BGD,Bangladesh,BD-40,Narayanganj
BD,BGD,Bangladesh,BD-41,Netrakona
BD,BGD,Bangladesh,BD-42,Narsingdi
BD,BGD,Bangladesh,BD-43,Narail
BD,BGD,Bangladesh,BD-44,Natore
BD,BGD,Bangladesh,BD-45,Nawabganj
BD,BGD,Bangladesh,BD-46,Nilphamari
BD,BGD,Bangladesh,BD-47,Noakhali
BD,BGD,Bangladesh,BD-48,Naogaon
BD,BGD,Bangladesh,BD-49,Pabna
BD,BGD,Bangladesh,BD-50,Pirojpur
BD,BGD,Bangladesh,BD-51,Patuakhali
BD,BGD,Bangladesh,BD-52,Panchagarh
BD,BGD,Bangladesh,BD-53,Rajbari
BD,BGD,Bangladesh,BD-54,Rajshahi
BD,BGD,Bangladesh,BD-55,Rangpur
BD,BGD,Bangladesh,BD-56,Rangamati
BD,BGD,Bangladesh,BD-57,Sherpur
BD,BGD,Bangladesh,BD-58,Satkhira
BD,BGD,Bangladesh,BD-59,Sirajganj
BD,BGD,Bangladesh,BD-60,Sylhet
BD,BGD,Bangladesh,BD-61,Sunamganj
BD,BGD,Bangladesh,BD-62,Shariatpur
BD,BGD,Bangladesh,BD-63,Tangail
BD,BGD,Bangladesh,BD-64,Thakurgaon
BD,BGD,Bangladesh,BD-A,Barisal
BD,BGD,Bangladesh,BD-B,Chittagong
BD,BGD,Bangladesh,BD-C,Dhaka
BD,BGD,Bangladesh,BD-D,Khulna
BD,BGD,Bangladesh,BD-E,Rajshahi
BD,BGD,Bangladesh,BD-F,Rangpur
BD,BGD,Bangladesh,BD-G,Sylhet
BE,BEL,Belgium,BE-BRU,Brussels Hoofdstedelijk Gewest
BE,BEL,Belgium,BE-VAN,Antwerpen
BE,BEL,Belgium,BE-VBR,Vlaams-Brabant
BE,BEL,Belgium,BE-VLG,Vlaams Gewest
BE,BEL,Belgium,BE-VLI,Limburg
BE,BEL,Belgium,BE-VOV,Oost-Vlaanderen
BE,BEL,Belgium,BE-VWV,West-Vlaanderen
BE,BEL,Belgium,BE-WAL,wallonne: Région
BE,BEL,Belgium,BE-WBR,Brabant wallon
BE,BEL,Belgium,BE-WHT,Hainaut
BE,BEL,Belgium,BE-WLG,Liège
BE,BEL,Belgium,BE-WLX,Luxembourg
BE,BEL,Belgium,BE-WNA,Namur
BF,BFA,Burkina Faso,BF-01,Boucle du Mouhoun
BF,BFA,Burkina Faso,BF-02,Cascades
BF,BFA,Burkina Faso,BF-03,Centre
BF,BFA,Burkina Faso,BF-04,Centre-Est
BF,BFA,Burkina Faso,BF-05,Centre-Nord
BF,BFA,Burkina Faso,BF-06,Centre-Ouest
BF,BFA,Burkina Faso,BF-07,Centre-Sud
BF,BFA,Burkina Faso,BF-08,Est
BF,BFA,Burkina Faso,BF-09,Hauts-Bassins
BF,BFA,Burkina Faso,BF-10,Nord
BF,BFA,Burkina Faso,BF-11,Plateau-Central
BF,BFA,Burkina Faso,BF-12,Sahel
BF,BFA,Burkina Faso,BF-13,Sud-Ouest
BF,BFA,Burkina Faso,BF-BAL,Balé
BF,BFA,Burkina Faso,BF-BAM,Bam
BF,BFA,Burkina Faso,BF-BAN,Banwa
BF,BFA,Burkina Faso,BF-BAZ,Bazèga
BF,BFA,Burkina Faso,BF-BGR,Bougouriba
BF,BFA,Burkina Faso,BF-BLG,Boulgou
BF,BFA,Burkina Faso,BF-BLK,Boulkiemdé
BF,BFA,Burkina Faso,BF-COM,Comoé
BF,BFA,Burkina Faso,BF-GAN,Ganzourgou
BF,BFA,Burkina Faso,BF-GNA,Gnagna
BF,BFA,Burkina Faso,BF-GOU,Gourma
BF,BFA,Burkina Faso,BF-HOU,Houet
BF,BFA,Burkina Faso,BF-IOB,Ioba
BF,BFA,Burkina Faso,BF-KAD,Kadiogo
BF,BFA,Burkina Faso,BF-KEN,Kénédougou
BF,BFA,Burkina Faso,BF-KMD,Komondjari
BF,BFA,Burkina Faso,BF-KMP,Kompienga
BF,BFA,Burkina Faso,BF-KOP,Koulpélogo
BF,BFA,Burkina Faso,BF-KOS,Kossi
BF,BFA,Burkina Faso,BF-KOT,Kouritenga
BF,BFA,Burkina Faso,BF-KOW,Kourwéogo
BF,BFA,Burkina Faso,BF-LER,Léraba
BF,BFA,Burkina Faso,BF-LOR,Loroum
BF,BFA,Burkina Faso,BF-MOU,Mouhoun
BF,BFA,Burkina Faso,BF-NAM,Namentenga
BF,BFA,Burkina Faso,BF-NAO,Nahouri
BF,BFA,Burkina Faso,BF-NAY,Nayala
BF,BFA,Burkina Faso,BF-NOU,Noumbiel
BF,BFA,Burkina Faso,BF-OUB,Oubritenga
BF,BFA,Burkina Faso,BF-OUD,Oudalan
BF,BFA,Burkina Faso,BF-PAS,Passoré
BF,BFA,Burkina Faso,BF-PON,Poni
BF,BFA,Burkina Faso,BF-SEN,Séno
BF,BFA,Burkina Faso,BF-SIS,Sissili
BF,BFA,Burkina Faso,BF-SMT,Sanmatenga
BF,BFA,Burkina Faso,BF-SNG,Sanguié
BF,BFA,Burkina Faso,BF-SOM,Soum
BF,BFA,Burkina Faso,BF-SOR,Sourou
BF,BFA,Burkina Faso,BF-TAP,Tapoa
BF,BFA,Burkina Faso,BF-TUI,Tui
BF,BFA,Burkina Faso,BF-YAG,Yagha
BF,BFA,Burkina Faso,BF-YAT,Yatenga
BF,BFA,Burkina Faso,BF-ZIR,Ziro
BF,BFA,Burkina Faso,BF-ZON,Zondoma
BF,BFA,Burkina Faso,BF-ZOU,Zoundwéogo
BG,BGR,Bulgaria,BG-01,Blagoevgrad
BG,BGR,Bulgaria,BG-02,Burgas
BG,BGR,Bulgaria,BG-03,Varna
BG,BGR,Bulgaria,BG-04,Veliko Tarnovo
BG,BGR,Bulgaria,BG-05,Vidin
BG,BGR,Bulgaria,BG-06,Vratsa
BG,BGR,Bulgaria,BG-07,Gabrovo
BG,BGR,Bulgaria,BG-08,Dobrich
BG,BGR,Bulgaria,BG-09,Kardzhali
BG,BGR,Bulgaria,BG-10,Kyustendil
BG,BGR,Bulgaria,BG-11,Lovech
BG,BGR,Bulgaria,BG-12,Montana
BG,BGR,Bulgaria,BG-13,Pazardzhik
BG,BGR,Bulgaria,BG-14,Pernik
BG,BGR,Bulgaria,BG-15,Pleven
BG,BGR,Bulgaria,BG-16,Plovdiv
BG,BGR,Bulgaria,BG-17,Razgrad
BG,BGR,Bulgaria,BG-18,Ruse
BG,BGR,Bulgaria,BG-19,Silistra
BG,BGR,Bulgaria,BG-20,Sliven
BG,BGR,Bulgaria,BG-21,Smolyan
BG,BGR,Bulgaria,BG-22,Sofia
BG,BGR,Bulgaria,BG-23,Sofia
BG,BGR,Bulgaria,BG-24,Stara Zagora
BG,BGR,Bulgaria,BG-25,Targovishte
BG,BGR,Bulgaria,BG-26,Haskovo
BG,BGR,Bulgaria,BG-27,Shumen
BG,BGR,Bulgaria,BG-28,Yambol
BH,BHR,Bahrain,BH-13,Al Manāmah
BH,BHR,Bahrain,BH-14,Al Janūbīyah
BH,BHR,Bahrain,BH-15,Al Muḩarraq
BH,BHR,Bahrain,BH-16,Al Wusţá
BH,BHR,Bahrain,BH-17,Ash Shamālīyah
BI,BDI,Burundi,BI-BB,Bubanza
BI,BDI,Burundi,BI-BL,Bujumbura Rural
BI,BDI,Burundi,BI-BM,Bujumbura Mairie
BI,BDI,Burundi,BI-BR,Bururi
BI,BDI,Burundi,BI-CA,Cankuzo
BI,BDI,Burundi,BI-CI,Cibitoke
BI,BDI,Burundi,BI-GI,Gitega
BI,BDI,Burundi,BI-KI,Kirundo
BI,BDI,Burundi,BI-KR,Karuzi
BI,BDI,Burundi,BI-KY,Kayanza
BI,BDI,Burundi,BI-MA,Makamba
BI,BDI,Burundi,BI-MU,Muramvya
BI,BDI,Burundi,BI-MW,Mwaro
BI,BDI,Burundi,BI-MY,Muyinga
BI,BDI,Burundi,BI-NG,Ngozi
BI,BDI,Burundi,BI-RT,Rutana
BI,BDI,Burundi,BI-RY,Ruyigi
BJ,BEN,Benin,BJ-AK,Atakora
BJ,BEN,Benin,BJ-AL,Alibori
BJ,BEN,Benin,BJ-AQ,Atlantique
BJ,BEN,Benin,BJ-BO,Borgou
BJ,BEN,Benin,BJ-CO,Collines
BJ,BEN,Benin,BJ-DO,Donga
BJ,BEN,Benin,BJ-KO,Kouffo
BJ,BEN,Benin,BJ-LI,Littoral
BJ,BEN,Benin,BJ-MO,Mono
BJ,BEN,Benin,BJ-OU,Ouémé
BJ,BEN,Benin,BJ-PL,Plateau
BJ,BEN,Benin,BJ-ZO,Zou
BL,BLM,Saint Barthelemy,BL-BL,St. Barthélemy
BM,BMU,Bermuda,BM-BM,Bermuda
BN,BRN,Brunei Darussalam,BN-BE,Belait
BN,BRN,Brunei Darussalam,BN-BM,Brunei-Muara
BN,BRN,Brunei Darussalam,BN-TE,Temburong
BN,BRN,Brunei Darussalam,BN-TU,Tutong
BO,BOL,Bolivia,BO-B,El Beni
BO,BOL,Bolivia,BO-C,Cochabamba
BO,BOL,Bolivia,BO-H,Chuquisaca
BO,BOL,Bolivia,BO-L,La Paz
BO,BOL,Bolivia,BO-N,Pando
BO,BOL,Bolivia,BO-O,Oruro
BO,BOL,Bolivia,BO-P,Potosí
BO,BOL,Bolivia,BO-S,Santa Cruz
BO,BOL,Bolivia,BO-T,Tarija
BQ,BES,"Bonaire, Sint Eustatius and Saba",BQ-BO,Bonaire
BQ,BES,"Bonaire, Sint Eustatius and Saba",BQ-SA,Saba
BQ,BES,"Bonaire, Sint Eustatius and Saba",BQ-SE,Sint Eustatius
BR,BRA,Brazil,BR-AC,Acre
BR,BRA,Brazil,BR-AL,Alagoas
BR,BRA,Brazil,BR-AM,Amazonas
BR,BRA,Brazil,BR-AP,Amapá
BR,BRA,Brazil,BR-BA,Bahia
BR,BRA,Brazil,BR-CE,Ceará
BR,BRA,Brazil,BR-DF,Distrito Federal
BR,BRA,Brazil,BR-ES,Espírito Santo
BR,BRA,Brazil,BR-GO,Goiás
BR,BRA,Brazil,BR-MA,Maranhão
BR,BRA,Brazil,BR-MG,Minas Gerais
BR,BRA,Brazil,BR-MS,Mato Grosso do Sul
BR,BRA,Brazil,BR-MT,Mato Grosso
BR,BRA,Brazil,BR-PA,Pará
BR,BRA,Brazil,BR-PB,Paraíba
BR,BRA,Brazil,BR-PE,Pernambuco
BR,BRA,Brazil,BR-PI,Piauí
BR,BRA,Brazil,BR-PR,Paraná
BR,BRA,Brazil,BR-RJ,Rio de Janeiro
BR,BRA,Brazil,BR-RN,Rio Grande do Norte
BR,BRA,Brazil,BR-RO,Rondônia
BR,BRA,Brazil,BR-RR,Roraima
BR,BRA,Brazil,BR-RS,Rio Grande do Sul
BR,BRA,Brazil,BR-SC,Santa Catarina
BR,BRA,Brazil,BR-SE,Sergipe
BR,BRA,Brazil,BR-SP,São Paulo
BR,BRA,Brazil,BR-TO,Tocantins
BS,BHS,Bahamas,BS-AK,Acklins
BS,BHS,Bahamas,BS-BI,Bimini
BS,BHS,Bahamas,BS-BP,Black Point
BS,BHS,Bahamas,BS-BY,Berry Islands
BS,BHS,Bahamas,BS-CE,Central Eleuthera
BS,BHS,Bahamas,BS-CI,Cat Island
BS,BHS,Bahamas,BS-CK,Crooked Island and Long Cay
BS,BHS,Bahamas,BS-CO,Central Abaco
BS,BHS,Bahamas,BS-CS,Central Andros
BS,BHS,Bahamas,BS-EG,East Grand Bahama
BS,BHS,Bahamas,BS-EX,Exuma
BS,BHS,Bahamas,BS-FP,City of Freeport
BS,BHS,Bahamas,BS-GC,Grand Cay
BS,BHS,Bahamas,BS-HI,Harbour Island
BS,BHS,Bahamas,BS-HT,Hope Town
BS,BHS,Bahamas,BS-IN,Inagua
BS,BHS,Bahamas,BS-LI,Long Island
BS,BHS,Bahamas,BS-MC,Mangrove Cay
BS,BHS,Bahamas,BS-MG,Mayaguana
BS,BHS,Bahamas,BS-MI,Moore's Island
BS,BHS,Bahamas,BS-NE,North Eleuthera
BS,BHS,Bahamas,BS-NO,North Abaco
BS,BHS,Bahamas,BS-NS,North Andros
BS,BHS,Bahamas,BS-RC,Rum Cay
BS,BHS,Bahamas,BS-RI,Ragged Island
BS,BHS,Bahamas,BS-SA,South Andros
BS,BHS,Bahamas,BS-SE,South Eleuthera
BS,BHS,Bahamas,BS-SO,South Abaco
BS,BHS,Bahamas,BS-SS,San Salvador
BS,BHS,Bahamas,BS-SW,Spanish Wells
BS,BHS,Bahamas,BS-WG,West Grand Bahama
BT,BTN,Bhutan,BT-11,Paro
BT,BTN,Bhutan,BT-12,Chhukha
BT,BTN,Bhutan,BT-13,Ha
BT,BTN,Bhutan,BT-14,Samtse
BT,BTN,Bhutan,BT-15,Thimphu
BT,BTN,Bhutan,BT-21,Tsirang
BT,BTN,Bhutan,BT-22,Dagana
BT,BTN,Bhutan,BT-23,Punakha
BT,BTN,Bhutan,BT-24,Wangdue Phodrang
BT,BTN,Bhutan,BT-31,Sarpang
BT,BTN,Bhutan,BT-32,Trongsa
BT,BTN,Bhutan,BT-33,Bumthang
BT,BTN,Bhutan,BT-34,Zhemgang
BT,BTN,Bhutan,BT-41,Trashigang
BT,BTN,Bhutan,BT-42,Monggar
BT,BTN,Bhutan,BT-43,Pemagatshel
BT,BTN,Bhutan,BT-44,Lhuentse
BT,BTN,Bhutan,BT-45,Samdrup Jongkha
BT,BTN,Bhutan,BT-GA,Gasa
BT,BTN,Bhutan,BT-TY,Trashi Yangtse
BV,BVT,Bouvet Island,BV-BV,Bouvet Island
BW,BWA,Botswana,BW-CE,Central
BW,BWA,Botswana,BW-CH,Chobe
BW,BWA,Botswana,BW-FR,Francistown
BW,BWA,Botswana,BW-GA,Gaborone
BW,BWA,Botswana,BW-GH,Ghanzi
BW,BWA,Botswana,BW-JW,Jwaneng
BW,BWA,Botswana,BW-KG,Kgalagadi
BW,BWA,Botswana,BW-KL,Kgatleng
BW,BWA,Botswana,BW-KW,Kweneng
BW,BWA,Botswana,BW-LO,Lobatse
BW,BWA,Botswana,BW-NE,North East
BW,BWA,Botswana,BW-NW,North West
BW,BWA,Botswana,BW-SE,South East
BW,BWA,Botswana,BW-SO,Southern
BW,BWA,Botswana,BW-SP,Selibe Phikwe
BW,BWA,Botswana,BW-ST,Sowa Town
BY,BLR,Belarus,BY-BR,Bresckaja voblasć
BY,BLR,Belarus,BY-HM,Gorod Minsk
BY,BLR,Belarus,BY-HO,Gomel'skaja oblast'
BY,BLR,Belarus,BY-HR,Grodnenskaja oblast'
BY,BLR,Belarus,BY-MA,Mahilioŭskaja voblasć
BY,BLR,Belarus,BY-MI,Minskaja oblast'
BY,BLR,Belarus,BY-VI,Viciebskaja voblasć
BZ,BLZ,Belize,BZ-BZ,Belize
BZ,BLZ,Belize,BZ-CY,Cayo
BZ,BLZ,Belize,BZ-CZL,Corozal
BZ,BLZ,Belize,BZ-OW,Orange Walk
BZ,BLZ,Belize,BZ-SC,Stann Creek
BZ,BLZ,Belize,BZ-TOL,Toledo
CA,CAN,Canada,CA-AB,Alberta
CA,CAN,Canada,CA-BC,British Columbia
CA,CAN,Canada,CA-MB,Manitoba
CA,CAN,Canada,CA-NB,New Brunswick
CA,CAN,Canada,CA-NL,Newfoundland and Labrador
CA,CAN,Canada,CA-NS,Nova Scotia
CA,CAN,Canada,CA-NT,Northwest Territories
CA,CAN,Canada,CA-NU,Nunavut
CA,CAN,Canada,CA-ON,Ontario
CA,CAN,Canada,CA-PE,Prince Edward Island
CA,CAN,Canada,CA-QC,Quebec
CA,CAN,Canada,CA-SK,Saskatchewan
CA,CAN,Canada,CA-YT,Yukon
CC,CCK,Cocos (Keeling) Islands,CC-CC,Cocos  Islands
CD,COD,"Congo, The Democratic Republic Of The",CD-BC,Bas-Congo
CD,COD,"Congo, The Democratic Republic Of The",CD-BN,Bandundu
CD,COD,"Congo, The Democratic Republic Of The",CD-EQ,Équateur
CD,COD,"Congo, The Democratic Republic Of The",CD-KA,Katanga
CD,COD,"Congo, The Democratic Republic Of The",CD-KE,Kasai-Oriental
CD,COD,"Congo, The Democratic Republic Of The",CD-KN,Kinshasa
CD,COD,"Congo, The Democratic Republic Of The",CD-KW,Kasai-Occidental
CD,COD,"Congo, The Democratic Republic Of The",CD-MA,Maniema
CD,COD,"Congo, The Democratic Republic Of The",CD-NK,Nord-Kivu
CD,COD,"Congo, The Democratic Republic Of The",CD-OR,Orientale
CD,COD,"Congo, The Democratic Republic Of The",CD-SK,Sud-Kivu
CF,CAF,Central African Republic,CF-AC,Ouham
CF,CAF,Central African Republic,CF-BB,Bamïngï-Bangoran
CF,CAF,Central African Republic,CF-BGF,Bangî
CF,CAF,Central African Republic,CF-BK,Basse-Kotto
CF,CAF,Central African Republic,CF-HK,Haute-Kotto
CF,CAF,Central African Republic,CF-HM,Haut-Mbomou
CF,CAF,Central African Republic,CF-HS,Haute-Sangha / Mambéré-Kadéï
CF,CAF,Central African Republic,CF-KB,Gïrïbïngï
CF,CAF,Central African Republic,CF-KG,Kemö-Gïrïbïngï
CF,CAF,Central African Republic,CF-LB,Lobaye
CF,CAF,Central African Republic,CF-MB,Mbomou
CF,CAF,Central African Republic,CF-MP,Ömbëlä-Pökö
CF,CAF,Central African Republic,CF-NM,Nana-Mambéré
CF,CAF,Central African Republic,CF-OP,Ouham-Pendé
CF,CAF,Central African Republic,CF-SE,Sangä
CF,CAF,Central African Republic,CF-UK,Ouaka
CF,CAF,Central African Republic,CF-VK,Vakaga
CG,COG,Congo,CG-11,Bouenza
CG,COG,Congo,CG-12,Pool
CG,COG,Congo,CG-13,Sangha
CG,COG,Congo,CG-14,Plateaux
CG,COG,Congo,CG-15,Cuvette-Ouest
CG,COG,Congo,CG-16,Pointe-Noire
CG,COG,Congo,CG-2,Lékoumou
CG,COG,Congo,CG-5,Kouilou
CG,COG,Congo,CG-7,Likouala
CG,COG,Congo,CG-8,Cuvette
CG,COG,Congo,CG-9,Niari
CG,COG,Congo,CG-BZV,Brazzaville
CH,CHE,Switzerland,CH-AG,Aargau
CH,CHE,Switzerland,CH-AI,Appenzell Innerrhoden
CH,CHE,Switzerland,CH-AR,Appenzell Ausserrhoden
CH,CHE,Switzerland,CH-BE,Bern
CH,CHE,Switzerland,CH-BL,Basel-Landschaft
CH,CHE,Switzerland,CH-BS,Basel-Stadt
CH,CHE,Switzerland,CH-FR,Freiburg
CH,CHE,Switzerland,CH-GE,Genève
CH,CHE,Switzerland,CH-GL,Glarus
CH,CHE,Switzerland,CH-GR,Graubünden
CH,CHE,Switzerland,CH-JU,Jura
CH,CHE,Switzerland,CH-LU,Luzern
CH,CHE,Switzerland,CH-NE,Neuchâtel
CH,CHE,Switzerland,CH-NW,Nidwalden
CH,CHE,Switzerland,CH-OW,Obwalden
CH,CHE,Switzerland,CH-SG,Sankt Gallen
CH,CHE,Switzerland,CH-SH,Schaffhausen
CH,CHE,Switzerland,CH-SO,Solothurn
CH,CHE,Switzerland,CH-SZ,Schwyz
CH,CHE,Switzerland,CH-TG,Thurgau
CH,CHE,Switzerland,CH-TI,Ticino
CH,CHE,Switzerland,CH-UR,Uri
CH,CHE,Switzerland,CH-VD,Vaud
CH,CHE,Switzerland,CH-VS,Valais
CH,CHE,Switzerland,CH-ZG,Zug
CH,CHE,Switzerland,CH-ZH,Zürich
CI,CIV,Cote D'ivoire,CI-01,Lagunes
CI,CIV,Cote D'ivoire,CI-02,Haut-Sassandra
CI,CIV,Cote D'ivoire,CI-03,Savanes
CI,CIV,Cote D'ivoire,CI-04,Vallée du Bandama
CI,CIV,Cote D'ivoire,CI-05,Moyen-Comoé
CI,CIV,Cote D'ivoire,CI-06,18 Montagnes
CI,CIV,Cote D'ivoire,CI-07,Lacs
CI,CIV,Cote D'ivoire,CI-08,Zanzan
CI,CIV,Cote D'ivoire,CI-09,Bas-Sassandra
CI,CIV,Cote D'ivoire,CI-10,Denguélé
CI,CIV,Cote D'ivoire,CI-11,Nzi-Comoé
CI,CIV,Cote D'ivoire,CI-12,Marahoué
CI,CIV,Cote D'ivoire,CI-13,Sud-Comoé
CI,CIV,Cote D'ivoire,CI-14,Worodougou
CI,CIV,Cote D'ivoire,CI-15,Sud-Bandama
CI,CIV,Cote D'ivoire,CI-16,Agnébi
CI,CIV,Cote D'ivoire,CI-17,Bafing
CI,CIV,Cote D'ivoire,CI-18,Fromager
CI,CIV,Cote D'ivoire,CI-19,Moyen-Cavally
CK,COK,Cook Islands,CK-CK,Cook Islands
CL,CHL,Chile,CL-AI,Aysén
CL,CHL,Chile,CL-AN,Antofagasta
CL,CHL,Chile,CL-AP,Arica y Parinacota
CL,CHL,Chile,CL-AR,Araucanía
CL,CHL,Chile,CL-AT,Atacama
CL,CHL,Chile,CL-BI,Biobío
CL,CHL,Chile,CL-CO,Coquimbo
CL,CHL,Chile,CL-LI,Libertador General Bernardo O'Higgins
CL,CHL,Chile,CL-LL,Los Lagos
CL,CHL,Chile,CL-LR,Los Ríos
CL,CHL,Chile,CL-MA,Magallanes
CL,CHL,Chile,CL-ML,Maule
CL,CHL,Chile,CL-RM,Región Metropolitana de Santiago
CL,CHL,Chile,CL-TA,Tarapacá
CL,CHL,Chile,CL-VS,Valparaíso
CM,CMR,Cameroon,CM-AD,Adamaoua
CM,CMR,Cameroon,CM-CE,Centre
CM,CMR,Cameroon,CM-EN,Extrême-Nord
CM,CMR,Cameroon,CM-ES,East
CM,CMR,Cameroon,CM-LT,Littoral
CM,CMR,Cameroon,CM-NO,Nord
CM,CMR,Cameroon,CM-NW,Nord-Ouest
CM,CMR,Cameroon,CM-OU,Ouest
CM,CMR,Cameroon,CM-SU,South
CM,CMR,Cameroon,CM-SW,South-West
CN,CHN,China,CN-11,Beijing
CN,CHN,China,CN-12,Tianjin
CN,CHN,China,CN-13,Hebei
CN,CHN,China,CN-14,Shanxi
CN,CHN,China,CN-15,Nei Mongol
CN,CHN,China,CN-21,Liaoning
CN,CHN,China,CN-22,Jilin
CN,CHN,China,CN-23,Heilongjiang
CN,CHN,China,CN-31,Shanghai
CN,CHN,China,CN-32,Jiangsu
CN,CHN,China,CN-33,Zhejiang
CN,CHN,China,CN-34,Anhui
CN,CHN,China,CN-35,Fujian
CN,CHN,China,CN-36,Jiangxi
CN,CHN,China,CN-37,Shandong
CN,CHN,China,CN-41,Henan
CN,CHN,China,CN-42,Hubei
CN,CHN,China,CN-43,Hunan
CN,CHN,China,CN-44,Guangdong
CN,CHN,China,CN-45,Guangxi
CN,CHN,China,CN-46,Hainan
CN,CHN,China,CN-50,Chongqing
CN,CHN,China,CN-51,Sichuan
CN,CHN,China,CN-52,Guizhou
CN,CHN,China,CN-53,Yunnan
CN,CHN,China,CN-54,Xizang
CN,CHN,China,CN-61,Shaanxi
CN,CHN,China,CN-62,Gansu
CN,CHN,China,CN-63,Qinghai
CN,CHN,China,CN-64,Ningxia
CN,CHN,China,CN-65,Xinjiang
CN,CHN,China,CN-71,Taiwan
CN,CHN,China,CN-91,Hong Kong
CN,CHN,China,CN-92,Aomen
CO,COL,Colombia,CO-AMA,Amazonas
CO,COL,Colombia,CO-ANT,Antioquia
CO,COL,Colombia,CO-ARA,Arauca
CO,COL,Colombia,CO-ATL,Atlántico
CO,COL,Colombia,CO-BOL,Bolívar
CO,COL,Colombia,CO-BOY,Boyacá
CO,COL,Colombia,CO-CAL,Caldas
CO,COL,Colombia,CO-CAQ,Caquetá
CO,COL,Colombia,CO-CAS,Casanare
CO,COL,Colombia,CO-CAU,Cauca
CO,COL,Colombia,CO-CES,Cesar
CO,COL,Colombia,CO-CHO,Chocó
CO,COL,Colombia,CO-COR,Córdoba
CO,COL,Colombia,CO-CUN,Cundinamarca
CO,COL,Colombia,CO-DC,Distrito Capital de Bogotá
CO,COL,Colombia,CO-GUA,Guainía
CO,COL,Colombia,CO-GUV,Guaviare
CO,COL,Colombia,CO-HUI,Huila
CO,COL,Colombia,CO-LAG,La Guajira
CO,COL,Colombia,CO-MAG,Magdalena
CO,COL,Colombia,CO-MET,Meta
CO,COL,Colombia,CO-NAR,Nariño
CO,COL,Colombia,CO-NSA,Norte de Santander
CO,COL,Colombia,CO-PUT,Putumayo
CO,COL,Colombia,CO-QUI,Quindío
CO,COL,Colombia,CO-RIS,Risaralda
CO,COL,Colombia,CO-SAN,Santander
CO,COL,Colombia,CO-SAP,San Andrés: Providencia y Santa Catalina
CO,COL,Colombia,CO-SUC,Sucre
CO,COL,Colombia,CO-TOL,Tolima
CO,COL,Colombia,CO-VAC,Valle del Cauca
CO,COL,Colombia,CO-VAU,Vaupés
CO,COL,Colombia,CO-VID,Vichada
CR,CRI,Costa Rica,CR-A,Alajuela
CR,CRI,Costa Rica,CR-C,Cartago
CR,CRI,Costa Rica,CR-G,Guanacaste
CR,CRI,Costa Rica,CR-H,Heredia
CR,CRI,Costa Rica,CR-L,Limón
CR,CRI,Costa Rica,CR-P,Puntarenas
CR,CRI,Costa Rica,CR-SJ,San José
CU,CUB,Cuba,CU-01,Pinar del Río
CU,CUB,Cuba,CU-03,La Habana
CU,CUB,Cuba,CU-04,Matanzas
CU,CUB,Cuba,CU-05,Villa Clara
CU,CUB,Cuba,CU-06,Cienfuegos
CU,CUB,Cuba,CU-07,Sancti Spíritus
CU,CUB,Cuba,CU-08,Ciego de Ávila
CU,CUB,Cuba,CU-09,Camagüey
CU,CUB,Cuba,CU-10,Las Tunas
CU,CUB,Cuba,CU-11,Holguín
CU,CUB,Cuba,CU-12,Granma
CU,CUB,Cuba,CU-13,Santiago de Cuba
CU,CUB,Cuba,CU-14,Guantánamo
CU,CUB,Cuba,CU-15,Artemisa
CU,CUB,Cuba,CU-16,Mayabeque
CU,CUB,Cuba,CU-99,Isla de la Juventud
CV,CPV,Cape Verde,CV-B,Ilhas de Barlavento
CV,CPV,Cape Verde,CV-BR,Brava
CV,CPV,Cape Verde,CV-BV,Boa Vista
CV,CPV,Cape Verde,CV-CA,Santa Catarina
CV,CPV,Cape Verde,CV-CF,Santa Catarina do Fogo
CV,CPV,Cape Verde,CV-CR,Santa Cruz
CV,CPV,Cape Verde,CV-MA,Maio
CV,CPV,Cape Verde,CV-MO,Mosteiros
CV,CPV,Cape Verde,CV-PA,Paul
CV,CPV,Cape Verde,CV-PN,Porto Novo
CV,CPV,Cape Verde,CV-PR,Praia
CV,CPV,Cape Verde,CV-RB,Ribeira Brava
CV,CPV,Cape Verde,CV-RG,Ribeira Grande
CV,CPV,Cape Verde,CV-RS,Ribeira Grande de Santiago
CV,CPV,Cape Verde,CV-S,Ilhas de Sotavento
CV,CPV,Cape Verde,CV-SD,São Domingos
CV,CPV,Cape Verde,CV-SF,São Filipe
CV,CPV,Cape Verde,CV-SL,Sal
CV,CPV,Cape Verde,CV-SM,São Miguel
CV,CPV,Cape Verde,CV-SO,São Lourenço dos Órgãos
CV,CPV,Cape Verde,CV-SS,São Salvador do Mundo
CV,CPV,Cape Verde,CV-SV,São Vicente
CV,CPV,Cape Verde,CV-TA,Tarrafal
CV,CPV,Cape Verde,CV-TS,Tarrafal de São Nicolau
CW,CUW,Curacao,CW-CW,Curaçao
CX,CXR,Christmas Island,CX-CX,Christmas Island
CY,CYP,Cyprus,CY-01,Lefkoşa
CY,CYP,Cyprus,CY-02,Lemesos
CY,CYP,Cyprus,CY-03,Larnaka
CY,CYP,Cyprus,CY-04,Ammochostos
CY,CYP,Cyprus,CY-05,Baf
CY,CYP,Cyprus,CY-06,Girne
CZ,CZE,Czech Republic,CZ-101,Praha 1
CZ,CZE,Czech Republic,CZ-102,Praha 2
CZ,CZE,Czech Republic,CZ-103,Praha 3
CZ,CZE,Czech Republic,CZ-104,Praha 4
CZ,CZE,Czech Republic,CZ-105,Praha 5
CZ,CZE,Czech Republic,CZ-106,Praha 6
CZ,CZE,Czech Republic,CZ-107,Praha 7
CZ,CZE,Czech Republic,CZ-108,Praha 8
CZ,CZE,Czech Republic,CZ-109,Praha 9
CZ,CZE,Czech Republic,CZ-10A,Praha 10
CZ,CZE,Czech Republic,CZ-10B,Praha 11
CZ,CZE,Czech Republic,CZ-10C,Praha 12
CZ,CZE,Czech Republic,CZ-10D,Praha 13
CZ,CZE,Czech Republic,CZ-10E,Praha 14
CZ,CZE,Czech Republic,CZ-10F,Praha 15
CZ,CZE,Czech Republic,CZ-201,Benešov
CZ,CZE,Czech Republic,CZ-202,Beroun
CZ,CZE,Czech Republic,CZ-203,Kladno
CZ,CZE,Czech Republic,CZ-204,Kolín
CZ,CZE,Czech Republic,CZ-205,Kutná Hora
CZ,CZE,Czech Republic,CZ-206,Mělník
CZ,CZE,Czech Republic,CZ-207,Mladá Boleslav
CZ,CZE,Czech Republic,CZ-208,Nymburk
CZ,CZE,Czech Republic,CZ-209,Praha-východ
CZ,CZE,Czech Republic,CZ-20A,Praha-západ
CZ,CZE,Czech Republic,CZ-20B,Příbram
CZ,CZE,Czech Republic,CZ-20C,Rakovník
CZ,CZE,Czech Republic,CZ-311,České Budějovice
CZ,CZE,Czech Republic,CZ-312,Český Krumlov
CZ,CZE,Czech Republic,CZ-313,Jindřichův Hradec
CZ,CZE,Czech Republic,CZ-314,Písek
CZ,CZE,Czech Republic,CZ-315,Prachatice
CZ,CZE,Czech Republic,CZ-316,Strakonice
CZ,CZE,Czech Republic,CZ-317,Tábor
CZ,CZE,Czech Republic,CZ-321,Domažlice
CZ,CZE,Czech Republic,CZ-322,Klatovy
CZ,CZE,Czech Republic,CZ-323,Plzeň-město
CZ,CZE,Czech Republic,CZ-324,Plzeň-jih
CZ,CZE,Czech Republic,CZ-325,Plzeň-sever
CZ,CZE,Czech Republic,CZ-326,Rokycany
CZ,CZE,Czech Republic,CZ-327,Tachov
CZ,CZE,Czech Republic,CZ-411,Cheb
CZ,CZE,Czech Republic,CZ-412,Karlovy Vary
CZ,CZE,Czech Republic,CZ-413,Sokolov
CZ,CZE,Czech Republic,CZ-421,Děčín
CZ,CZE,Czech Republic,CZ-422,Chomutov
CZ,CZE,Czech Republic,CZ-423,Litoměřice
CZ,CZE,Czech Republic,CZ-424,Louny
CZ,CZE,Czech Republic,CZ-425,Most
CZ,CZE,Czech Republic,CZ-426,Teplice
CZ,CZE,Czech Republic,CZ-427,Ústí nad Labem
CZ,CZE,Czech Republic,CZ-511,Česká Lípa
CZ,CZE,Czech Republic,CZ-512,Jablonec nad Nisou
CZ,CZE,Czech Republic,CZ-513,Liberec
CZ,CZE,Czech Republic,CZ-514,Semily
CZ,CZE,Czech Republic,CZ-521,Hradec Králové
CZ,CZE,Czech Republic,CZ-522,Jičín
CZ,CZE,Czech Republic,CZ-523,Náchod
CZ,CZE,Czech Republic,CZ-524,Rychnov nad Kněžnou
CZ,CZE,Czech Republic,CZ-525,Trutnov
CZ,CZE,Czech Republic,CZ-531,Chrudim
CZ,CZE,Czech Republic,CZ-532,Pardubice
CZ,CZE,Czech Republic,CZ-533,Svitavy
CZ,CZE,Czech Republic,CZ-534,Ústí nad Orlicí
CZ,CZE,Czech Republic,CZ-611,Havlíčkův Brod
CZ,CZE,Czech Republic,CZ-612,Jihlava
CZ,CZE,Czech Republic,CZ-613,Pelhřimov
CZ,CZE,Czech Republic,CZ-614,Třebíč
CZ,CZE,Czech Republic,CZ-615,Žd'ár nad Sázavou
CZ,CZE,Czech Republic,CZ-621,Blansko
CZ,CZE,Czech Republic,CZ-622,Brno-město
CZ,CZE,Czech Republic,CZ-623,Brno-venkov
CZ,CZE,Czech Republic,CZ-624,Břeclav
CZ,CZE,Czech Republic,CZ-625,Hodonín
CZ,CZE,Czech Republic,CZ-626,Vyškov
CZ,CZE,Czech Republic,CZ-627,Znojmo
CZ,CZE,Czech Republic,CZ-711,Jeseník
CZ,CZE,Czech Republic,CZ-712,Olomouc
CZ,CZE,Czech Republic,CZ-713,Prostĕjov
CZ,CZE,Czech Republic,CZ-714,Přerov
CZ,CZE,Czech Republic,CZ-715,Šumperk
CZ,CZE,Czech Republic,CZ-721,Kromĕříž
CZ,CZE,Czech Republic,CZ-722,Uherské Hradištĕ
CZ,CZE,Czech Republic,CZ-723,Vsetín
CZ,CZE,Czech Republic,CZ-724,Zlín
CZ,CZE,Czech Republic,CZ-801,Bruntál
CZ,CZE,Czech Republic,CZ-802,Frýdek Místek
CZ,CZE,Czech Republic,CZ-803,Karviná
CZ,CZE,Czech Republic,CZ-804,Nový Jičín
CZ,CZE,Czech Republic,CZ-805,Opava
CZ,CZE,Czech Republic,CZ-806,Ostrava město
CZ,CZE,Czech Republic,CZ-JC,Jihočeský kraj
CZ,CZE,Czech Republic,CZ-JM,Jihomoravský kraj
CZ,CZE,Czech Republic,CZ-KA,Karlovarský kraj
CZ,CZE,Czech Republic,CZ-KR,Královéhradecký kraj
CZ,CZE,Czech Republic,CZ-LI,Liberecký kraj
CZ,CZE,Czech Republic,CZ-MO,Moravskoslezský kraj
CZ,CZE,Czech Republic,CZ-OL,Olomoucký kraj
CZ,CZE,Czech Republic,CZ-PA,Pardubický kraj
CZ,CZE,Czech Republic,CZ-PL,Plzeňský kraj
CZ,CZE,Czech Republic,CZ-PR,Praha: hlavní mešto
CZ,CZE,Czech Republic,CZ-ST,Středočeský kraj
CZ,CZE,Czech Republic,CZ-US,Ústecký kraj
CZ,CZE,Czech Republic,CZ-VY,Vysočina
CZ,CZE,Czech Republic,CZ-ZL,Zlínský kraj
DE,DEU,Germany,DE-BB,Brandenburg
DE,DEU,Germany,DE-BE,Berlin
DE,DEU,Germany,DE-BW,Baden-Württemberg
DE,DEU,Germany,DE-BY,Bayern
DE,DEU,Germany,DE-HB,Bremen
DE,DEU,Germany,DE-HE,Hessen
DE,DEU,Germany,DE-HH,Hamburg
DE,DEU,Germany,DE-MV,Mecklenburg-Vorpommern
DE,DEU,Germany,DE-NI,Niedersachsen
DE,DEU,Germany,DE-NW,Nordrhein-Westfalen
DE,DEU,Germany,DE-RP,Rheinland-Pfalz
DE,DEU,Germany,DE-SH,Schleswig-Holstein
DE,DEU,Germany,DE-SL,Saarland
DE,DEU,Germany,DE-SN,Sachsen
DE,DEU,Germany,DE-ST,Sachsen-Anhalt
DE,DEU,Germany,DE-TH,Thüringen
DJ,DJI,Djibouti,DJ-AR,Arta
DJ,DJI,Djibouti,DJ-AS,Ali Sabieh
DJ,DJI,Djibouti,DJ-DI,Dikhīl
DJ,DJI,Djibouti,DJ-DJ,Djibouti
DJ,DJI,Djibouti,DJ-OB,Obock
DJ,DJI,Djibouti,DJ-TA,Tadjourah
DK,DNK,Denmark,DK-81,Nordjylland
DK,DNK,Denmark,DK-82,Midtjylland
DK,DNK,Denmark,DK-83,Syddanmark
DK,DNK,Denmark,DK-84,Hovedstaden
DK,DNK,Denmark,DK-85,Sjælland
DM,DMA,Dominica,DM-02,Saint Andrew
DM,DMA,Dominica,DM-03,Saint David
DM,DMA,Dominica,DM-04,Saint George
DM,DMA,Dominica,DM-05,Saint John
DM,DMA,Dominica,DM-06,Saint Joseph
DM,DMA,Dominica,DM-07,Saint Luke
DM,DMA,Dominica,DM-08,Saint Mark
DM,DMA,Dominica,DM-09,Saint Patrick
DM,DMA,Dominica,DM-10,Saint Paul
DM,DMA,Dominica,DM-11,Saint Peter
DO,DOM,Dominican Republic,DO-01,Distrito Nacional
DO,DOM,Dominican Republic,DO-02,Azua
DO,DOM,Dominican Republic,DO-03,Baoruco
DO,DOM,Dominican Republic,DO-04,Barahona
DO,DOM,Dominican Republic,DO-05,Dajabón
DO,DOM,Dominican Republic,DO-06,Duarte
DO,DOM,Dominican Republic,DO-07,La Estrelleta
DO,DOM,Dominican Republic,DO-08,El Seibo
DO,DOM,Dominican Republic,DO-09,Espaillat
DO,DOM,Dominican Republic,DO-10,Independencia
DO,DOM,Dominican Republic,DO-11,La Altagracia
DO,DOM,Dominican Republic,DO-12,La Romana
DO,DOM,Dominican Republic,DO-13,La Vega
DO,DOM,Dominican Republic,DO-14,María Trinidad Sánchez
DO,DOM,Dominican Republic,DO-15,Monte Cristi
DO,DOM,Dominican Republic,DO-16,Pedernales
DO,DOM,Dominican Republic,DO-17,Peravia
DO,DOM,Dominican Republic,DO-18,Puerto Plata
DO,DOM,Dominican Republic,DO-19,Hermanas Mirabal
DO,DOM,Dominican Republic,DO-20,Samaná
DO,DOM,Dominican Republic,DO-21,San Cristóbal
DO,DOM,Dominican Republic,DO-22,San Juan
DO,DOM,Dominican Republic,DO-23,San Pedro de Macorís
DO,DOM,Dominican Republic,DO-24,Sánchez Ramírez
DO,DOM,Dominican Republic,DO-25,Santiago
DO,DOM,Dominican Republic,DO-26,Santiago Rodríguez
DO,DOM,Dominican Republic,DO-27,Valverde
DO,DOM,Dominican Republic,DO-28,Monseñor Nouel
DO,DOM,Dominican Republic,DO-29,Monte Plata
DO,DOM,Dominican Republic,DO-30,Hato Mayor
DO,DOM,Dominican Republic,DO-31,San José de Ocoa
DO,DOM,Dominican Republic,DO-32,Santo Domingo
DO,DOM,Dominican Republic,DO-33,Cibao Nordeste
DO,DOM,Dominican Republic,DO-34,Cibao Noroeste
DO,DOM,Dominican Republic,DO-35,Cibao Norte
DO,DOM,Dominican Republic,DO-36,Cibao Sur
DO,DOM,Dominican Republic,DO-37,El Valle
DO,DOM,Dominican Republic,DO-38,Enriquillo
DO,DOM,Dominican Republic,DO-39,Higuamo
DO,DOM,Dominican Republic,DO-40,Ozama
DO,DOM,Dominican Republic,DO-41,Valdesia
DO,DOM,Dominican Republic,DO-42,Yuma
DZ,DZA,Algeria,DZ-01,Adrar
DZ,DZA,Algeria,DZ-02,Chlef
DZ,DZA,Algeria,DZ-03,Laghouat
DZ,DZA,Algeria,DZ-04,Oum el Bouaghi
DZ,DZA,Algeria,DZ-05,Batna
DZ,DZA,Algeria,DZ-06,Béjaïa
DZ,DZA,Algeria,DZ-07,Biskra
DZ,DZA,Algeria,DZ-08,Béchar
DZ,DZA,Algeria,DZ-09,Blida
DZ,DZA,Algeria,DZ-10,Bouira
DZ,DZA,Algeria,DZ-11,Tamanrasset
DZ,DZA,Algeria,DZ-12,Tébessa
DZ,DZA,Algeria,DZ-13,Tlemcen
DZ,DZA,Algeria,DZ-14,Tiaret
DZ,DZA,Algeria,DZ-15,Tizi Ouzou
DZ,DZA,Algeria,DZ-16,Alger
DZ,DZA,Algeria,DZ-17,Djelfa
DZ,DZA,Algeria,DZ-18,Jijel
DZ,DZA,Algeria,DZ-19,Sétif
DZ,DZA,Algeria,DZ-20,Saïda
DZ,DZA,Algeria,DZ-21,Skikda
DZ,DZA,Algeria,DZ-22,Sidi Bel Abbès
DZ,DZA,Algeria,DZ-23,Annaba
DZ,DZA,Algeria,DZ-24,Guelma
DZ,DZA,Algeria,DZ-25,Constantine
DZ,DZA,Algeria,DZ-26,Médéa
DZ,DZA,Algeria,DZ-27,Mostaganem
DZ,DZA,Algeria,DZ-28,Msila
DZ,DZA,Algeria,DZ-29,Mascara
DZ,DZA,Algeria,DZ-30,Ouargla
DZ,DZA,Algeria,DZ-31,Oran
DZ,DZA,Algeria,DZ-32,El Bayadh
DZ,DZA,Algeria,DZ-33,Illizi
DZ,DZA,Algeria,DZ-34,Bordj Bou Arréridj
DZ,DZA,Algeria,DZ-35,Boumerdès
DZ,DZA,Algeria,DZ-36,El Tarf
DZ,DZA,Algeria,DZ-37,Tindouf
DZ,DZA,Algeria,DZ-38,Tissemsilt
DZ,DZA,Algeria,DZ-39,El Oued
DZ,DZA,Algeria,DZ-40,Khenchela
DZ,DZA,Algeria,DZ-41,Souk Ahras
DZ,DZA,Algeria,DZ-42,Tipaza
DZ,DZA,Algeria,DZ-43,Mila
DZ,DZA,Algeria,DZ-44,Aïn Defla
DZ,DZA,Algeria,DZ-45,Naama
DZ,DZA,Algeria,DZ-46,Aïn Témouchent
DZ,DZA,Algeria,DZ-47,Ghardaïa
DZ,DZA,Algeria,DZ-48,Relizane
EC,ECU,Ecuador,EC-A,Azuay
EC,ECU,Ecuador,EC-B,Bolívar
EC,ECU,Ecuador,EC-C,Carchi
EC,ECU,Ecuador,EC-D,Orellana
EC,ECU,Ecuador,EC-E,Esmeraldas
EC,ECU,Ecuador,EC-F,Cañar
EC,ECU,Ecuador,EC-G,Guayas
EC,ECU,Ecuador,EC-H,Chimborazo
EC,ECU,Ecuador,EC-I,Imbabura
EC,ECU,Ecuador,EC-L,Loja
EC,ECU,Ecuador,EC-M,Manabí
EC,ECU,Ecuador,EC-N,Napo
EC,ECU,Ecuador,EC-O,El Oro
EC,ECU,Ecuador,EC-P,Pichincha
EC,ECU,Ecuador,EC-R,Los Ríos
EC,ECU,Ecuador,EC-S,Morona-Santiago
EC,ECU,Ecuador,EC-SD,Santo Domingo de los Tsáchilas
EC,ECU,Ecuador,EC-SE,Santa Elena
EC,ECU,Ecuador,EC-T,Tungurahua
EC,ECU,Ecuador,EC-U,Sucumbíos
EC,ECU,Ecuador,EC-W,Galápagos
EC,ECU,Ecuador,EC-X,Cotopaxi
EC,ECU,Ecuador,EC-Y,Pastaza
EC,ECU,Ecuador,EC-Z,Zamora-Chinchipe
EE,EST,Estonia,EE-37,Harjumaa
EE,EST,Estonia,EE-39,Hiiumaa
EE,EST,Estonia,EE-44,Ida-Virumaa
EE,EST,Estonia,EE-49,Jõgevamaa
EE,EST,Estonia,EE-51,Järvamaa
EE,EST,Estonia,EE-57,Läänemaa
EE,EST,Estonia,EE-59,Lääne-Virumaa
EE,EST,Estonia,EE-65,Põlvamaa
EE,EST,Estonia,EE-67,Pärnumaa
EE,EST,Estonia,EE-70,Raplamaa
EE,EST,Estonia,EE-74,Saaremaa
EE,EST,Estonia,EE-78,Tartumaa
EE,EST,Estonia,EE-82,Valgamaa
EE,EST,Estonia,EE-84,Viljandimaa
EE,EST,Estonia,EE-86,Võrumaa
EG,EGY,Egypt,EG-ALX,Al Iskandarīyah
EG,EGY,Egypt,EG-ASN,Aswān
EG,EGY,Egypt,EG-AST,Asyūţ
EG,EGY,Egypt,EG-BA,Al Baḩr al Aḩmar
EG,EGY,Egypt,EG-BH,Al Buḩayrah
EG,EGY,Egypt,EG-BNS,Banī Suwayf
EG,EGY,Egypt,EG-C,Al Qāhirah
EG,EGY,Egypt,EG-DK,Ad Daqahlīyah
EG,EGY,Egypt,EG-DT,Dumyāţ
EG,EGY,Egypt,EG-FYM,Al Fayyūm
EG,EGY,Egypt,EG-GH,Al Gharbīyah
EG,EGY,Egypt,EG-GZ,Al Jīzah
EG,EGY,Egypt,EG-IS,Al Ismā'īlīyah
EG,EGY,Egypt,EG-JS,Janūb Sīnā'
EG,EGY,Egypt,EG-KB,Al Qalyūbīyah
EG,EGY,Egypt,EG-KFS,Kafr ash Shaykh
EG,EGY,Egypt,EG-KN,Qinā
EG,EGY,Egypt,EG-LX,Al Uqşur
EG,EGY,Egypt,EG-MN,Al Minyā
EG,EGY,Egypt,EG-MNF,Al Minūfīyah
EG,EGY,Egypt,EG-MT,Maţrūḩ
EG,EGY,Egypt,EG-PTS,Būr Sa‘īd
EG,EGY,Egypt,EG-SHG,Sūhāj
EG,EGY,Egypt,EG-SHR,Ash Sharqīyah
EG,EGY,Egypt,EG-SIN,Shamāl Sīnā'
EG,EGY,Egypt,EG-SUZ,As Suways
EG,EGY,Egypt,EG-WAD,Al Wādī al Jadīd
EH,ESH,Western Sahara,EH-EH,Western Sahara
ER,ERI,Eritrea,ER-AN,Ansabā
ER,ERI,Eritrea,ER-DK,Debubawi K’eyyĭḥ Baḥri
ER,ERI,Eritrea,ER-DU,Al Janūbī
ER,ERI,Eritrea,ER-GB,Gash-Barka
ER,ERI,Eritrea,ER-MA,Al Awsaţ
ER,ERI,Eritrea,ER-SK,Semienawi K’eyyĭḥ Baḥri
ES,ESP,Spain,ES-A,Alacant*
ES,ESP,Spain,ES-AB,Albacete
ES,ESP,Spain,ES-AL,Almería
ES,ESP,Spain,ES-AN,Andalucía
ES,ESP,Spain,ES-AR,Aragón
ES,ESP,Spain,ES-AS,Asturias: Principado de
ES,ESP,Spain,ES-AV,Ávila
ES,ESP,Spain,ES-B,Barcelona
ES,ESP,Spain,ES-BA,Badajoz
ES,ESP,Spain,ES-BI,Bizkaia*
ES,ESP,Spain,ES-BU,Burgos
ES,ESP,Spain,ES-C,A Coruña
ES,ESP,Spain,ES-CA,Cádiz
ES,ESP,Spain,ES-CB,Cantabria
ES,ESP,Spain,ES-CC,Cáceres
ES,ESP,Spain,ES-CE,Ceuta
ES,ESP,Spain,ES-CL,Castilla y León
ES,ESP,Spain,ES-CM,Castilla-La Mancha
ES,ESP,Spain,ES-CN,Canarias
ES,ESP,Spain,ES-CO,Córdoba
ES,ESP,Spain,ES-CR,Ciudad Real
ES,ESP,Spain,ES-CS,Castelló*
ES,ESP,Spain,ES-CT,Catalunya
ES,ESP,Spain,ES-CU,Cuenca
ES,ESP,Spain,ES-EX,Extremadura
ES,ESP,Spain,ES-GA,Galicia
ES,ESP,Spain,ES-GC,Las Palmas
ES,ESP,Spain,ES-GI,Girona
ES,ESP,Spain,ES-GR,Granada
ES,ESP,Spain,ES-GU,Guadalajara
ES,ESP,Spain,ES-H,Huelva
ES,ESP,Spain,ES-HU,Huesca
ES,ESP,Spain,ES-IB,Illes Balears
ES,ESP,Spain,ES-J,Jaén
ES,ESP,Spain,ES-L,Lleida
ES,ESP,Spain,ES-LE,León
ES,ESP,Spain,ES-LO,La Rioja
ES,ESP,Spain,ES-LU,Lugo
ES,ESP,Spain,ES-M,Madrid
ES,ESP,Spain,ES-MA,Málaga
ES,ESP,Spain,ES-MC,Murcia: Región de
ES,ESP,Spain,ES-MD,Madrid: Comunidad de
ES,ESP,Spain,ES-ML,Melilla
ES,ESP,Spain,ES-MU,Murcia
ES,ESP,Spain,ES-NA,Nafarroa*
ES,ESP,Spain,ES-NC,Nafarroako Foru Komunitatea*
ES,ESP,Spain,ES-O,Asturias
ES,ESP,Spain,ES-OR,Ourense
ES,ESP,Spain,ES-P,Palencia
ES,ESP,Spain,ES-PM,Balears
ES,ESP,Spain,ES-PO,Pontevedra
ES,ESP,Spain,ES-PV,Euskal Herria
ES,ESP,Spain,ES-RI,La Rioja
ES,ESP,Spain,ES-S,Cantabria
ES,ESP,Spain,ES-SA,Salamanca
ES,ESP,Spain,ES-SE,Sevilla
ES,ESP,Spain,ES-SG,Segovia
ES,ESP,Spain,ES-SO,Soria
ES,ESP,Spain,ES-SS,Gipuzkoa*
ES,ESP,Spain,ES-T,Tarragona
ES,ESP,Spain,ES-TE,Teruel
ES,ESP,Spain,ES-TF,Santa Cruz de Tenerife
ES,ESP,Spain,ES-TO,Toledo
ES,ESP,Spain,ES-V,Valencia
ES,ESP,Spain,ES-VA,Valladolid
ES,ESP,Spain,ES-VC,Valenciana: Comunidad
ES,ESP,Spain,ES-VI,Álava
ES,ESP,Spain,ES-Z,Zaragoza
ES,ESP,Spain,ES-ZA,Zamora
ET,ETH,Ethiopia,ET-AA,Addis Ababa
ET,ETH,Ethiopia,ET-AF,Afar
ET,ETH,Ethiopia,ET-AM,Amara
ET,ETH,Ethiopia,ET-BE,Benshangul-Gumaz
ET,ETH,Ethiopia,ET-DD,Dire Dawa
ET,ETH,Ethiopia,ET-GA,Gambēla Hizboch
ET,ETH,Ethiopia,ET-HA,Harari People
ET,ETH,Ethiopia,ET-OR,Oromia
ET,ETH,Ethiopia,ET-SN,Southern Nations: Nationalities and Peoples
ET,ETH,Ethiopia,ET-SO,Somali
ET,ETH,Ethiopia,ET-TI,Tigrai
FI,FIN,Finland,FI-01,Ahvenanmaan maakunta
FI,FIN,Finland,FI-02,Etelä-Karjala
FI,FIN,Finland,FI-03,Etelä-Pohjanmaa
FI,FIN,Finland,FI-04,Etelä-Savo
FI,FIN,Finland,FI-05,Kainuu
FI,FIN,Finland,FI-06,Egentliga Tavastland
FI,FIN,Finland,FI-07,Keski-Pohjanmaa
FI,FIN,Finland,FI-08,Keski-Suomi
FI,FIN,Finland,FI-09,Kymenlaakso
FI,FIN,Finland,FI-10,Lappi
FI,FIN,Finland,FI-11,Birkaland
FI,FIN,Finland,FI-12,Österbotten
FI,FIN,Finland,FI-13,Norra Karelen
FI,FIN,Finland,FI-14,Norra Österbotten
FI,FIN,Finland,FI-15,Norra Savolax
FI,FIN,Finland,FI-16,Päijänne-Tavastland
FI,FIN,Finland,FI-17,Satakunda
FI,FIN,Finland,FI-18,Nyland
FI,FIN,Finland,FI-19,Egentliga Finland
FJ,FJI,Fiji,FJ-01,Ba
FJ,FJI,Fiji,FJ-02,Bua
FJ,FJI,Fiji,FJ-03,Cakaudrove
FJ,FJI,Fiji,FJ-04,Kadavu
FJ,FJI,Fiji,FJ-05,Lau
FJ,FJI,Fiji,FJ-06,Lomaiviti
FJ,FJI,Fiji,FJ-07,Macuata
FJ,FJI,Fiji,FJ-08,Nadroga and Navosa
FJ,FJI,Fiji,FJ-09,Naitasiri
FJ,FJI,Fiji,FJ-10,Namosi
FJ,FJI,Fiji,FJ-11,Ra
FJ,FJI,Fiji,FJ-12,Rewa
FJ,FJI,Fiji,FJ-13,Serua
FJ,FJI,Fiji,FJ-14,Tailevu
FJ,FJI,Fiji,FJ-C,Central
FJ,FJI,Fiji,FJ-E,Eastern
FJ,FJI,Fiji,FJ-N,Northern
FJ,FJI,Fiji,FJ-R,Rotuma
FJ,FJI,Fiji,FJ-W,Western
FK,FLK,Falkland Islands (Malvinas),FK-FK,Falkland Islands
FM,FSM,"Micronesia, Federated States Of",FM-KSA,Kosrae
FM,FSM,"Micronesia, Federated States Of",FM-PNI,Pohnpei
FM,FSM,"Micronesia, Federated States Of",FM-TRK,Chuuk
FM,FSM,"Micronesia, Federated States Of",FM-YAP,Yap
FO,FRO,Faroe Islands,FO-FO,Faroe Islands
FR,FRA,France,FR-01,Ain
FR,FRA,France,FR-02,Aisne
FR,FRA,France,FR-03,Allier
FR,FRA,France,FR-04,Alpes-de-Haute-Provence
FR,FRA,France,FR-05,Hautes-Alpes
FR,FRA,France,FR-06,Alpes-Maritimes
FR,FRA,France,FR-07,Ardèche
FR,FRA,France,FR-08,Ardennes
FR,FRA,France,FR-09,Ariège
FR,FRA,France,FR-10,Aube
FR,FRA,France,FR-11,Aude
FR,FRA,France,FR-12,Aveyron
FR,FRA,France,FR-13,Bouches-du-Rhône
FR,FRA,France,FR-14,Calvados
FR,FRA,France,FR-15,Cantal
FR,FRA,France,FR-16,Charente
FR,FRA,France,FR-17,Charente-Maritime
FR,FRA,France,FR-18,Cher
FR,FRA,France,FR-19,Corrèze
FR,FRA,France,FR-21,Côte-d'Or
FR,FRA,France,FR-22,Côtes-d'Armor
FR,FRA,France,FR-23,Creuse
FR,FRA,France,FR-24,Dordogne
FR,FRA,France,FR-25,Doubs
FR,FRA,France,FR-26,Drôme
FR,FRA,France,FR-27,Eure
FR,FRA,France,FR-28,Eure-et-Loir
FR,FRA,France,FR-29,Finistère
FR,FRA,France,FR-2A,Corse-du-Sud
FR,FRA,France,FR-2B,Haute-Corse
FR,FRA,France,FR-30,Gard
FR,FRA,France,FR-31,Haute-Garonne
FR,FRA,France,FR-32,Gers
FR,FRA,France,FR-33,Gironde
FR,FRA,France,FR-34,Hérault
FR,FRA,France,FR-35,Ille-et-Vilaine
FR,FRA,France,FR-36,Indre
FR,FRA,France,FR-37,Indre-et-Loire
FR,FRA,France,FR-38,Isère
FR,FRA,France,FR-39,Jura
FR,FRA,France,FR-40,Landes
FR,FRA,France,FR-41,Loir-et-Cher
FR,FRA,France,FR-42,Loire
FR,FRA,France,FR-43,Haute-Loire
FR,FRA,France,FR-44,Loire-Atlantique
FR,FRA,France,FR-45,Loiret
FR,FRA,France,FR-46,Lot
FR,FRA,France,FR-47,Lot-et-Garonne
FR,FRA,France,FR-48,Lozère
FR,FRA,France,FR-49,Maine-et-Loire
FR,FRA,France,FR-50,Manche
FR,FRA,France,FR-51,Marne
FR,FRA,France,FR-52,Haute-Marne
FR,FRA,France,FR-53,Mayenne
FR,FRA,France,FR-54,Meurthe-et-Moselle
FR,FRA,France,FR-55,Meuse
FR,FRA,France,FR-56,Morbihan
FR,FRA,France,FR-57,Moselle
FR,FRA,France,FR-58,Nièvre
FR,FRA,France,FR-59,Nord
FR,FRA,France,FR-60,Oise
FR,FRA,France,FR-61,Orne
FR,FRA,France,FR-62,Pas-de-Calais
FR,FRA,France,FR-63,Puy-de-Dôme
FR,FRA,France,FR-64,Pyrénées-Atlantiques
FR,FRA,France,FR-65,Hautes-Pyrénées
FR,FRA,France,FR-66,Pyrénées-Orientales
FR,FRA,France,FR-67,Bas-Rhin
FR,FRA,France,FR-68,Haut-Rhin
FR,FRA,France,FR-69,Rhône
FR,FRA,France,FR-70,Haute-Saône
FR,FRA,France,FR-71,Saône-et-Loire
FR,FRA,France,FR-72,Sarthe
FR,FRA,France,FR-73,Savoie
FR,FRA,France,FR-74,Haute-Savoie
FR,FRA,France,FR-75,Paris
FR,FRA,France,FR-76,Seine-Maritime
FR,FRA,France,FR-77,Seine-et-Marne
FR,FRA,France,FR-78,Yvelines
FR,FRA,France,FR-79,Deux-Sèvres
FR,FRA,France,FR-80,Somme
FR,FRA,France,FR-81,Tarn
FR,FRA,France,FR-82,Tarn-et-Garonne
FR,FRA,France,FR-83,Var
FR,FRA,France,FR-84,Vaucluse
FR,FRA,France,FR-85,Vendée
FR,FRA,France,FR-86,Vienne
FR,FRA,France,FR-87,Haute-Vienne
FR,FRA,France,FR-88,Vosges
FR,FRA,France,FR-89,Yonne
FR,FRA,France,FR-90,Territoire de Belfort
FR,FRA,France,FR-91,Essonne
FR,FRA,France,FR-92,Hauts-de-Seine
FR,FRA,France,FR-93,Seine-Saint-Denis
FR,FRA,France,FR-94,Val-de-Marne
FR,FRA,France,FR-95,Val-d'Oise
FR,FRA,France,FR-A,Alsace
FR,FRA,France,FR-B,Aquitaine
FR,FRA,France,FR-BL,Saint-Barthélemy
FR,FRA,France,FR-C,Auvergne
FR,FRA,France,FR-CP,Clipperton
FR,FRA,France,FR-D,Bourgogne
FR,FRA,France,FR-E,Bretagne
FR,FRA,France,FR-F,Centre
FR,FRA,France,FR-G,Champagne-Ardenne
FR,FRA,France,FR-GF,Guyane
FR,FRA,France,FR-GP,Guadeloupe
FR,FRA,France,FR-H,Corse
FR,FRA,France,FR-I,Franche-Comté
FR,FRA,France,FR-J,Île-de-France
FR,FRA,France,FR-K,Languedoc-Roussillon
FR,FRA,France,FR-L,Limousin
FR,FRA,France,FR-M,Lorraine
FR,FRA,France,FR-MF,Saint-Martin
FR,FRA,France,FR-MQ,Martinique
FR,FRA,France,FR-N,Midi-Pyrénées
FR,FRA,France,FR-NC,Nouvelle-Calédonie
FR,FRA,France,FR-O,Nord-Pas-de-Calais
FR,FRA,France,FR-P,Basse-Normandie
FR,FRA,France,FR-PF,Polynésie française
FR,FRA,France,FR-PM,Saint-Pierre-et-Miquelon
FR,FRA,France,FR-Q,Haute-Normandie
FR,FRA,France,FR-R,Pays-de-la-Loire
FR,FRA,France,FR-RE,La Réunion
FR,FRA,France,FR-S,Picardie
FR,FRA,France,FR-T,Poitou-Charentes
FR,FRA,France,FR-TF,Terres australes françaises
FR,FRA,France,FR-U,Provence-Alpes-Côte-d'Azur
FR,FRA,France,FR-V,Rhône-Alpes
FR,FRA,France,FR-WF,Wallis-et-Futuna
FR,FRA,France,FR-YT,Mayotte
GA,GAB,Gabon,GA-1,Estuaire
GA,GAB,Gabon,GA-2,Haut-Ogooué
GA,GAB,Gabon,GA-3,Moyen-Ogooué
GA,GAB,Gabon,GA-4,Ngounié
GA,GAB,Gabon,GA-5,Nyanga
GA,GAB,Gabon,GA-6,Ogooué-Ivindo
GA,GAB,Gabon,GA-7,Ogooué-Lolo
GA,GAB,Gabon,GA-8,Ogooué-Maritime
GA,GAB,Gabon,GA-9,Woleu-Ntem
GB,GBR,United Kingdom,GB-ABD,Aberdeenshire
GB,GBR,United Kingdom,GB-ABE,Aberdeen City
GB,GBR,United Kingdom,GB-AGB,Argyll and Bute
GB,GBR,United Kingdom,GB-AGY,Isle of Anglesey
GB,GBR,United Kingdom,GB-ANS,Angus
GB,GBR,United Kingdom,GB-ANT,Antrim
GB,GBR,United Kingdom,GB-ARD,Ards
GB,GBR,United Kingdom,GB-ARM,Armagh
GB,GBR,United Kingdom,GB-BAS,Bath and North East Somerset
GB,GBR,United Kingdom,GB-BBD,Blackburn with Darwen
GB,GBR,United Kingdom,GB-BDF,Bedford
GB,GBR,United Kingdom,GB-BDG,Barking and Dagenham
GB,GBR,United Kingdom,GB-BEN,Brent
GB,GBR,United Kingdom,GB-BEX,Bexley
GB,GBR,United Kingdom,GB-BFS,Belfast
GB,GBR,United Kingdom,GB-BGE,Bridgend
GB,GBR,United Kingdom,GB-BGW,Blaenau Gwent
GB,GBR,United Kingdom,GB-BIR,Birmingham
GB,GBR,United Kingdom,GB-BKM,Buckinghamshire
GB,GBR,United Kingdom,GB-BLA,Ballymena
GB,GBR,United Kingdom,GB-BLY,Ballymoney
GB,GBR,United Kingdom,GB-BMH,Bournemouth
GB,GBR,United Kingdom,GB-BNB,Banbridge
GB,GBR,United Kingdom,GB-BNE,Barnet
GB,GBR,United Kingdom,GB-BNH,Brighton and Hove
GB,GBR,United Kingdom,GB-BNS,Barnsley
GB,GBR,United Kingdom,GB-BOL,Bolton
GB,GBR,United Kingdom,GB-BPL,Blackpool
GB,GBR,United Kingdom,GB-BRC,Bracknell Forest
GB,GBR,United Kingdom,GB-BRD,Bradford
GB,GBR,United Kingdom,GB-BRY,Bromley
GB,GBR,United Kingdom,GB-BST,Bristol: City of
GB,GBR,United Kingdom,GB-BUR,Bury
GB,GBR,United Kingdom,GB-CAM,Cambridgeshire
GB,GBR,United Kingdom,GB-CAY,Caerphilly
GB,GBR,United Kingdom,GB-CBF,Central Bedfordshire
GB,GBR,United Kingdom,GB-CGN,Ceredigion
GB,GBR,United Kingdom,GB-CGV,Craigavon
GB,GBR,United Kingdom,GB-CHE,Cheshire East
GB,GBR,United Kingdom,GB-CHW,Cheshire West and Chester
GB,GBR,United Kingdom,GB-CKF,Carrickfergus
GB,GBR,United Kingdom,GB-CKT,Cookstown
GB,GBR,United Kingdom,GB-CLD,Calderdale
GB,GBR,United Kingdom,GB-CLK,Clackmannanshire
GB,GBR,United Kingdom,GB-CLR,Coleraine
GB,GBR,United Kingdom,GB-CMA,Cumbria
GB,GBR,United Kingdom,GB-CMD,Camden
GB,GBR,United Kingdom,GB-CMN,Carmarthenshire
GB,GBR,United Kingdom,GB-CON,Cornwall
GB,GBR,United Kingdom,GB-COV,Coventry
GB,GBR,United Kingdom,GB-CRF,Cardiff
GB,GBR,United Kingdom,GB-CRY,Croydon
GB,GBR,United Kingdom,GB-CSR,Castlereagh
GB,GBR,United Kingdom,GB-CWY,Conwy
GB,GBR,United Kingdom,GB-DAL,Darlington
GB,GBR,United Kingdom,GB-DBY,Derbyshire
GB,GBR,United Kingdom,GB-DEN,Denbighshire
GB,GBR,United Kingdom,GB-DER,Derby
GB,GBR,United Kingdom,GB-DEV,Devon
GB,GBR,United Kingdom,GB-DGN,Dungannon and South Tyrone
GB,GBR,United Kingdom,GB-DGY,Dumfries and Galloway
GB,GBR,United Kingdom,GB-DNC,Doncaster
GB,GBR,United Kingdom,GB-DND,Dundee City
GB,GBR,United Kingdom,GB-DOR,Dorset
GB,GBR,United Kingdom,GB-DOW,Down
GB,GBR,United Kingdom,GB-DRY,Derry
GB,GBR,United Kingdom,GB-DUD,Dudley
GB,GBR,United Kingdom,GB-DUR,Durham County
GB,GBR,United Kingdom,GB-EAL,Ealing
GB,GBR,United Kingdom,GB-EAW,England and Wales
GB,GBR,United Kingdom,GB-EAY,East Ayrshire
GB,GBR,United Kingdom,GB-EDH,Edinburgh: City of
GB,GBR,United Kingdom,GB-EDU,East Dunbartonshire
GB,GBR,United Kingdom,GB-ELN,East Lothian
GB,GBR,United Kingdom,GB-ELS,Eilean Siar
GB,GBR,United Kingdom,GB-ENF,Enfield
GB,GBR,United Kingdom,GB-ENG,England
GB,GBR,United Kingdom,GB-ERW,East Renfrewshire
GB,GBR,United Kingdom,GB-ERY,East Riding of Yorkshire
GB,GBR,United Kingdom,GB-ESS,Essex
GB,GBR,United Kingdom,GB-ESX,East Sussex
GB,GBR,United Kingdom,GB-FAL,Falkirk
GB,GBR,United Kingdom,GB-FER,Fermanagh
GB,GBR,United Kingdom,GB-FIF,Fife
GB,GBR,United Kingdom,GB-FLN,Flintshire
GB,GBR,United Kingdom,GB-GAT,Gateshead
GB,GBR,United Kingdom,GB-GBN,Great Britain
GB,GBR,United Kingdom,GB-GLG,Glasgow City
GB,GBR,United Kingdom,GB-GLS,Gloucestershire
GB,GBR,United Kingdom,GB-GRE,Greenwich
GB,GBR,United Kingdom,GB-GWN,Gwynedd
GB,GBR,United Kingdom,GB-HAL,Halton
GB,GBR,United Kingdom,GB-HAM,Hampshire
GB,GBR,United Kingdom,GB-HAV,Havering
GB,GBR,United Kingdom,GB-HCK,Hackney
GB,GBR,United Kingdom,GB-HEF,Herefordshire
GB,GBR,United Kingdom,GB-HIL,Hillingdon
GB,GBR,United Kingdom,GB-HLD,Highland
GB,GBR,United Kingdom,GB-HMF,Hammersmith and Fulham
GB,GBR,United Kingdom,GB-HNS,Hounslow
GB,GBR,United Kingdom,GB-HPL,Hartlepool
GB,GBR,United Kingdom,GB-HRT,Hertfordshire
GB,GBR,United Kingdom,GB-HRW,Harrow
GB,GBR,United Kingdom,GB-HRY,Haringey
GB,GBR,United Kingdom,GB-IOS,Isles of Scilly
GB,GBR,United Kingdom,GB-IOW,Isle of Wight
GB,GBR,United Kingdom,GB-ISL,Islington
GB,GBR,United Kingdom,GB-IVC,Inverclyde
GB,GBR,United Kingdom,GB-KEC,Kensington and Chelsea
GB,GBR,United Kingdom,GB-KEN,Kent
GB,GBR,United Kingdom,GB-KHL,Kingston upon Hull
GB,GBR,United Kingdom,GB-KIR,Kirklees
GB,GBR,United Kingdom,GB-KTT,Kingston upon Thames
GB,GBR,United Kingdom,GB-KWL,Knowsley
GB,GBR,United Kingdom,GB-LAN,Lancashire
GB,GBR,United Kingdom,GB-LBH,Lambeth
GB,GBR,United Kingdom,GB-LCE,Leicester
GB,GBR,United Kingdom,GB-LDS,Leeds
GB,GBR,United Kingdom,GB-LEC,Leicestershire
GB,GBR,United Kingdom,GB-LEW,Lewisham
GB,GBR,United Kingdom,GB-LIN,Lincolnshire
GB,GBR,United Kingdom,GB-LIV,Liverpool
GB,GBR,United Kingdom,GB-LMV,Limavady
GB,GBR,United Kingdom,GB-LND,London: City of
GB,GBR,United Kingdom,GB-LRN,Larne
GB,GBR,United Kingdom,GB-LSB,Lisburn
GB,GBR,United Kingdom,GB-LUT,Luton
GB,GBR,United Kingdom,GB-MAN,Manchester
GB,GBR,United Kingdom,GB-MDB,Middlesbrough
GB,GBR,United Kingdom,GB-MDW,Medway
GB,GBR,United Kingdom,GB-MFT,Magherafelt
GB,GBR,United Kingdom,GB-MIK,Milton Keynes
GB,GBR,United Kingdom,GB-MLN,Midlothian
GB,GBR,United Kingdom,GB-MON,Monmouthshire
GB,GBR,United Kingdom,GB-MRT,Merton
GB,GBR,United Kingdom,GB-MRY,Moray
GB,GBR,United Kingdom,GB-MTY,Merthyr Tydfil
GB,GBR,United Kingdom,GB-MYL,Moyle
GB,GBR,United Kingdom,GB-NAY,North Ayrshire
GB,GBR,United Kingdom,GB-NBL,Northumberland
GB,GBR,United Kingdom,GB-NDN,North Down
GB,GBR,United Kingdom,GB-NEL,North East Lincolnshire
GB,GBR,United Kingdom,GB-NET,Newcastle upon Tyne
GB,GBR,United Kingdom,GB-NFK,Norfolk
GB,GBR,United Kingdom,GB-NGM,Nottingham
GB,GBR,United Kingdom,GB-NIR,Northern Ireland
GB,GBR,United Kingdom,GB-NLK,North Lanarkshire
GB,GBR,United Kingdom,GB-NLN,North Lincolnshire
GB,GBR,United Kingdom,GB-NSM,North Somerset
GB,GBR,United Kingdom,GB-NTA,Newtownabbey
GB,GBR,United Kingdom,GB-NTH,Northamptonshire
GB,GBR,United Kingdom,GB-NTL,Neath Port Talbot
GB,GBR,United Kingdom,GB-NTT,Nottinghamshire
GB,GBR,United Kingdom,GB-NTY,North Tyneside
GB,GBR,United Kingdom,GB-NWM,Newham
GB,GBR,United Kingdom,GB-NWP,Newport
GB,GBR,United Kingdom,GB-NYK,North Yorkshire
GB,GBR,United Kingdom,GB-NYM,Newry and Mourne
GB,GBR,United Kingdom,GB-OLD,Oldham
GB,GBR,United Kingdom,GB-OMH,Omagh
GB,GBR,United Kingdom,GB-ORK,Orkney Islands
GB,GBR,United Kingdom,GB-OXF,Oxfordshire
GB,GBR,United Kingdom,GB-PEM,Pembrokeshire
GB,GBR,United Kingdom,GB-PKN,Perth and Kinross
GB,GBR,United Kingdom,GB-PLY,Plymouth
GB,GBR,United Kingdom,GB-POL,Poole
GB,GBR,United Kingdom,GB-POR,Portsmouth
GB,GBR,United Kingdom,GB-POW,Powys
GB,GBR,United Kingdom,GB-PTE,Peterborough
GB,GBR,United Kingdom,GB-RCC,Redcar and Cleveland
GB,GBR,United Kingdom,GB-RCH,Rochdale
GB,GBR,United Kingdom,GB-RDB,Redbridge
GB,GBR,United Kingdom,GB-RDG,Reading
GB,GBR,United Kingdom,GB-RFW,Renfrewshire
GB,GBR,United Kingdom,GB-RIC,Richmond upon Thames
GB,GBR,United Kingdom,GB-ROT,Rotherham
GB,GBR,United Kingdom,GB-RUT,Rutland
GB,GBR,United Kingdom,GB-SAW,Sandwell
GB,GBR,United Kingdom,GB-SAY,South Ayrshire
GB,GBR,United Kingdom,GB-SCB,Scottish Borders: The
GB,GBR,United Kingdom,GB-SCT,Scotland
GB,GBR,United Kingdom,GB-SFK,Suffolk
GB,GBR,United Kingdom,GB-SFT,Sefton
GB,GBR,United Kingdom,GB-SGC,South Gloucestershire
GB,GBR,United Kingdom,GB-SHF,Sheffield
GB,GBR,United Kingdom,GB-SHN,St. Helens
GB,GBR,United Kingdom,GB-SHR,Shropshire
GB,GBR,United Kingdom,GB-SKP,Stockport
GB,GBR,United Kingdom,GB-SLF,Salford
GB,GBR,United Kingdom,GB-SLG,Slough
GB,GBR,United Kingdom,GB-SLK,South Lanarkshire
GB,GBR,United Kingdom,GB-SND,Sunderland
GB,GBR,United Kingdom,GB-SOL,Solihull
GB,GBR,United Kingdom,GB-SOM,Somerset
GB,GBR,United Kingdom,GB-SOS,Southend-on-Sea
GB,GBR,United Kingdom,GB-SRY,Surrey
GB,GBR,United Kingdom,GB-STB,Strabane
GB,GBR,United Kingdom,GB-STE,Stoke-on-Trent
GB,GBR,United Kingdom,GB-STG,Stirling
GB,GBR,United Kingdom,GB-STH,Southampton
GB,GBR,United Kingdom,GB-STN,Sutton
GB,GBR,United Kingdom,GB-STS,Staffordshire
GB,GBR,United Kingdom,GB-STT,Stockton-on-Tees
GB,GBR,United Kingdom,GB-STY,South Tyneside
GB,GBR,United Kingdom,GB-SWA,Swansea
GB,GBR,United Kingdom,GB-SWD,Swindon
GB,GBR,United Kingdom,GB-SWK,Southwark
GB,GBR,United Kingdom,GB-TAM,Tameside
GB,GBR,United Kingdom,GB-TFW,Telford and Wrekin
GB,GBR,United Kingdom,GB-THR,Thurrock
GB,GBR,United Kingdom,GB-TOB,Torbay
GB,GBR,United Kingdom,GB-TOF,Torfaen
GB,GBR,United Kingdom,GB-TRF,Trafford
GB,GBR,United Kingdom,GB-TWH,Tower Hamlets
GB,GBR,United Kingdom,GB-UKM,United Kingdom
GB,GBR,United Kingdom,GB-VGL,Vale of Glamorgan: The
GB,GBR,United Kingdom,GB-WAR,Warwickshire
GB,GBR,United Kingdom,GB-WBK,West Berkshire
GB,GBR,United Kingdom,GB-WDU,West Dunbartonshire
GB,GBR,United Kingdom,GB-WFT,Waltham Forest
GB,GBR,United Kingdom,GB-WGN,Wigan
GB,GBR,United Kingdom,GB-WIL,Wiltshire
GB,GBR,United Kingdom,GB-WKF,Wakefield
GB,GBR,United Kingdom,GB-WLL,Walsall
GB,GBR,United Kingdom,GB-WLN,West Lothian
GB,GBR,United Kingdom,GB-WLS,Wales
GB,GBR,United Kingdom,GB-WLV,Wolverhampton
GB,GBR,United Kingdom,GB-WND,Wandsworth
GB,GBR,United Kingdom,GB-WNM,Windsor and Maidenhead
GB,GBR,United Kingdom,GB-WOK,Wokingham
GB,GBR,United Kingdom,GB-WOR,Worcestershire
GB,GBR,United Kingdom,GB-WRL,Wirral
GB,GBR,United Kingdom,GB-WRT,Warrington
GB,GBR,United Kingdom,GB-WRX,Wrexham
GB,GBR,United Kingdom,GB-WSM,Westminster
GB,GBR,United Kingdom,GB-WSX,West Sussex
GB,GBR,United Kingdom,GB-YOR,York
GB,GBR,United Kingdom,GB-ZET,Shetland Islands
GD,GRD,Grenada,GD-01,Saint Andrew
GD,GRD,Grenada,GD-02,Saint David
GD,GRD,Grenada,GD-03,Saint George
GD,GRD,Grenada,GD-04,Saint John
GD,GRD,Grenada,GD-05,Saint Mark
GD,GRD,Grenada,GD-06,Saint Patrick
GD,GRD,Grenada,GD-10,Southern Grenadine Islands
GE,GEO,Georgia,GE-AB,Abkhazia
GE,GEO,Georgia,GE-AJ,Ajaria
GE,GEO,Georgia,GE-GU,Guria
GE,GEO,Georgia,GE-IM,Imereti
GE,GEO,Georgia,GE-KA,K'akheti
GE,GEO,Georgia,GE-KK,Kvemo Kartli
GE,GEO,Georgia,GE-MM,Mtskheta-Mtianeti
GE,GEO,Georgia,GE-RL,Rach'a-Lechkhumi-Kvemo Svaneti
GE,GEO,Georgia,GE-SJ,Samtskhe-Javakheti
GE,GEO,Georgia,GE-SK,Shida Kartli
GE,GEO,Georgia,GE-SZ,Samegrelo-Zemo Svaneti
GE,GEO,Georgia,GE-TB,Tbilisi
GF,GUF,French Guiana,GF-GF,French Guiana
GG,GGY,Guernsey,GG-GG,Guernsey
GH,GHA,Ghana,GH-AA,Greater Accra
GH,GHA,Ghana,GH-AH,Ashanti
GH,GHA,Ghana,GH-BA,Brong-Ahafo
GH,GHA,Ghana,GH-CP,Central
GH,GHA,Ghana,GH-EP,Eastern
GH,GHA,Ghana,GH-NP,Northern
GH,GHA,Ghana,GH-TV,Volta
GH,GHA,Ghana,GH-UE,Upper East
GH,GHA,Ghana,GH-UW,Upper West
GH,GHA,Ghana,GH-WP,Western
GI,GIB,Gibraltar,GI-GI,Gibraltar
GL,GRL,Greenland,GL-KU,Kommune Kujalleq
GL,GRL,Greenland,GL-QA,Qaasuitsup Kommunia
GL,GRL,Greenland,GL-QE,Qeqqata Kommunia
GL,GRL,Greenland,GL-SM,Kommuneqarfik Sermersooq
GM,GMB,Gambia,GM-B,Banjul
GM,GMB,Gambia,GM-L,Lower River
GM,GMB,Gambia,GM-M,Central River
GM,GMB,Gambia,GM-N,North Bank
GM,GMB,Gambia,GM-U,Upper River
GM,GMB,Gambia,GM-W,Western
GN,GIN,Guinea,GN-B,Boké
GN,GIN,Guinea,GN-BE,Beyla
GN,GIN,Guinea,GN-BF,Boffa
GN,GIN,Guinea,GN-BK,Boké
GN,GIN,Guinea,GN-C,Conakry
GN,GIN,Guinea,GN-CO,Coyah
GN,GIN,Guinea,GN-D,Kindia
GN,GIN,Guinea,GN-DB,Dabola
GN,GIN,Guinea,GN-DI,Dinguiraye
GN,GIN,Guinea,GN-DL,Dalaba
GN,GIN,Guinea,GN-DU,Dubréka
GN,GIN,Guinea,GN-F,Faranah
GN,GIN,Guinea,GN-FA,Faranah
GN,GIN,Guinea,GN-FO,Forécariah
GN,GIN,Guinea,GN-FR,Fria
GN,GIN,Guinea,GN-GA,Gaoual
GN,GIN,Guinea,GN-GU,Guékédou
GN,GIN,Guinea,GN-K,Kankan
GN,GIN,Guinea,GN-KA,Kankan
GN,GIN,Guinea,GN-KB,Koubia
GN,GIN,Guinea,GN-KD,Kindia
GN,GIN,Guinea,GN-KE,Kérouané
GN,GIN,Guinea,GN-KN,Koundara
GN,GIN,Guinea,GN-KO,Kouroussa
GN,GIN,Guinea,GN-KS,Kissidougou
GN,GIN,Guinea,GN-L,Labé
GN,GIN,Guinea,GN-LA,Labé
GN,GIN,Guinea,GN-LE,Lélouma
GN,GIN,Guinea,GN-LO,Lola
GN,GIN,Guinea,GN-M,Mamou
GN,GIN,Guinea,GN-MC,Macenta
GN,GIN,Guinea,GN-MD,Mandiana
GN,GIN,Guinea,GN-ML,Mali
GN,GIN,Guinea,GN-MM,Mamou
GN,GIN,Guinea,GN-N,Nzérékoré
GN,GIN,Guinea,GN-NZ,Nzérékoré
GN,GIN,Guinea,GN-PI,Pita
GN,GIN,Guinea,GN-SI,Siguiri
GN,GIN,Guinea,GN-TE,Télimélé
GN,GIN,Guinea,GN-TO,Tougué
GN,GIN,Guinea,GN-YO,Yomou
GP,GLP,Guadeloupe,GP-GP,Guadeloupe
GQ,GNQ,Equatorial Guinea,GQ-AN,Annobón
GQ,GNQ,Equatorial Guinea,GQ-BN,Bioko Nord
GQ,GNQ,Equatorial Guinea,GQ-BS,Bioko Sud
GQ,GNQ,Equatorial Guinea,GQ-C,Região Continental
GQ,GNQ,Equatorial Guinea,GQ-CS,Centro Sud
GQ,GNQ,Equatorial Guinea,GQ-I,Região Insular
GQ,GNQ,Equatorial Guinea,GQ-KN,Kié-Ntem
GQ,GNQ,Equatorial Guinea,GQ-LI,Litoral
GQ,GNQ,Equatorial Guinea,GQ-WN,Wele-Nzas
GR,GRC,Greece,GR-01,Aitoloakarnanía
GR,GRC,Greece,GR-03,Voiotía
GR,GRC,Greece,GR-04,Évvoia
GR,GRC,Greece,GR-05,Evrytanía
GR,GRC,Greece,GR-06,Fthiótida
GR,GRC,Greece,GR-07,Fokída
GR,GRC,Greece,GR-11,Argolída
GR,GRC,Greece,GR-12,Arkadía
GR,GRC,Greece,GR-13,Achaḯa
GR,GRC,Greece,GR-14,Ileía
GR,GRC,Greece,GR-15,Korinthía
GR,GRC,Greece,GR-16,Lakonía
GR,GRC,Greece,GR-17,Messinía
GR,GRC,Greece,GR-21,Zákynthos
GR,GRC,Greece,GR-22,Kérkyra
GR,GRC,Greece,GR-23,Kefallinía
GR,GRC,Greece,GR-24,Lefkáda
GR,GRC,Greece,GR-31,Árta
GR,GRC,Greece,GR-32,Thesprotía
GR,GRC,Greece,GR-33,Ioánnina
GR,GRC,Greece,GR-34,Préveza
GR,GRC,Greece,GR-41,Kardítsa
GR,GRC,Greece,GR-42,Lárisa
GR,GRC,Greece,GR-43,Magnisía
GR,GRC,Greece,GR-44,Tríkala
GR,GRC,Greece,GR-51,Grevená
GR,GRC,Greece,GR-52,Dráma
GR,GRC,Greece,GR-53,Imathía
GR,GRC,Greece,GR-54,Thessaloníki
GR,GRC,Greece,GR-55,Kavála
GR,GRC,Greece,GR-56,Kastoriá
GR,GRC,Greece,GR-57,Kilkís
GR,GRC,Greece,GR-58,Kozáni
GR,GRC,Greece,GR-59,Pélla
GR,GRC,Greece,GR-61,Piería
GR,GRC,Greece,GR-62,Sérres
GR,GRC,Greece,GR-63,Flórina
GR,GRC,Greece,GR-64,Chalkidikí
GR,GRC,Greece,GR-69,Ágion Óros
GR,GRC,Greece,GR-71,Évros
GR,GRC,Greece,GR-72,Xánthi
GR,GRC,Greece,GR-73,Rodópi
GR,GRC,Greece,GR-81,Dodekánisa
GR,GRC,Greece,GR-82,Kykládes
GR,GRC,Greece,GR-83,Lésvos
GR,GRC,Greece,GR-84,Sámos
GR,GRC,Greece,GR-85,Chíos
GR,GRC,Greece,GR-91,Irakleío
GR,GRC,Greece,GR-92,Lasíthi
GR,GRC,Greece,GR-93,Rethýmnis
GR,GRC,Greece,GR-94,Chaniá
GR,GRC,Greece,GR-A,Anatolikí Makedonía kai Thráki
GR,GRC,Greece,GR-A1,Attikí
GR,GRC,Greece,GR-B,Kentrikí Makedonía
GR,GRC,Greece,GR-C,Dytikí Makedonía
GR,GRC,Greece,GR-D,Ípeiros
GR,GRC,Greece,GR-E,Thessalía
GR,GRC,Greece,GR-F,Ionía Nísia
GR,GRC,Greece,GR-G,Dytikí Elláda
GR,GRC,Greece,GR-H,Stereá Elláda
GR,GRC,Greece,GR-I,Attikí
GR,GRC,Greece,GR-J,Peloponnísos
GR,GRC,Greece,GR-K,Voreío Aigaío
GR,GRC,Greece,GR-L,Notío Aigaío
GR,GRC,Greece,GR-M,Krítí
GS,SGS,South Georgia And The South Sandwich Islands,GS-GS,S.Georgia & S.Sandwich Islands
GT,GTM,Guatemala,GT-AV,Alta Verapaz
GT,GTM,Guatemala,GT-BV,Baja Verapaz
GT,GTM,Guatemala,GT-CM,Chimaltenango
GT,GTM,Guatemala,GT-CQ,Chiquimula
GT,GTM,Guatemala,GT-ES,Escuintla
GT,GTM,Guatemala,GT-GU,Guatemala
GT,GTM,Guatemala,GT-HU,Huehuetenango
GT,GTM,Guatemala,GT-IZ,Izabal
GT,GTM,Guatemala,GT-JA,Jalapa
GT,GTM,Guatemala,GT-JU,Jutiapa
GT,GTM,Guatemala,GT-PE,Petén
GT,GTM,Guatemala,GT-PR,El Progreso
GT,GTM,Guatemala,GT-QC,Quiché
GT,GTM,Guatemala,GT-QZ,Quetzaltenango
GT,GTM,Guatemala,GT-RE,Retalhuleu
GT,GTM,Guatemala,GT-SA,Sacatepéquez
GT,GTM,Guatemala,GT-SM,San Marcos
GT,GTM,Guatemala,GT-SO,Sololá
GT,GTM,Guatemala,GT-SR,Santa Rosa
GT,GTM,Guatemala,GT-SU,Suchitepéquez
GT,GTM,Guatemala,GT-TO,Totonicapán
GT,GTM,Guatemala,GT-ZA,Zacapa
GU,GUM,Guam,GU-GU,Guam
GW,GNB,Guinea,GW-BA,Bafatá
GW,GNB,Guinea,GW-BL,Bolama
GW,GNB,Guinea,GW-BM,Biombo
GW,GNB,Guinea,GW-BS,Bissau
GW,GNB,Guinea,GW-CA,Cacheu
GW,GNB,Guinea,GW-GA,Gabú
GW,GNB,Guinea,GW-L,Leste
GW,GNB,Guinea,GW-N,Norte
GW,GNB,Guinea,GW-OI,Oio
GW,GNB,Guinea,GW-QU,Quinara
GW,GNB,Guinea,GW-S,Sul
GW,GNB,Guinea,GW-TO,Tombali
GY,GUY,Guyana,GY-BA,Barima-Waini
GY,GUY,Guyana,GY-CU,Cuyuni-Mazaruni
GY,GUY,Guyana,GY-DE,Demerara-Mahaica
GY,GUY,Guyana,GY-EB,East Berbice-Corentyne
GY,GUY,Guyana,GY-ES,Essequibo Islands-West Demerara
GY,GUY,Guyana,GY-MA,Mahaica-Berbice
GY,GUY,Guyana,GY-PM,Pomeroon-Supenaam
GY,GUY,Guyana,GY-PT,Potaro-Siparuni
GY,GUY,Guyana,GY-UD,Upper Demerara-Berbice
GY,GUY,Guyana,GY-UT,Upper Takutu-Upper Essequibo
HK,HKG,Hong Kong,HK-HK,Hong Kong
HM,HMD,Heard Island And Mcdonald Islands,HM-HM,Heard & McDonald Islands
HN,HND,Honduras,HN-AT,Atlántida
HN,HND,Honduras,HN-CH,Choluteca
HN,HND,Honduras,HN-CL,Colón
HN,HND,Honduras,HN-CM,Comayagua
HN,HND,Honduras,HN-CP,Copán
HN,HND,Honduras,HN-CR,Cortés
HN,HND,Honduras,HN-EP,El Paraíso
HN,HND,Honduras,HN-FM,Francisco Morazán
HN,HND,Honduras,HN-GD,Gracias a Dios
HN,HND,Honduras,HN-IB,Islas de la Bahía
HN,HND,Honduras,HN-IN,Intibucá
HN,HND,Honduras,HN-LE,Lempira
HN,HND,Honduras,HN-LP,La Paz
HN,HND,Honduras,HN-OC,Ocotepeque
HN,HND,Honduras,HN-OL,Olancho
HN,HND,Honduras,HN-SB,Santa Bárbara
HN,HND,Honduras,HN-VA,Valle
HN,HND,Honduras,HN-YO,Yoro
HR,HRV,Croatia,HR-01,Zagrebačka županija
HR,HRV,Croatia,HR-02,Krapinsko-zagorska županija
HR,HRV,Croatia,HR-03,Sisačko-moslavačka županija
HR,HRV,Croatia,HR-04,Karlovačka županija
HR,HRV,Croatia,HR-05,Varaždinska županija
HR,HRV,Croatia,HR-06,Koprivničko-križevačka županija
HR,HRV,Croatia,HR-07,Bjelovarsko-bilogorska županija
HR,HRV,Croatia,HR-08,Primorsko-goranska županija
HR,HRV,Croatia,HR-09,Ličko-senjska županija
HR,HRV,Croatia,HR-10,Virovitičko-podravska županija
HR,HRV,Croatia,HR-11,Požeško-slavonska županija
HR,HRV,Croatia,HR-12,Brodsko-posavska županija
HR,HRV,Croatia,HR-13,Zadarska županija
HR,HRV,Croatia,HR-14,Osječko-baranjska županija
HR,HRV,Croatia,HR-15,Šibensko-kninska županija
HR,HRV,Croatia,HR-16,Vukovarsko-srijemska županija
HR,HRV,Croatia,HR-17,Splitsko-dalmatinska županija
HR,HRV,Croatia,HR-18,Istarska županija
HR,HRV,Croatia,HR-19,Dubrovačko-neretvanska županija
HR,HRV,Croatia,HR-20,Međimurska županija
HR,HRV,Croatia,HR-21,Grad Zagreb
HT,HTI,Haiti,HT-AR,Artibonite
HT,HTI,Haiti,HT-CE,Centre
HT,HTI,Haiti,HT-GA,Grandans
HT,HTI,Haiti,HT-ND,Nò
HT,HTI,Haiti,HT-NE,Nòdès
HT,HTI,Haiti,HT-NI,Nip
HT,HTI,Haiti,HT-NO,Nòdwès
HT,HTI,Haiti,HT-OU,Lwès
HT,HTI,Haiti,HT-SD,Sid
HT,HTI,Haiti,HT-SE,Sidès
HU,HUN,Hungary,HU-BA,Baranya
HU,HUN,Hungary,HU-BC,Békéscsaba
HU,HUN,Hungary,HU-BE,Békés
HU,HUN,Hungary,HU-BK,Bács-Kiskun
HU,HUN,Hungary,HU-BU,Budapest
HU,HUN,Hungary,HU-BZ,Borsod-Abaúj-Zemplén
HU,HUN,Hungary,HU-CS,Csongrád
HU,HUN,Hungary,HU-DE,Debrecen
HU,HUN,Hungary,HU-DU,Dunaújváros
HU,HUN,Hungary,HU-EG,Eger
HU,HUN,Hungary,HU-ER,Érd
HU,HUN,Hungary,HU-FE,Fejér
HU,HUN,Hungary,HU-GS,Győr-Moson-Sopron
HU,HUN,Hungary,HU-GY,Győr
HU,HUN,Hungary,HU-HB,Hajdú-Bihar
HU,HUN,Hungary,HU-HE,Heves
HU,HUN,Hungary,HU-HV,Hódmezővásárhely
HU,HUN,Hungary,HU-JN,Jász-Nagykun-Szolnok
HU,HUN,Hungary,HU-KE,Komárom-Esztergom
HU,HUN,Hungary,HU-KM,Kecskemét
HU,HUN,Hungary,HU-KV,Kaposvár
HU,HUN,Hungary,HU-MI,Miskolc
HU,HUN,Hungary,HU-NK,Nagykanizsa
HU,HUN,Hungary,HU-NO,Nógrád
HU,HUN,Hungary,HU-NY,Nyíregyháza
HU,HUN,Hungary,HU-PE,Pest
HU,HUN,Hungary,HU-PS,Pécs
HU,HUN,Hungary,HU-SD,Szeged
HU,HUN,Hungary,HU-SF,Székesfehérvár
HU,HUN,Hungary,HU-SH,Szombathely
HU,HUN,Hungary,HU-SK,Szolnok
HU,HUN,Hungary,HU-SN,Sopron
HU,HUN,Hungary,HU-SO,Somogy
HU,HUN,Hungary,HU-SS,Szekszárd
HU,HUN,Hungary,HU-ST,Salgótarján
HU,HUN,Hungary,HU-SZ,Szabolcs-Szatmár-Bereg
HU,HUN,Hungary,HU-TB,Tatabánya
HU,HUN,Hungary,HU-TO,Tolna
HU,HUN,Hungary,HU-VA,Vas
HU,HUN,Hungary,HU-VE,Veszprém
HU,HUN,Hungary,HU-VM,Veszprém
HU,HUN,Hungary,HU-ZA,Zala
HU,HUN,Hungary,HU-ZE,Zalaegerszeg
ID,IDN,Indonesia,ID-AC,Aceh
ID,IDN,Indonesia,ID-BA,Bali
ID,IDN,Indonesia,ID-BB,Bangka Belitung
ID,IDN,Indonesia,ID-BE,Bengkulu
ID,IDN,Indonesia,ID-BT,Banten
ID,IDN,Indonesia,ID-GO,Gorontalo
ID,IDN,Indonesia,ID-JA,Jambi
ID,IDN,Indonesia,ID-JB,Jawa Barat
ID,IDN,Indonesia,ID-JI,Jawa Timur
ID,IDN,Indonesia,ID-JK,Jakarta Raya
ID,IDN,Indonesia,ID-JT,Jawa Tengah
ID,IDN,Indonesia,ID-JW,Jawa
ID,IDN,Indonesia,ID-KA,Kalimantan
ID,IDN,Indonesia,ID-KB,Kalimantan Barat
ID,IDN,Indonesia,ID-KI,Kalimantan Timur
ID,IDN,Indonesia,ID-KR,Kepulauan Riau
ID,IDN,Indonesia,ID-KS,Kalimantan Selatan
ID,IDN,Indonesia,ID-KT,Kalimantan Tengah
ID,IDN,Indonesia,ID-KU,Kalimantan Utara
ID,IDN,Indonesia,ID-LA,Lampung
ID,IDN,Indonesia,ID-MA,Maluku
ID,IDN,Indonesia,ID-ML,Maluku
ID,IDN,Indonesia,ID-MU,Maluku Utara
ID,IDN,Indonesia,ID-NB,Nusa Tenggara Barat
ID,IDN,Indonesia,ID-NT,Nusa Tenggara Timur
ID,IDN,Indonesia,ID-NU,Nusa Tenggara
ID,IDN,Indonesia,ID-PA,Papua
ID,IDN,Indonesia,ID-PB,Papua Barat
ID,IDN,Indonesia,ID-PP,Papua
ID,IDN,Indonesia,ID-RI,Riau
ID,IDN,Indonesia,ID-SA,Sulawesi Utara
ID,IDN,Indonesia,ID-SB,Sumatera Barat
ID,IDN,Indonesia,ID-SG,Sulawesi Tenggara
ID,IDN,Indonesia,ID-SL,Sulawesi
ID,IDN,Indonesia,ID-SM,Sumatera
ID,IDN,Indonesia,ID-SN,Sulawesi Selatan
ID,IDN,Indonesia,ID-SR,Sulawesi Barat
ID,IDN,Indonesia,ID-SS,Sumatera Selatan
ID,IDN,Indonesia,ID-ST,Sulawesi Tengah
ID,IDN,Indonesia,ID-SU,Sumatera Utara
ID,IDN,Indonesia,ID-YO,Yogyakarta
IE,IRL,Ireland,IE-C,Connacht
IE,IRL,Ireland,IE-CE,An Clár
IE,IRL,Ireland,IE-CN,An Cabhán
IE,IRL,Ireland,IE-CO,Corcaigh
IE,IRL,Ireland,IE-CW,Carlow
IE,IRL,Ireland,IE-D,Baile Átha Cliath
IE,IRL,Ireland,IE-DL,Donegal
IE,IRL,Ireland,IE-G,Gaillimh
IE,IRL,Ireland,IE-KE,Cill Dara
IE,IRL,Ireland,IE-KK,Cill Chainnigh
IE,IRL,Ireland,IE-KY,Ciarraí
IE,IRL,Ireland,IE-L,Laighin
IE,IRL,Ireland,IE-LD,An Longfort
IE,IRL,Ireland,IE-LH,Louth
IE,IRL,Ireland,IE-LK,Limerick
IE,IRL,Ireland,IE-LM,Leitrim
IE,IRL,Ireland,IE-LS,Laois
IE,IRL,Ireland,IE-M,An Mhumhain
IE,IRL,Ireland,IE-MH,An Mhí
IE,IRL,Ireland,IE-MN,Monaghan
IE,IRL,Ireland,IE-MO,Maigh Eo
IE,IRL,Ireland,IE-OY,Offaly
IE,IRL,Ireland,IE-RN,Ros Comáin
IE,IRL,Ireland,IE-SO,Sligeach
IE,IRL,Ireland,IE-TA,Tiobraid Árann
IE,IRL,Ireland,IE-U,Ulaidh
IE,IRL,Ireland,IE-WD,Port Láirge
IE,IRL,Ireland,IE-WH,An Iarmhí
IE,IRL,Ireland,IE-WW,Cill Mhantáin
IE,IRL,Ireland,IE-WX,Loch Garman
IL,ISR,Israel,IL-D,El Janūbī
IL,ISR,Israel,IL-HA,H̱efa
IL,ISR,Israel,IL-JM,Al Quds
IL,ISR,Israel,IL-M,El Awsaṭ
IL,ISR,Israel,IL-TA,Tel-Aviv
IL,ISR,Israel,IL-Z,Esh Shamālī
IM,IMN,Isle of Man,IM-IM,Isle of Main
IN,IND,India,IN-AN,Andaman and Nicobar Islands
IN,IND,India,IN-AP,Andhra Pradesh
IN,IND,India,IN-AR,Arunachal Pradesh
IN,IND,India,IN-AS,Assam
IN,IND,India,IN-BR,Bihar
IN,IND,India,IN-CH,Chandigarh
IN,IND,India,IN-CT,Chhattisgarh
IN,IND,India,IN-DD,Daman and Diu
IN,IND,India,IN-DL,Delhi
IN,IND,India,IN-DN,Dadra and Nagar Haveli
IN,IND,India,IN-GA,Goa
IN,IND,India,IN-GJ,Gujarat
IN,IND,India,IN-HP,Himachal Pradesh
IN,IND,India,IN-HR,Haryana
IN,IND,India,IN-JH,Jharkhand
IN,IND,India,IN-JK,Jammu and Kashmir
IN,IND,India,IN-KA,Karnataka
IN,IND,India,IN-KL,Kerala
IN,IND,India,IN-LD,Lakshadweep
IN,IND,India,IN-MH,Maharashtra
IN,IND,India,IN-ML,Meghalaya
IN,IND,India,IN-MN,Manipur
IN,IND,India,IN-MP,Madhya Pradesh
IN,IND,India,IN-MZ,Mizoram
IN,IND,India,IN-NL,Nagaland
IN,IND,India,IN-OR,Odisha
IN,IND,India,IN-PB,Punjab
IN,IND,India,IN-PY,Puducherry
IN,IND,India,IN-RJ,Rajasthan
IN,IND,India,IN-SK,Sikkim
IN,IND,India,IN-TG,Telangana
IN,IND,India,IN-TN,Tamil Nadu
IN,IND,India,IN-TR,Tripura
IN,IND,India,IN-UP,Uttar Pradesh
IN,IND,India,IN-UT,Uttarakhand
IN,IND,India,IN-WB,West Bengal
IO,IOT,British Indian Ocean Territory,IO-IO,British Indian Ocean Territory
IQ,IRQ,Iraq,IQ-AN,Al Anbār
IQ,IRQ,Iraq,IQ-AR,Arbīl
IQ,IRQ,Iraq,IQ-BA,Al Başrah
IQ,IRQ,Iraq,IQ-BB,Bābil
IQ,IRQ,Iraq,IQ-BG,Baghdād
IQ,IRQ,Iraq,IQ-DA,Dahūk
IQ,IRQ,Iraq,IQ-DI,Diyālá
IQ,IRQ,Iraq,IQ-DQ,Dhī Qār
IQ,IRQ,Iraq,IQ-KA,Karbalā'
IQ,IRQ,Iraq,IQ-KI,Kirkūk
IQ,IRQ,Iraq,IQ-MA,Maysān
IQ,IRQ,Iraq,IQ-MU,Al Muthanná
IQ,IRQ,Iraq,IQ-NA,An Najaf
IQ,IRQ,Iraq,IQ-NI,Nīnawá
IQ,IRQ,Iraq,IQ-QA,Al Qādisīyah
IQ,IRQ,Iraq,IQ-SD,Şalāḩ ad Dīn
IQ,IRQ,Iraq,IQ-SU,As Sulaymānīyah
IQ,IRQ,Iraq,IQ-WA,Wāsiţ
IR,IRN,"Iran, Islamic Republic Of",IR-01,Āz̄arbāyjān-e Sharqī
IR,IRN,"Iran, Islamic Republic Of",IR-02,Āz̄arbāyjān-e Gharbī
IR,IRN,"Iran, Islamic Republic Of",IR-03,Ardabīl
IR,IRN,"Iran, Islamic Republic Of",IR-04,Eşfahān
IR,IRN,"Iran, Islamic Republic Of",IR-05,Īlām
IR,IRN,"Iran, Islamic Republic Of",IR-06,Būshehr
IR,IRN,"Iran, Islamic Republic Of",IR-07,Tehrān
IR,IRN,"Iran, Islamic Republic Of",IR-08,Chahār Maḩāll va Bakhtīārī
IR,IRN,"Iran, Islamic Republic Of",IR-10,Khūzestān
IR,IRN,"Iran, Islamic Republic Of",IR-11,Zanjān
IR,IRN,"Iran, Islamic Republic Of",IR-12,Semnān
IR,IRN,"Iran, Islamic Republic Of",IR-13,Sīstān va Balūchestān
IR,IRN,"Iran, Islamic Republic Of",IR-14,Fārs
IR,IRN,"Iran, Islamic Republic Of",IR-15,Kermān
IR,IRN,"Iran, Islamic Republic Of",IR-16,Kordestān
IR,IRN,"Iran, Islamic Republic Of",IR-17,Kermānshāh
IR,IRN,"Iran, Islamic Republic Of",IR-18,Kohgīlūyeh va Būyer Aḩmad
IR,IRN,"Iran, Islamic Republic Of",IR-19,Gīlān
IR,IRN,"Iran, Islamic Republic Of",IR-20,Lorestān
IR,IRN,"Iran, Islamic Republic Of",IR-21,Māzandarān
IR,IRN,"Iran, Islamic Republic Of",IR-22,Markazī
IR,IRN,"Iran, Islamic Republic Of",IR-23,Hormozgān
IR,IRN,"Iran, Islamic Republic Of",IR-24,Hamadān
IR,IRN,"Iran, Islamic Republic Of",IR-25,Yazd
IR,IRN,"Iran, Islamic Republic Of",IR-26,Qom
IR,IRN,"Iran, Islamic Republic Of",IR-27,Golestān
IR,IRN,"Iran, Islamic Republic Of",IR-28,Qazvīn
IR,IRN,"Iran, Islamic Republic Of",IR-29,Khorāsān-e Janūbī
IR,IRN,"Iran, Islamic Republic Of",IR-30,Khorāsān-e Razavī
IR,IRN,"Iran, Islamic Republic Of",IR-31,Khorāsān-e Shemālī
IR,IRN,"Iran, Islamic Republic Of",IR-32,Alborz
IS,ISL,Iceland,IS-0,Reykjavík
IS,ISL,Iceland,IS-1,Höfuðborgarsvæði utan Reykjavíkur
IS,ISL,Iceland,IS-2,Suðurnes
IS,ISL,Iceland,IS-3,Vesturland
IS,ISL,Iceland,IS-4,Vestfirðir
IS,ISL,Iceland,IS-5,Norðurland vestra
IS,ISL,Iceland,IS-6,Norðurland eystra
IS,ISL,Iceland,IS-7,Austurland
IS,ISL,Iceland,IS-8,Suðurland
IT,ITA,Italy,IT-21,Piemonte
IT,ITA,Italy,IT-23,Val d'Aoste
IT,ITA,Italy,IT-25,Lombardia
IT,ITA,Italy,IT-32,Trentino-Alto Adige
IT,ITA,Italy,IT-34,Veneto
IT,ITA,Italy,IT-36,Friuli-Venezia Giulia
IT,ITA,Italy,IT-42,Liguria
IT,ITA,Italy,IT-45,Emilia-Romagna
IT,ITA,Italy,IT-52,Toscana
IT,ITA,Italy,IT-55,Umbria
IT,ITA,Italy,IT-57,Marche
IT,ITA,Italy,IT-62,Lazio
IT,ITA,Italy,IT-65,Abruzzo
IT,ITA,Italy,IT-67,Molise
IT,ITA,Italy,IT-72,Campania
IT,ITA,Italy,IT-75,Puglia
IT,ITA,Italy,IT-77,Basilicata
IT,ITA,Italy,IT-78,Calabria
IT,ITA,Italy,IT-82,Sicilia
IT,ITA,Italy,IT-88,Sardegna
IT,ITA,Italy,IT-AG,Agrigento
IT,ITA,Italy,IT-AL,Alessandria
IT,ITA,Italy,IT-AN,Ancona
IT,ITA,Italy,IT-AO,Aosta
IT,ITA,Italy,IT-AP,Ascoli Piceno
IT,ITA,Italy,IT-AQ,L'Aquila
IT,ITA,Italy,IT-AR,Arezzo
IT,ITA,Italy,IT-AT,Asti
IT,ITA,Italy,IT-AV,Avellino
IT,ITA,Italy,IT-BA,Bari
IT,ITA,Italy,IT-BG,Bergamo
IT,ITA,Italy,IT-BI,Biella
IT,ITA,Italy,IT-BL,Belluno
IT,ITA,Italy,IT-BN,Benevento
IT,ITA,Italy,IT-BO,Bologna
IT,ITA,Italy,IT-BR,Brindisi
IT,ITA,Italy,IT-BS,Brescia
IT,ITA,Italy,IT-BT,Barletta-Andria-Trani
IT,ITA,Italy,IT-BZ,Bolzano
IT,ITA,Italy,IT-CA,Cagliari
IT,ITA,Italy,IT-CB,Campobasso
IT,ITA,Italy,IT-CE,Caserta
IT,ITA,Italy,IT-CH,Chieti
IT,ITA,Italy,IT-CI,Carbonia-Iglesias
IT,ITA,Italy,IT-CL,Caltanissetta
IT,ITA,Italy,IT-CN,Cuneo
IT,ITA,Italy,IT-CO,Como
IT,ITA,Italy,IT-CR,Cremona
IT,ITA,Italy,IT-CS,Cosenza
IT,ITA,Italy,IT-CT,Catania
IT,ITA,Italy,IT-CZ,Catanzaro
IT,ITA,Italy,IT-EN,Enna
IT,ITA,Italy,IT-FC,Forlì-Cesena
IT,ITA,Italy,IT-FE,Ferrara
IT,ITA,Italy,IT-FG,Foggia
IT,ITA,Italy,IT-FI,Firenze
IT,ITA,Italy,IT-FM,Fermo
IT,ITA,Italy,IT-FR,Frosinone
IT,ITA,Italy,IT-GE,Genova
IT,ITA,Italy,IT-GO,Gorizia
IT,ITA,Italy,IT-GR,Grosseto
IT,ITA,Italy,IT-IM,Imperia
IT,ITA,Italy,IT-IS,Isernia
IT,ITA,Italy,IT-KR,Crotone
IT,ITA,Italy,IT-LC,Lecco
IT,ITA,Italy,IT-LE,Lecce
IT,ITA,Italy,IT-LI,Livorno
IT,ITA,Italy,IT-LO,Lodi
IT,ITA,Italy,IT-LT,Latina
IT,ITA,Italy,IT-LU,Lucca
IT,ITA,Italy,IT-MB,Monza e Brianza
IT,ITA,Italy,IT-MC,Macerata
IT,ITA,Italy,IT-ME,Messina
IT,ITA,Italy,IT-MI,Milano
IT,ITA,Italy,IT-MN,Mantova
IT,ITA,Italy,IT-MO,Modena
IT,ITA,Italy,IT-MS,Massa-Carrara
IT,ITA,Italy,IT-MT,Matera
IT,ITA,Italy,IT-NA,Napoli
IT,ITA,Italy,IT-NO,Novara
IT,ITA,Italy,IT-NU,Nuoro
IT,ITA,Italy,IT-OG,Ogliastra
IT,ITA,Italy,IT-OR,Oristano
IT,ITA,Italy,IT-OT,Olbia-Tempio
IT,ITA,Italy,IT-PA,Palermo
IT,ITA,Italy,IT-PC,Piacenza
IT,ITA,Italy,IT-PD,Padova
IT,ITA,Italy,IT-PE,Pescara
IT,ITA,Italy,IT-PG,Perugia
IT,ITA,Italy,IT-PI,Pisa
IT,ITA,Italy,IT-PN,Pordenone
IT,ITA,Italy,IT-PO,Prato
IT,ITA,Italy,IT-PR,Parma
IT,ITA,Italy,IT-PT,Pistoia
IT,ITA,Italy,IT-PU,Pesaro e Urbino
IT,ITA,Italy,IT-PV,Pavia
IT,ITA,Italy,IT-PZ,Potenza
IT,ITA,Italy,IT-RA,Ravenna
IT,ITA,Italy,IT-RC,Reggio Calabria
IT,ITA,Italy,IT-RE,Reggio Emilia
IT,ITA,Italy,IT-RG,Ragusa
IT,ITA,Italy,IT-RI,Rieti
IT,ITA,Italy,IT-RM,Roma
IT,ITA,Italy,IT-RN,Rimini
IT,ITA,Italy,IT-RO,Rovigo
IT,ITA,Italy,IT-SA,Salerno
IT,ITA,Italy,IT-SI,Siena
IT,ITA,Italy,IT-SO,Sondrio
IT,ITA,Italy,IT-SP,La Spezia
IT,ITA,Italy,IT-SR,Siracusa
IT,ITA,Italy,IT-SS,Sassari
IT,ITA,Italy,IT-SV,Savona
IT,ITA,Italy,IT-TA,Taranto
IT,ITA,Italy,IT-TE,Teramo
IT,ITA,Italy,IT-TN,Trento
IT,ITA,Italy,IT-TO,Torino
IT,ITA,Italy,IT-TP,Trapani
IT,ITA,Italy,IT-TR,Terni
IT,ITA,Italy,IT-TS,Trieste
IT,ITA,Italy,IT-TV,Treviso
IT,ITA,Italy,IT-UD,Udine
IT,ITA,Italy,IT-VA,Varese
IT,ITA,Italy,IT-VB,Verbano-Cusio-Ossola
IT,ITA,Italy,IT-VC,Vercelli
IT,ITA,Italy,IT-VE,Venezia
IT,ITA,Italy,IT-VI,Vicenza
IT,ITA,Italy,IT-VR,Verona
IT,ITA,Italy,IT-VS,Medio Campidano
IT,ITA,Italy,IT-VT,Viterbo
IT,ITA,Italy,IT-VV,Vibo Valentia
JE,JEY,Jersey,JE-JE,Jersey
JM,JAM,Jamaica,JM-01,Kingston
JM,JAM,Jamaica,JM-02,Saint Andrew
JM,JAM,Jamaica,JM-03,Saint Thomas
JM,JAM,Jamaica,JM-04,Portland
JM,JAM,Jamaica,JM-05,Saint Mary
JM,JAM,Jamaica,JM-06,Saint Ann
JM,JAM,Jamaica,JM-07,Trelawny
JM,JAM,Jamaica,JM-08,Saint James
JM,JAM,Jamaica,JM-09,Hanover
JM,JAM,Jamaica,JM-10,Westmoreland
JM,JAM,Jamaica,JM-11,Saint Elizabeth
JM,JAM,Jamaica,JM-12,Manchester
JM,JAM,Jamaica,JM-13,Clarendon
JM,JAM,Jamaica,JM-14,Saint Catherine
JO,JOR,Jordan,JO-AJ,ʽAjlūn
JO,JOR,Jordan,JO-AM,‘Ammān
JO,JOR,Jordan,JO-AQ,Al ʽAqabah
JO,JOR,Jordan,JO-AT,Aţ Ţafīlah
JO,JOR,Jordan,JO-AZ,Az Zarqā'
JO,JOR,Jordan,JO-BA,Al Balqā'
JO,JOR,Jordan,JO-IR,Irbid
JO,JOR,Jordan,JO-JA,Jarash
JO,JOR,Jordan,JO-KA,Al Karak
JO,JOR,Jordan,JO-MA,Al Mafraq
JO,JOR,Jordan,JO-MD,Mādabā
JO,JOR,Jordan,JO-MN,Ma'ān
JP,JPN,Japan,JP-01,Hokkaido
JP,JPN,Japan,JP-02,Aomori
JP,JPN,Japan,JP-03,Iwate
JP,JPN,Japan,JP-04,Miyagi
JP,JPN,Japan,JP-05,Akita
JP,JPN,Japan,JP-06,Yamagata
JP,JPN,Japan,JP-07,Fukushima
JP,JPN,Japan,JP-08,Ibaraki
JP,JPN,Japan,JP-09,Tochigi
JP,JPN,Japan,JP-10,Gunma
JP,JPN,Japan,JP-11,Saitama
JP,JPN,Japan,JP-12,Chiba
JP,JPN,Japan,JP-13,Tôkyô
JP,JPN,Japan,JP-14,Kanagawa
JP,JPN,Japan,JP-15,Niigata
JP,JPN,Japan,JP-16,Toyama
JP,JPN,Japan,JP-17,Ishikawa
JP,JPN,Japan,JP-18,Fukui
JP,JPN,Japan,JP-19,Yamanashi
JP,JPN,Japan,JP-20,Nagano
JP,JPN,Japan,JP-21,Gifu
JP,JPN,Japan,JP-22,Shizuoka
JP,JPN,Japan,JP-23,Aichi
JP,JPN,Japan,JP-24,Mie
JP,JPN,Japan,JP-25,Shiga
JP,JPN,Japan,JP-26,Kyoto
JP,JPN,Japan,JP-27,Osaka
JP,JPN,Japan,JP-28,Hyogo
JP,JPN,Japan,JP-29,Nara
JP,JPN,Japan,JP-30,Wakayama
JP,JPN,Japan,JP-31,Tottori
JP,JPN,Japan,JP-32,Shimane
JP,JPN,Japan,JP-33,Okayama
JP,JPN,Japan,JP-34,Hiroshima
JP,JPN,Japan,JP-35,Yamaguchi
JP,JPN,Japan,JP-36,Tokushima
JP,JPN,Japan,JP-37,Kagawa
JP,JPN,Japan,JP-38,Ehime
JP,JPN,Japan,JP-39,Kochi
JP,JPN,Japan,JP-40,Fukuoka
JP,JPN,Japan,JP-41,Saga
JP,JPN,Japan,JP-42,Nagasaki
JP,JPN,Japan,JP-43,Kumamoto
JP,JPN,Japan,JP-44,Oita
JP,JPN,Japan,JP-45,Miyazaki
JP,JPN,Japan,JP-46,Kagoshima
JP,JPN,Japan,JP-47,Okinawa
KE,KEN,Kenya,KE-01,Baringo
KE,KEN,Kenya,KE-02,Bomet
KE,KEN,Kenya,KE-03,Bungoma
KE,KEN,Kenya,KE-04,Busia
KE,KEN,Kenya,KE-05,Elgeyo/Marakwet
KE,KEN,Kenya,KE-06,Embu
KE,KEN,Kenya,KE-07,Garissa
KE,KEN,Kenya,KE-08,Homa Bay
KE,KEN,Kenya,KE-09,Isiolo
KE,KEN,Kenya,KE-10,Kajiado
KE,KEN,Kenya,KE-11,Kakamega
KE,KEN,Kenya,KE-12,Kericho
KE,KEN,Kenya,KE-13,Kiambu
KE,KEN,Kenya,KE-14,Kilifi
KE,KEN,Kenya,KE-15,Kirinyaga
KE,KEN,Kenya,KE-16,Kisii
KE,KEN,Kenya,KE-17,Kisumu
KE,KEN,Kenya,KE-18,Kitui
KE,KEN,Kenya,KE-19,Kwale
KE,KEN,Kenya,KE-20,Laikipia
KE,KEN,Kenya,KE-21,Lamu
KE,KEN,Kenya,KE-22,Machakos
KE,KEN,Kenya,KE-23,Makueni
KE,KEN,Kenya,KE-24,Mandera
KE,KEN,Kenya,KE-25,Marsabit
KE,KEN,Kenya,KE-26,Meru
KE,KEN,Kenya,KE-27,Migori
KE,KEN,Kenya,KE-28,Mombasa
KE,KEN,Kenya,KE-29,Murang'a
KE,KEN,Kenya,KE-30,Nairobi City
KE,KEN,Kenya,KE-31,Nakuru
KE,KEN,Kenya,KE-32,Nandi
KE,KEN,Kenya,KE-33,Narok
KE,KEN,Kenya,KE-34,Nyamira
KE,KEN,Kenya,KE-35,Nyandarua
KE,KEN,Kenya,KE-36,Nyeri
KE,KEN,Kenya,KE-37,Samburu
KE,KEN,Kenya,KE-38,Siaya
KE,KEN,Kenya,KE-39,Taita/Taveta
KE,KEN,Kenya,KE-40,Tana River
KE,KEN,Kenya,KE-41,Tharaka-Nithi
KE,KEN,Kenya,KE-42,Trans Nzoia
KE,KEN,Kenya,KE-43,Turkana
KE,KEN,Kenya,KE-44,Uasin Gishu
KE,KEN,Kenya,KE-45,Vihiga
KE,KEN,Kenya,KE-46,Wajir
KE,KEN,Kenya,KE-47,West Pokot
KG,KGZ,Kyrgyzstan,KG-B,Batken
KG,KGZ,Kyrgyzstan,KG-C,Chü
KG,KGZ,Kyrgyzstan,KG-GB,Bishkek
KG,KGZ,Kyrgyzstan,KG-GO,Gorod Oš
KG,KGZ,Kyrgyzstan,KG-J,Džalal-Abadskaja oblast'
KG,KGZ,Kyrgyzstan,KG-N,Naryn
KG,KGZ,Kyrgyzstan,KG-O,Osh
KG,KGZ,Kyrgyzstan,KG-T,Talas
KG,KGZ,Kyrgyzstan,KG-Y,Issyk-Kul'skaja oblast'
KH,KHM,Cambodia,KH-1,Bântéay Méanchey
KH,KHM,Cambodia,KH-10,Krâchéh
KH,KHM,Cambodia,KH-11,Môndól Kiri
KH,KHM,Cambodia,KH-12,Phnom Penh
KH,KHM,Cambodia,KH-13,Preăh Vihéar
KH,KHM,Cambodia,KH-14,Prey Veaeng
KH,KHM,Cambodia,KH-15,Pousaat
KH,KHM,Cambodia,KH-16,Rotanak Kiri
KH,KHM,Cambodia,KH-17,Siem Reab
KH,KHM,Cambodia,KH-18,Krŏng Preăh Sihanouk
KH,KHM,Cambodia,KH-19,Stoĕng Trêng
KH,KHM,Cambodia,KH-2,Baat Dambang
KH,KHM,Cambodia,KH-20,Svaay Rieng
KH,KHM,Cambodia,KH-21,Taakaev
KH,KHM,Cambodia,KH-22,Ŏtdâr Méanchey
KH,KHM,Cambodia,KH-23,Krong Kaeb
KH,KHM,Cambodia,KH-24,Krŏng Pailĭn
KH,KHM,Cambodia,KH-3,Kampong Chaam
KH,KHM,Cambodia,KH-4,Kampong Chhnang
KH,KHM,Cambodia,KH-5,Kâmpóng Spœ
KH,KHM,Cambodia,KH-6,Kâmpóng Thum
KH,KHM,Cambodia,KH-7,Kampot
KH,KHM,Cambodia,KH-8,Kandaal
KH,KHM,Cambodia,KH-9,Kaoh Kong
KI,KIR,Kiribati,KI-G,Gilbert Islands
KI,KIR,Kiribati,KI-L,Line Islands
KI,KIR,Kiribati,KI-P,Phoenix Islands
KM,COM,Comoros,KM-A,Andjouân
KM,COM,Comoros,KM-G,Andjazîdja
KM,COM,Comoros,KM-M,Mohéli
KN,KNA,Saint Kitts And Nevis,KN-01,Christ Church Nichola Town
KN,KNA,Saint Kitts And Nevis,KN-02,Saint Anne Sandy Point
KN,KNA,Saint Kitts And Nevis,KN-03,Saint George Basseterre
KN,KNA,Saint Kitts And Nevis,KN-04,Saint George Gingerland
KN,KNA,Saint Kitts And Nevis,KN-05,Saint James Windward
KN,KNA,Saint Kitts And Nevis,KN-06,Saint John Capisterre
KN,KNA,Saint Kitts And Nevis,KN-07,Saint John Figtree
KN,KNA,Saint Kitts And Nevis,KN-08,Saint Mary Cayon
KN,KNA,Saint Kitts And Nevis,KN-09,Saint Paul Capisterre
KN,KNA,Saint Kitts And Nevis,KN-10,Saint Paul Charlestown
KN,KNA,Saint Kitts And Nevis,KN-11,Saint Peter Basseterre
KN,KNA,Saint Kitts And Nevis,KN-12,Saint Thomas Lowland
KN,KNA,Saint Kitts And Nevis,KN-13,Saint Thomas Middle Island
KN,KNA,Saint Kitts And Nevis,KN-15,Trinity Palmetto Point
KN,KNA,Saint Kitts And Nevis,KN-K,Saint Kitts
KN,KNA,Saint Kitts And Nevis,KN-N,Nevis
KP,PRK,"Korea, Democratic People's Republic Of",KP-01,P'yǒngyang
KP,PRK,"Korea, Democratic People's Republic Of",KP-02,P'yǒngan-namdo
KP,PRK,"Korea, Democratic People's Republic Of",KP-03,P'yǒngan-bukto
KP,PRK,"Korea, Democratic People's Republic Of",KP-04,Chagang-do
KP,PRK,"Korea, Democratic People's Republic Of",KP-05,Hwanghae-namdo
KP,PRK,"Korea, Democratic People's Republic Of",KP-06,Hwanghae-bukto
KP,PRK,"Korea, Democratic People's Republic Of",KP-07,Kangweonto
KP,PRK,"Korea, Democratic People's Republic Of",KP-08,Hamgyǒng-namdo
KP,PRK,"Korea, Democratic People's Republic Of",KP-09,Hamgyǒng-bukto
KP,PRK,"Korea, Democratic People's Republic Of",KP-10,Ryangkangto
KP,PRK,"Korea, Democratic People's Republic Of",KP-13,Nasǒn
KR,KOR,"Korea, Republic Of",KR-11,Seoul-T'ǔkpyǒlshi
KR,KOR,"Korea, Republic Of",KR-26,Busan Gwang'yeogsi
KR,KOR,"Korea, Republic Of",KR-27,Daegu Gwang'yeogsi
KR,KOR,"Korea, Republic Of",KR-28,Inch'ǒn-Kwangyǒkshi
KR,KOR,"Korea, Republic Of",KR-29,Gwangju Gwang'yeogsi
KR,KOR,"Korea, Republic Of",KR-30,Daejeon Gwang'yeogsi
KR,KOR,"Korea, Republic Of",KR-31,Ulsan Gwang'yeogsi
KR,KOR,"Korea, Republic Of",KR-41,Gyeonggido
KR,KOR,"Korea, Republic Of",KR-42,Gang'weondo
KR,KOR,"Korea, Republic Of",KR-43,Ch'ungch'ǒngbuk-do
KR,KOR,"Korea, Republic Of",KR-44,Ch'ungch'ǒngnam-do
KR,KOR,"Korea, Republic Of",KR-45,Chǒllabuk-do
KR,KOR,"Korea, Republic Of",KR-46,Chǒllanam-do
KR,KOR,"Korea, Republic Of",KR-47,Gyeongsangbugdo
KR,KOR,"Korea, Republic Of",KR-48,Gyeongsangnamdo
KR,KOR,"Korea, Republic Of",KR-49,Cheju-do
KR,KOR,"Korea, Republic Of",KR-50,Sejong
KW,KWT,Kuwait,KW-AH,Al Aḩmadī
KW,KWT,Kuwait,KW-FA,Al Farwānīyah
KW,KWT,Kuwait,KW-HA,Ḩawallī
KW,KWT,Kuwait,KW-JA,Al Jahrā’
KW,KWT,Kuwait,KW-KU,Al Kuwayt
KW,KWT,Kuwait,KW-MU,Mubārak al Kabīr
KY,CYM,Cayman Islands,KY-KY,Cayman Islands
KZ,KAZ,Kazakhstan,KZ-AKM,Akmolinskaja oblast'
KZ,KAZ,Kazakhstan,KZ-AKT,Aktjubinskaja oblast'
KZ,KAZ,Kazakhstan,KZ-ALA,Almaty
KZ,KAZ,Kazakhstan,KZ-ALM,Almatinskaja oblast'
KZ,KAZ,Kazakhstan,KZ-AST,Astana
KZ,KAZ,Kazakhstan,KZ-ATY,Atyraū oblysy
KZ,KAZ,Kazakhstan,KZ-KAR,Karagandinskaja oblast'
KZ,KAZ,Kazakhstan,KZ-KUS,Kostanajskaja oblast'
KZ,KAZ,Kazakhstan,KZ-KZY,Kyzylordinskaja oblast'
KZ,KAZ,Kazakhstan,KZ-MAN,Mangghystaū oblysy
KZ,KAZ,Kazakhstan,KZ-PAV,Pavlodar oblysy
KZ,KAZ,Kazakhstan,KZ-SEV,Severo-Kazahstanskaja oblast'
KZ,KAZ,Kazakhstan,KZ-VOS,Shyghys Qazaqstan oblysy
KZ,KAZ,Kazakhstan,KZ-YUZ,Južno-Kazahstanskaja oblast'
KZ,KAZ,Kazakhstan,KZ-ZAP,Batys Qazaqstan oblysy
KZ,KAZ,Kazakhstan,KZ-ZHA,Žambylskaja oblast'
LA,LAO,Lao People's Democratic Republic,LA-AT,Attapu
LA,LAO,Lao People's Democratic Republic,LA-BK,Bokèo
LA,LAO,Lao People's Democratic Republic,LA-BL,Bolikhamxai
LA,LAO,Lao People's Democratic Republic,LA-CH,Champasak
LA,LAO,Lao People's Democratic Republic,LA-HO,Houaphan
LA,LAO,Lao People's Democratic Republic,LA-KH,Khammouan
LA,LAO,Lao People's Democratic Republic,LA-LM,Louang Namtha
LA,LAO,Lao People's Democratic Republic,LA-LP,Louangphabang
LA,LAO,Lao People's Democratic Republic,LA-OU,Oudomsai
LA,LAO,Lao People's Democratic Republic,LA-PH,Phôngsali
LA,LAO,Lao People's Democratic Republic,LA-SL,Salavan
LA,LAO,Lao People's Democratic Republic,LA-SV,Savannakhét
LA,LAO,Lao People's Democratic Republic,LA-VI,Vientiane
LA,LAO,Lao People's Democratic Republic,LA-VT,Vientiane
LA,LAO,Lao People's Democratic Republic,LA-XA,Sayaboury
LA,LAO,Lao People's Democratic Republic,LA-XE,Sékong
LA,LAO,Lao People's Democratic Republic,LA-XI,Xiangkhouang
LA,LAO,Lao People's Democratic Republic,LA-XN,Xaisômboun
LB,LBN,Lebanon,LB-AK,Aakkâr
LB,LBN,Lebanon,LB-AS,Ash Shimāl
LB,LBN,Lebanon,LB-BA,Bayrūt
LB,LBN,Lebanon,LB-BH,Baalbek-Hermel
LB,LBN,Lebanon,LB-BI,Al Biqā‘
LB,LBN,Lebanon,LB-JA,Al Janūb
LB,LBN,Lebanon,LB-JL,Jabal Lubnān
LB,LBN,Lebanon,LB-NA,An Nabaţīyah
LC,LCA,Saint Lucia,LC-01,Anse la Raye
LC,LCA,Saint Lucia,LC-02,Castries
LC,LCA,Saint Lucia,LC-03,Choiseul
LC,LCA,Saint Lucia,LC-05,Dennery
LC,LCA,Saint Lucia,LC-06,Gros Islet
LC,LCA,Saint Lucia,LC-07,Laborie
LC,LCA,Saint Lucia,LC-08,Micoud
LC,LCA,Saint Lucia,LC-10,Soufrière
LC,LCA,Saint Lucia,LC-11,Vieux Fort
LC,LCA,Saint Lucia,LC-12,Canaries
LI,LIE,Liechtenstein,LI-01,Balzers
LI,LIE,Liechtenstein,LI-02,Eschen
LI,LIE,Liechtenstein,LI-03,Gamprin
LI,LIE,Liechtenstein,LI-04,Mauren
LI,LIE,Liechtenstein,LI-05,Planken
LI,LIE,Liechtenstein,LI-06,Ruggell
LI,LIE,Liechtenstein,LI-07,Schaan
LI,LIE,Liechtenstein,LI-08,Schellenberg
LI,LIE,Liechtenstein,LI-09,Triesen
LI,LIE,Liechtenstein,LI-10,Triesenberg
LI,LIE,Liechtenstein,LI-11,Vaduz
LK,LKA,Sri Lanka,LK-1,Basnāhira paḷāta
LK,LKA,Sri Lanka,LK-11,Colombo
LK,LKA,Sri Lanka,LK-12,Gampaha
LK,LKA,Sri Lanka,LK-13,Kalutara
LK,LKA,Sri Lanka,LK-2,Central Province
LK,LKA,Sri Lanka,LK-21,Kandy
LK,LKA,Sri Lanka,LK-22,Matale
LK,LKA,Sri Lanka,LK-23,Nuvara Ĕliya
LK,LKA,Sri Lanka,LK-3,Dakuṇu paḷāta
LK,LKA,Sri Lanka,LK-31,Gālla
LK,LKA,Sri Lanka,LK-32,Matara
LK,LKA,Sri Lanka,LK-33,Ampāntōṭṭai
LK,LKA,Sri Lanka,LK-4,Northern Province
LK,LKA,Sri Lanka,LK-41,Jaffna
LK,LKA,Sri Lanka,LK-42,Kilinochchi
LK,LKA,Sri Lanka,LK-43,Mannar
LK,LKA,Sri Lanka,LK-44,Vavuniya
LK,LKA,Sri Lanka,LK-45,Mulativ
LK,LKA,Sri Lanka,LK-5,Eastern Province
LK,LKA,Sri Lanka,LK-51,Batticaloa
LK,LKA,Sri Lanka,LK-52,Ampara
LK,LKA,Sri Lanka,LK-53,Tirukŏṇamalai
LK,LKA,Sri Lanka,LK-6,North Western Province
LK,LKA,Sri Lanka,LK-61,Kuruṇægala
LK,LKA,Sri Lanka,LK-62,Puttalam
LK,LKA,Sri Lanka,LK-7,North Central Province
LK,LKA,Sri Lanka,LK-71,Anuradhapura
LK,LKA,Sri Lanka,LK-72,Pŏlaṉṉaṛuvai
LK,LKA,Sri Lanka,LK-8,Ūvā mākāṇam
LK,LKA,Sri Lanka,LK-81,Badulla
LK,LKA,Sri Lanka,LK-82,Monaragala
LK,LKA,Sri Lanka,LK-9,Chappirakamuva mākāṇam
LK,LKA,Sri Lanka,LK-91,Irattiṉapuri
LK,LKA,Sri Lanka,LK-92,Kægalla
LR,LBR,Liberia,LR-BG,Bong
LR,LBR,Liberia,LR-BM,Bomi
LR,LBR,Liberia,LR-CM,Grand Cape Mount
LR,LBR,Liberia,LR-GB,Grand Bassa
LR,LBR,Liberia,LR-GG,Grand Gedeh
LR,LBR,Liberia,LR-GK,Grand Kru
LR,LBR,Liberia,LR-GP,Gbarpolu
LR,LBR,Liberia,LR-LO,Lofa
LR,LBR,Liberia,LR-MG,Margibi
LR,LBR,Liberia,LR-MO,Montserrado
LR,LBR,Liberia,LR-MY,Maryland
LR,LBR,Liberia,LR-NI,Nimba
LR,LBR,Liberia,LR-RG,River Gee
LR,LBR,Liberia,LR-RI,Rivercess
LR,LBR,Liberia,LR-SI,Sinoe
LS,LSO,Lesotho,LS-A,Maseru
LS,LSO,Lesotho,LS-B,Butha-Buthe
LS,LSO,Lesotho,LS-C,Leribe
LS,LSO,Lesotho,LS-D,Berea
LS,LSO,Lesotho,LS-E,Mafeteng
LS,LSO,Lesotho,LS-F,Mohale's Hoek
LS,LSO,Lesotho,LS-G,Quthing
LS,LSO,Lesotho,LS-H,Qacha's Nek
LS,LSO,Lesotho,LS-J,Mokhotlong
LS,LSO,Lesotho,LS-K,Thaba-Tseka
LT,LTU,Lithuania,LT-01,Akmenė
LT,LTU,Lithuania,LT-02,Alytaus miestas
LT,LTU,Lithuania,LT-03,Alytus
LT,LTU,Lithuania,LT-04,Anykščiai
LT,LTU,Lithuania,LT-05,Birštono
LT,LTU,Lithuania,LT-06,Biržai
LT,LTU,Lithuania,LT-07,Druskininkai
LT,LTU,Lithuania,LT-08,Elektrénai
LT,LTU,Lithuania,LT-09,Ignalina
LT,LTU,Lithuania,LT-10,Jonava
LT,LTU,Lithuania,LT-11,Joniškis
LT,LTU,Lithuania,LT-12,Jurbarkas
LT,LTU,Lithuania,LT-13,Kaišiadorys
LT,LTU,Lithuania,LT-14,Kalvarijos
LT,LTU,Lithuania,LT-15,Kauno miestas
LT,LTU,Lithuania,LT-16,Kaunas
LT,LTU,Lithuania,LT-17,Kazlų Rūdos
LT,LTU,Lithuania,LT-18,Kėdainiai
LT,LTU,Lithuania,LT-19,Kelmė
LT,LTU,Lithuania,LT-20,Klaipėdos miestas
LT,LTU,Lithuania,LT-21,Klaipėda
LT,LTU,Lithuania,LT-22,Kretinga
LT,LTU,Lithuania,LT-23,Kupiškis
LT,LTU,Lithuania,LT-24,Lazdijai
LT,LTU,Lithuania,LT-25,Marijampolė
LT,LTU,Lithuania,LT-26,Mažeikiai
LT,LTU,Lithuania,LT-27,Molėtai
LT,LTU,Lithuania,LT-28,Neringa
LT,LTU,Lithuania,LT-29,Pagégiai
LT,LTU,Lithuania,LT-30,Pakruojis
LT,LTU,Lithuania,LT-31,Palangos miestas
LT,LTU,Lithuania,LT-32,Panevėžio miestas
LT,LTU,Lithuania,LT-33,Panevėžys
LT,LTU,Lithuania,LT-34,Pasvalys
LT,LTU,Lithuania,LT-35,Plungė
LT,LTU,Lithuania,LT-36,Prienai
LT,LTU,Lithuania,LT-37,Radviliškis
LT,LTU,Lithuania,LT-38,Raseiniai
LT,LTU,Lithuania,LT-39,Rietavo
LT,LTU,Lithuania,LT-40,Rokiškis
LT,LTU,Lithuania,LT-41,Šakiai
LT,LTU,Lithuania,LT-42,Šalčininkai
LT,LTU,Lithuania,LT-43,Šiaulių miestas
LT,LTU,Lithuania,LT-44,Šiauliai
LT,LTU,Lithuania,LT-45,Šilalė
LT,LTU,Lithuania,LT-46,Šilutė
LT,LTU,Lithuania,LT-47,Širvintos
LT,LTU,Lithuania,LT-48,Skuodas
LT,LTU,Lithuania,LT-49,Švenčionys
LT,LTU,Lithuania,LT-50,Tauragė
LT,LTU,Lithuania,LT-51,Telšiai
LT,LTU,Lithuania,LT-52,Trakai
LT,LTU,Lithuania,LT-53,Ukmergė
LT,LTU,Lithuania,LT-54,Utena
LT,LTU,Lithuania,LT-55,Varėna
LT,LTU,Lithuania,LT-56,Vilkaviškis
LT,LTU,Lithuania,LT-57,Vilniaus miestas
LT,LTU,Lithuania,LT-58,Vilnius
LT,LTU,Lithuania,LT-59,Visaginas
LT,LTU,Lithuania,LT-60,Zarasai
LT,LTU,Lithuania,LT-AL,Alytaus apskritis
LT,LTU,Lithuania,LT-KL,Klaipėdos apskritis
LT,LTU,Lithuania,LT-KU,Kauno apskritis
LT,LTU,Lithuania,LT-MR,Marijampolės apskritis
LT,LTU,Lithuania,LT-PN,Panevėžio apskritis
LT,LTU,Lithuania,LT-SA,Šiaulių apskritis
LT,LTU,Lithuania,LT-TA,Tauragės apskritis
LT,LTU,Lithuania,LT-TE,Telšių apskritis
LT,LTU,Lithuania,LT-UT,Utenos apskritis
LT,LTU,Lithuania,LT-VL,Vilniaus apskritis
LU,LUX,Luxembourg,LU-D,Diekirch
LU,LUX,Luxembourg,LU-G,Grevenmacher
LU,LUX,Luxembourg,LU-L,Lëtzebuerg
LV,LVA,Latvia,LV-001,Aglonas novads
LV,LVA,Latvia,LV-002,Aizkraukles novads
LV,LVA,Latvia,LV-003,Aizputes novads
LV,LVA,Latvia,LV-004,Aknīstes novads
LV,LVA,Latvia,LV-005,Alojas novads
LV,LVA,Latvia,LV-006,Alsungas novads
LV,LVA,Latvia,LV-007,Alūksnes novads
LV,LVA,Latvia,LV-008,Amatas novads
LV,LVA,Latvia,LV-009,Apes novads
LV,LVA,Latvia,LV-010,Auces novads
LV,LVA,Latvia,LV-011,Ādažu novads
LV,LVA,Latvia,LV-012,Babītes novads
LV,LVA,Latvia,LV-013,Baldones novads
LV,LVA,Latvia,LV-014,Baltinavas novads
LV,LVA,Latvia,LV-015,Balvu novads
LV,LVA,Latvia,LV-016,Bauskas novads
LV,LVA,Latvia,LV-017,Beverīnas novads
LV,LVA,Latvia,LV-018,Brocēnu novads
LV,LVA,Latvia,LV-019,Burtnieku novads
LV,LVA,Latvia,LV-020,Carnikavas novads
LV,LVA,Latvia,LV-021,Cesvaines novads
LV,LVA,Latvia,LV-022,Cēsu novads
LV,LVA,Latvia,LV-023,Ciblas novads
LV,LVA,Latvia,LV-024,Dagdas novads
LV,LVA,Latvia,LV-025,Daugavpils novads
LV,LVA,Latvia,LV-026,Dobeles novads
LV,LVA,Latvia,LV-027,Dundagas novads
LV,LVA,Latvia,LV-028,Durbes novads
LV,LVA,Latvia,LV-029,Engures novads
LV,LVA,Latvia,LV-030,Ērgļu novads
LV,LVA,Latvia,LV-031,Garkalnes novads
LV,LVA,Latvia,LV-032,Grobiņas novads
LV,LVA,Latvia,LV-033,Gulbenes novads
LV,LVA,Latvia,LV-034,Iecavas novads
LV,LVA,Latvia,LV-035,Ikšķiles novads
LV,LVA,Latvia,LV-036,Ilūkstes novads
LV,LVA,Latvia,LV-037,Inčukalna novads
LV,LVA,Latvia,LV-038,Jaunjelgavas novads
LV,LVA,Latvia,LV-039,Jaunpiebalgas novads
LV,LVA,Latvia,LV-040,Jaunpils novads
LV,LVA,Latvia,LV-041,Jelgavas novads
LV,LVA,Latvia,LV-042,Jēkabpils novads
LV,LVA,Latvia,LV-043,Kandavas novads
LV,LVA,Latvia,LV-044,Kārsavas novads
LV,LVA,Latvia,LV-045,Kocēnu novads
LV,LVA,Latvia,LV-046,Kokneses novads
LV,LVA,Latvia,LV-047,Krāslavas novads
LV,LVA,Latvia,LV-048,Krimuldas novads
LV,LVA,Latvia,LV-049,Krustpils novads
LV,LVA,Latvia,LV-050,Kuldīgas novads
LV,LVA,Latvia,LV-051,Ķeguma novads
LV,LVA,Latvia,LV-052,Ķekavas novads
LV,LVA,Latvia,LV-053,Lielvārdes novads
LV,LVA,Latvia,LV-054,Limbažu novads
LV,LVA,Latvia,LV-055,Līgatnes novads
LV,LVA,Latvia,LV-056,Līvānu novads
LV,LVA,Latvia,LV-057,Lubānas novads
LV,LVA,Latvia,LV-058,Ludzas novads
LV,LVA,Latvia,LV-059,Madonas novads
LV,LVA,Latvia,LV-060,Mazsalacas novads
LV,LVA,Latvia,LV-061,Mālpils novads
LV,LVA,Latvia,LV-062,Mārupes novads
LV,LVA,Latvia,LV-063,Mērsraga novads
LV,LVA,Latvia,LV-064,Naukšēnu novads
LV,LVA,Latvia,LV-065,Neretas novads
LV,LVA,Latvia,LV-066,Nīcas novads
LV,LVA,Latvia,LV-067,Ogres novads
LV,LVA,Latvia,LV-068,Olaines novads
LV,LVA,Latvia,LV-069,Ozolnieku novads
LV,LVA,Latvia,LV-070,Pārgaujas novads
LV,LVA,Latvia,LV-071,Pāvilostas novads
LV,LVA,Latvia,LV-072,Pļaviņu novads
LV,LVA,Latvia,LV-073,Preiļu novads
LV,LVA,Latvia,LV-074,Priekules novads
LV,LVA,Latvia,LV-075,Priekuļu novads
LV,LVA,Latvia,LV-076,Raunas novads
LV,LVA,Latvia,LV-077,Rēzeknes novads
LV,LVA,Latvia,LV-078,Riebiņu novads
LV,LVA,Latvia,LV-079,Rojas novads
LV,LVA,Latvia,LV-080,Ropažu novads
LV,LVA,Latvia,LV-081,Rucavas novads
LV,LVA,Latvia,LV-082,Rugāju novads
LV,LVA,Latvia,LV-083,Rundāles novads
LV,LVA,Latvia,LV-084,Rūjienas novads
LV,LVA,Latvia,LV-085,Salas novads
LV,LVA,Latvia,LV-086,Salacgrīvas novads
LV,LVA,Latvia,LV-087,Salaspils novads
LV,LVA,Latvia,LV-088,Saldus novads
LV,LVA,Latvia,LV-089,Saulkrastu novads
LV,LVA,Latvia,LV-090,Sējas novads
LV,LVA,Latvia,LV-091,Siguldas novads
LV,LVA,Latvia,LV-092,Skrīveru novads
LV,LVA,Latvia,LV-093,Skrundas novads
LV,LVA,Latvia,LV-094,Smiltenes novads
LV,LVA,Latvia,LV-095,Stopiņu novads
LV,LVA,Latvia,LV-096,Strenču novads
LV,LVA,Latvia,LV-097,Talsu novads
LV,LVA,Latvia,LV-098,Tērvetes novads
LV,LVA,Latvia,LV-099,Tukuma novads
LV,LVA,Latvia,LV-100,Vaiņodes novads
LV,LVA,Latvia,LV-101,Valkas novads
LV,LVA,Latvia,LV-102,Varakļānu novads
LV,LVA,Latvia,LV-103,Vārkavas novads
LV,LVA,Latvia,LV-104,Vecpiebalgas novads
LV,LVA,Latvia,LV-105,Vecumnieku novads
LV,LVA,Latvia,LV-106,Ventspils novads
LV,LVA,Latvia,LV-107,Viesītes novads
LV,LVA,Latvia,LV-108,Viļakas novads
LV,LVA,Latvia,LV-109,Viļānu novads
LV,LVA,Latvia,LV-110,Zilupes novads
LV,LVA,Latvia,LV-DGV,Daugavpils
LV,LVA,Latvia,LV-JEL,Jelgava
LV,LVA,Latvia,LV-JKB,Jēkabpils
LV,LVA,Latvia,LV-JUR,Jūrmala
LV,LVA,Latvia,LV-LPX,Liepāja
LV,LVA,Latvia,LV-REZ,Rēzekne
LV,LVA,Latvia,LV-RIX,Rīga
LV,LVA,Latvia,LV-VEN,Ventspils
LV,LVA,Latvia,LV-VMR,Valmiera
LY,LBY,Libya,LY-BA,Banghāzī
LY,LBY,Libya,LY-BU,Al Buţnān
LY,LBY,Libya,LY-DR,Darnah
LY,LBY,Libya,LY-GT,Ghāt
LY,LBY,Libya,LY-JA,Al Jabal al Akhḑar
LY,LBY,Libya,LY-JG,Al Jabal al Gharbī
LY,LBY,Libya,LY-JI,Al Jifārah
LY,LBY,Libya,LY-JU,Al Jufrah
LY,LBY,Libya,LY-KF,Al Kufrah
LY,LBY,Libya,LY-MB,Al Marqab
LY,LBY,Libya,LY-MI,Mişrātah
LY,LBY,Libya,LY-MJ,Al Marj
LY,LBY,Libya,LY-MQ,Murzuq
LY,LBY,Libya,LY-NL,Nālūt
LY,LBY,Libya,LY-NQ,An Nuqāţ al Khams
LY,LBY,Libya,LY-SB,Sabhā
LY,LBY,Libya,LY-SR,Surt
LY,LBY,Libya,LY-TB,Ţarābulus
LY,LBY,Libya,LY-WA,Al Wāḩāt
LY,LBY,Libya,LY-WD,Wādī al Ḩayāt
LY,LBY,Libya,LY-WS,Wādī ash Shāţi’
LY,LBY,Libya,LY-ZA,Az Zāwiyah
MA,MAR,Morocco,MA-01,Tanger-Tétouan
MA,MAR,Morocco,MA-02,Gharb-Chrarda-Beni Hssen
MA,MAR,Morocco,MA-03,Taza-Al Hoceima-Taounate
MA,MAR,Morocco,MA-04,L'Oriental
MA,MAR,Morocco,MA-05,Fès-Boulemane
MA,MAR,Morocco,MA-06,Meknès-Tafilalet
MA,MAR,Morocco,MA-07,Rabat-Salé-Zemmour-Zaer
MA,MAR,Morocco,MA-08,Grand Casablanca
MA,MAR,Morocco,MA-09,Chaouia-Ouardigha
MA,MAR,Morocco,MA-10,Doukkala-Abda
MA,MAR,Morocco,MA-11,Marrakech-Tensift-Al Haouz
MA,MAR,Morocco,MA-12,Tadla-Azilal
MA,MAR,Morocco,MA-13,Sous-Massa-Draa
MA,MAR,Morocco,MA-14,Guelmim-Es Semara
MA,MAR,Morocco,MA-15,Laâyoune-Boujdour-Sakia el Hamra
MA,MAR,Morocco,MA-16,Oued ed Dahab-Lagouira
MA,MAR,Morocco,MA-AGD,Agadir-Ida-Outanane
MA,MAR,Morocco,MA-AOU,Aousserd
MA,MAR,Morocco,MA-ASZ,Assa-Zag
MA,MAR,Morocco,MA-AZI,Azilal
MA,MAR,Morocco,MA-BEM,Beni Mellal
MA,MAR,Morocco,MA-BER,Berkane
MA,MAR,Morocco,MA-BES,Ben Slimane
MA,MAR,Morocco,MA-BOD,Boujdour
MA,MAR,Morocco,MA-BOM,Boulemane
MA,MAR,Morocco,MA-CAS,Casablanca
MA,MAR,Morocco,MA-CHE,Chefchaouen
MA,MAR,Morocco,MA-CHI,Chichaoua
MA,MAR,Morocco,MA-CHT,Chtouka-Ait Baha
MA,MAR,Morocco,MA-ERR,Errachidia
MA,MAR,Morocco,MA-ESI,Essaouira
MA,MAR,Morocco,MA-ESM,Es Smara
MA,MAR,Morocco,MA-FAH,Fahs-Beni Makada
MA,MAR,Morocco,MA-FES,Fès-Dar-Dbibegh
MA,MAR,Morocco,MA-FIG,Figuig
MA,MAR,Morocco,MA-GUE,Guelmim
MA,MAR,Morocco,MA-HAJ,El Hajeb
MA,MAR,Morocco,MA-HAO,Al Haouz
MA,MAR,Morocco,MA-HOC,Al Hoceïma
MA,MAR,Morocco,MA-IFR,Ifrane
MA,MAR,Morocco,MA-INE,Inezgane-Ait Melloul
MA,MAR,Morocco,MA-JDI,El Jadida
MA,MAR,Morocco,MA-JRA,Jrada
MA,MAR,Morocco,MA-KEN,Kénitra
MA,MAR,Morocco,MA-KES,Kelaat es Sraghna
MA,MAR,Morocco,MA-KHE,Khemisset
MA,MAR,Morocco,MA-KHN,Khenifra
MA,MAR,Morocco,MA-KHO,Khouribga
MA,MAR,Morocco,MA-LAA,Laâyoune
MA,MAR,Morocco,MA-LAR,Larache
MA,MAR,Morocco,MA-MED,Médiouna
MA,MAR,Morocco,MA-MEK,Meknès
MA,MAR,Morocco,MA-MMD,Marrakech-Medina
MA,MAR,Morocco,MA-MMN,Marrakech-Menara
MA,MAR,Morocco,MA-MOH,Mohammadia
MA,MAR,Morocco,MA-MOU,Moulay Yacoub
MA,MAR,Morocco,MA-NAD,Nador
MA,MAR,Morocco,MA-NOU,Nouaceur
MA,MAR,Morocco,MA-OUA,Ouarzazate
MA,MAR,Morocco,MA-OUD,Oued ed Dahab
MA,MAR,Morocco,MA-OUJ,Oujda-Angad
MA,MAR,Morocco,MA-RAB,Rabat
MA,MAR,Morocco,MA-SAF,Safi
MA,MAR,Morocco,MA-SAL,Salé
MA,MAR,Morocco,MA-SEF,Sefrou
MA,MAR,Morocco,MA-SET,Settat
MA,MAR,Morocco,MA-SIK,Sidi Kacem
MA,MAR,Morocco,MA-SKH,Skhirate-Témara
MA,MAR,Morocco,MA-SYB,Sidi Youssef Ben Ali
MA,MAR,Morocco,MA-TAI,Taourirt
MA,MAR,Morocco,MA-TAO,Taounate
MA,MAR,Morocco,MA-TAR,Taroudant
MA,MAR,Morocco,MA-TAT,Tata
MA,MAR,Morocco,MA-TAZ,Taza
MA,MAR,Morocco,MA-TET,Tétouan
MA,MAR,Morocco,MA-TIZ,Tiznit
MA,MAR,Morocco,MA-TNG,Tanger-Assilah
MA,MAR,Morocco,MA-TNT,Tan-Tan
MA,MAR,Morocco,MA-ZAG,Zagora
MC,MCO,Monaco,MC-CL,La Colle
MC,MCO,Monaco,MC-CO,La Condamine
MC,MCO,Monaco,MC-FO,Fontvieille
MC,MCO,Monaco,MC-GA,La Gare
MC,MCO,Monaco,MC-JE,Jardin Exotique
MC,MCO,Monaco,MC-LA,Larvotto
MC,MCO,Monaco,MC-MA,Malbousquet
MC,MCO,Monaco,MC-MC,Monte-Carlo
MC,MCO,Monaco,MC-MG,Moneghetti
MC,MCO,Monaco,MC-MO,Monaco-Ville
MC,MCO,Monaco,MC-MU,Moulins
MC,MCO,Monaco,MC-PH,Port-Hercule
MC,MCO,Monaco,MC-SD,Sainte-Dévote
MC,MCO,Monaco,MC-SO,La Source
MC,MCO,Monaco,MC-SP,Spélugues
MC,MCO,Monaco,MC-SR,Saint-Roman
MC,MCO,Monaco,MC-VR,Vallon de la Rousse
MD,MDA,"Moldova, Republic Of",MD-AN,Anenii Noi
MD,MDA,"Moldova, Republic Of",MD-BA,Bălţi
MD,MDA,"Moldova, Republic Of",MD-BD,Bender
MD,MDA,"Moldova, Republic Of",MD-BR,Briceni
MD,MDA,"Moldova, Republic Of",MD-BS,Basarabeasca
MD,MDA,"Moldova, Republic Of",MD-CA,Cahul
MD,MDA,"Moldova, Republic Of",MD-CL,Călăraşi
MD,MDA,"Moldova, Republic Of",MD-CM,Cimişlia
MD,MDA,"Moldova, Republic Of",MD-CR,Criuleni
MD,MDA,"Moldova, Republic Of",MD-CS,Căuşeni
MD,MDA,"Moldova, Republic Of",MD-CT,Cantemir
MD,MDA,"Moldova, Republic Of",MD-CU,Chişinău
MD,MDA,"Moldova, Republic Of",MD-DO,Donduşeni
MD,MDA,"Moldova, Republic Of",MD-DR,Drochia
MD,MDA,"Moldova, Republic Of",MD-DU,Dubăsari
MD,MDA,"Moldova, Republic Of",MD-ED,Edineţ
MD,MDA,"Moldova, Republic Of",MD-FA,Făleşti
MD,MDA,"Moldova, Republic Of",MD-FL,Floreşti
MD,MDA,"Moldova, Republic Of",MD-GA,Găgăuzia: Unitatea teritorială autonomă
MD,MDA,"Moldova, Republic Of",MD-GL,Glodeni
MD,MDA,"Moldova, Republic Of",MD-HI,Hînceşti
MD,MDA,"Moldova, Republic Of",MD-IA,Ialoveni
MD,MDA,"Moldova, Republic Of",MD-LE,Leova
MD,MDA,"Moldova, Republic Of",MD-NI,Nisporeni
MD,MDA,"Moldova, Republic Of",MD-OC,Ocniţa
MD,MDA,"Moldova, Republic Of",MD-OR,Orhei
MD,MDA,"Moldova, Republic Of",MD-RE,Rezina
MD,MDA,"Moldova, Republic Of",MD-RI,Rîşcani
MD,MDA,"Moldova, Republic Of",MD-SD,Şoldăneşti
MD,MDA,"Moldova, Republic Of",MD-SI,Sîngerei
MD,MDA,"Moldova, Republic Of",MD-SN,Stînga Nistrului: unitatea teritorială din
MD,MDA,"Moldova, Republic Of",MD-SO,Soroca
MD,MDA,"Moldova, Republic Of",MD-ST,Străşeni
MD,MDA,"Moldova, Republic Of",MD-SV,Ştefan Vodă
MD,MDA,"Moldova, Republic Of",MD-TA,Taraclia
MD,MDA,"Moldova, Republic Of",MD-TE,Teleneşti
MD,MDA,"Moldova, Republic Of",MD-UN,Ungheni
ME,MNE,Montenegro,ME-01,Andrijevica
ME,MNE,Montenegro,ME-02,Bar
ME,MNE,Montenegro,ME-03,Berane
ME,MNE,Montenegro,ME-04,Bijelo Polje
ME,MNE,Montenegro,ME-05,Budva
ME,MNE,Montenegro,ME-06,Cetinje
ME,MNE,Montenegro,ME-07,Danilovgrad
ME,MNE,Montenegro,ME-08,Herceg-Novi
ME,MNE,Montenegro,ME-09,Kolašin
ME,MNE,Montenegro,ME-10,Kotor
ME,MNE,Montenegro,ME-11,Mojkovac
ME,MNE,Montenegro,ME-12,Nikšić
ME,MNE,Montenegro,ME-13,Plav
ME,MNE,Montenegro,ME-14,Pljevlja
ME,MNE,Montenegro,ME-15,Plužine
ME,MNE,Montenegro,ME-16,Podgorica
ME,MNE,Montenegro,ME-17,Rožaje
ME,MNE,Montenegro,ME-18,Šavnik
ME,MNE,Montenegro,ME-19,Tivat
ME,MNE,Montenegro,ME-20,Ulcinj
ME,MNE,Montenegro,ME-21,Žabljak
ME,MNE,Montenegro,ME-22,Gusinje
ME,MNE,Montenegro,ME-23,Petnjica
MF,MAF,Saint Martin,MF-MF,St. Martin
MG,MDG,Madagascar,MG-A,Toamasina
MG,MDG,Madagascar,MG-D,Antsiranana
MG,MDG,Madagascar,MG-F,Fianarantsoa
MG,MDG,Madagascar,MG-M,Mahajanga
MG,MDG,Madagascar,MG-T,Antananarivo
MG,MDG,Madagascar,MG-U,Toliara
MH,MHL,Marshall Islands,MH-ALK,Ailuk
MH,MHL,Marshall Islands,MH-ALL,Ailinglaplap
MH,MHL,Marshall Islands,MH-ARN,Arno
MH,MHL,Marshall Islands,MH-AUR,Aur
MH,MHL,Marshall Islands,MH-EBO,Ebon
MH,MHL,Marshall Islands,MH-ENI,Enewetak and Ujelang
MH,MHL,Marshall Islands,MH-JAB,Jabat
MH,MHL,Marshall Islands,MH-JAL,Jaluit
MH,MHL,Marshall Islands,MH-KIL,Bikini and Kili
MH,MHL,Marshall Islands,MH-KWA,Kwajalein
MH,MHL,Marshall Islands,MH-L,Ralik chain
MH,MHL,Marshall Islands,MH-LAE,Lae
MH,MHL,Marshall Islands,MH-LIB,Lib
MH,MHL,Marshall Islands,MH-LIK,Likiep
MH,MHL,Marshall Islands,MH-MAJ,Majuro
MH,MHL,Marshall Islands,MH-MAL,Maloelap
MH,MHL,Marshall Islands,MH-MEJ,Mejit
MH,MHL,Marshall Islands,MH-MIL,Mili
MH,MHL,Marshall Islands,MH-NMK,Namdrik
MH,MHL,Marshall Islands,MH-NMU,Namu
MH,MHL,Marshall Islands,MH-RON,Rongelap
MH,MHL,Marshall Islands,MH-T,Ratak chain
MH,MHL,Marshall Islands,MH-UJA,Ujae
MH,MHL,Marshall Islands,MH-UTI,Utrik
MH,MHL,Marshall Islands,MH-WTH,Wotho
MH,MHL,Marshall Islands,MH-WTJ,Wotje
MK,MKD,"Macedonia, The Former Yugoslav Republic Of",MK-01,Aerodrom †
MK,MKD,"Macedonia, The Former Yugoslav Republic Of",MK-02,Aračinovo
MK,MKD,"Macedonia, The Former Yugoslav Republic Of",MK-03,Berovo
MK,MKD,"Macedonia, The Former Yugoslav Republic Of",MK-04,Bitola
MK,MKD,"Macedonia, The Former Yugoslav Republic Of",MK-05,Bogdanci
MK,MKD,"Macedonia, The Former Yugoslav Republic Of",MK-06,Bogovinje
MK,MKD,"Macedonia, The Former Yugoslav Republic Of",MK-07,Bosilovo
MK,MKD,"Macedonia, The Former Yugoslav Republic Of",MK-08,Brvenica
MK,MKD,"Macedonia, The Former Yugoslav Republic Of",MK-09,Butel †
MK,MKD,"Macedonia, The Former Yugoslav Republic Of",MK-10,Valandovo
MK,MKD,"Macedonia, The Former Yugoslav Republic Of",MK-11,Vasilevo
MK,MKD,"Macedonia, The Former Yugoslav Republic Of",MK-12,Vevčani
MK,MKD,"Macedonia, The Former Yugoslav Republic Of",MK-13,Veles
MK,MKD,"Macedonia, The Former Yugoslav Republic Of",MK-14,Vinica
MK,MKD,"Macedonia, The Former Yugoslav Republic Of",MK-15,Vraneštica
MK,MKD,"Macedonia, The Former Yugoslav Republic Of",MK-16,Vrapčište
MK,MKD,"Macedonia, The Former Yugoslav Republic Of",MK-17,Gazi Baba †
MK,MKD,"Macedonia, The Former Yugoslav Republic Of",MK-18,Gevgelija
MK,MKD,"Macedonia, The Former Yugoslav Republic Of",MK-19,Gostivar
MK,MKD,"Macedonia, The Former Yugoslav Republic Of",MK-20,Gradsko
MK,MKD,"Macedonia, The Former Yugoslav Republic Of",MK-21,Debar
MK,MKD,"Macedonia, The Former Yugoslav Republic Of",MK-22,Debarca
MK,MKD,"Macedonia, The Former Yugoslav Republic Of",MK-23,Delčevo
MK,MKD,"Macedonia, The Former Yugoslav Republic Of",MK-24,Demir Kapija
MK,MKD,"Macedonia, The Former Yugoslav Republic Of",MK-25,Demir Hisar
MK,MKD,"Macedonia, The Former Yugoslav Republic Of",MK-26,Dojran
MK,MKD,"Macedonia, The Former Yugoslav Republic Of",MK-27,Dolneni
MK,MKD,"Macedonia, The Former Yugoslav Republic Of",MK-28,Drugovo
MK,MKD,"Macedonia, The Former Yugoslav Republic Of",MK-29,Gjorče Petrov †
MK,MKD,"Macedonia, The Former Yugoslav Republic Of",MK-30,Želino
MK,MKD,"Macedonia, The Former Yugoslav Republic Of",MK-31,Zajas
MK,MKD,"Macedonia, The Former Yugoslav Republic Of",MK-32,Zelenikovo
MK,MKD,"Macedonia, The Former Yugoslav Republic Of",MK-33,Zrnovci
MK,MKD,"Macedonia, The Former Yugoslav Republic Of",MK-34,Ilinden
MK,MKD,"Macedonia, The Former Yugoslav Republic Of",MK-35,Jegunovce
MK,MKD,"Macedonia, The Former Yugoslav Republic Of",MK-36,Kavadarci
MK,MKD,"Macedonia, The Former Yugoslav Republic Of",MK-37,Karbinci
MK,MKD,"Macedonia, The Former Yugoslav Republic Of",MK-38,Karpoš †
MK,MKD,"Macedonia, The Former Yugoslav Republic Of",MK-39,Kisela Voda †
MK,MKD,"Macedonia, The Former Yugoslav Republic Of",MK-40,Kičevo
MK,MKD,"Macedonia, The Former Yugoslav Republic Of",MK-41,Konče
MK,MKD,"Macedonia, The Former Yugoslav Republic Of",MK-42,Kočani
MK,MKD,"Macedonia, The Former Yugoslav Republic Of",MK-43,Kratovo
MK,MKD,"Macedonia, The Former Yugoslav Republic Of",MK-44,Kriva Palanka
MK,MKD,"Macedonia, The Former Yugoslav Republic Of",MK-45,Krivogaštani
MK,MKD,"Macedonia, The Former Yugoslav Republic Of",MK-46,Kruševo
MK,MKD,"Macedonia, The Former Yugoslav Republic Of",MK-47,Kumanovo
MK,MKD,"Macedonia, The Former Yugoslav Republic Of",MK-48,Lipkovo
MK,MKD,"Macedonia, The Former Yugoslav Republic Of",MK-49,Lozovo
MK,MKD,"Macedonia, The Former Yugoslav Republic Of",MK-50,Mavrovo i Rostuša
MK,MKD,"Macedonia, The Former Yugoslav Republic Of",MK-51,Makedonska Kamenica
MK,MKD,"Macedonia, The Former Yugoslav Republic Of",MK-52,Makedonski Brod
MK,MKD,"Macedonia, The Former Yugoslav Republic Of",MK-53,Mogila
MK,MKD,"Macedonia, The Former Yugoslav Republic Of",MK-54,Negotino
MK,MKD,"Macedonia, The Former Yugoslav Republic Of",MK-55,Novaci
MK,MKD,"Macedonia, The Former Yugoslav Republic Of",MK-56,Novo Selo
MK,MKD,"Macedonia, The Former Yugoslav Republic Of",MK-57,Oslomej
MK,MKD,"Macedonia, The Former Yugoslav Republic Of",MK-58,Ohrid
MK,MKD,"Macedonia, The Former Yugoslav Republic Of",MK-59,Petrovec
MK,MKD,"Macedonia, The Former Yugoslav Republic Of",MK-60,Pehčevo
MK,MKD,"Macedonia, The Former Yugoslav Republic Of",MK-61,Plasnica
MK,MKD,"Macedonia, The Former Yugoslav Republic Of",MK-62,Prilep
MK,MKD,"Macedonia, The Former Yugoslav Republic Of",MK-63,Probištip
MK,MKD,"Macedonia, The Former Yugoslav Republic Of",MK-64,Radoviš
MK,MKD,"Macedonia, The Former Yugoslav Republic Of",MK-65,Rankovce
MK,MKD,"Macedonia, The Former Yugoslav Republic Of",MK-66,Resen
MK,MKD,"Macedonia, The Former Yugoslav Republic Of",MK-67,Rosoman
MK,MKD,"Macedonia, The Former Yugoslav Republic Of",MK-68,Saraj †
MK,MKD,"Macedonia, The Former Yugoslav Republic Of",MK-69,Sveti Nikole
MK,MKD,"Macedonia, The Former Yugoslav Republic Of",MK-70,Sopište
MK,MKD,"Macedonia, The Former Yugoslav Republic Of",MK-71,Staro Nagoričane
MK,MKD,"Macedonia, The Former Yugoslav Republic Of",MK-72,Struga
MK,MKD,"Macedonia, The Former Yugoslav Republic Of",MK-73,Strumica
MK,MKD,"Macedonia, The Former Yugoslav Republic Of",MK-74,Studeničani
MK,MKD,"Macedonia, The Former Yugoslav Republic Of",MK-75,Tearce
MK,MKD,"Macedonia, The Former Yugoslav Republic Of",MK-76,Tetovo
MK,MKD,"Macedonia, The Former Yugoslav Republic Of",MK-77,Centar †
MK,MKD,"Macedonia, The Former Yugoslav Republic Of",MK-78,Centar Župa
MK,MKD,"Macedonia, The Former Yugoslav Republic Of",MK-79,Čair †
MK,MKD,"Macedonia, The Former Yugoslav Republic Of",MK-80,Čaška
MK,MKD,"Macedonia, The Former Yugoslav Republic Of",MK-81,Češinovo-Obleševo
MK,MKD,"Macedonia, The Former Yugoslav Republic Of",MK-82,Čučer Sandevo
MK,MKD,"Macedonia, The Former Yugoslav Republic Of",MK-83,Štip
MK,MKD,"Macedonia, The Former Yugoslav Republic Of",MK-84,Šuto Orizari †
ML,MLI,Mali,ML-1,Kayes
ML,MLI,Mali,ML-2,Koulikoro
ML,MLI,Mali,ML-3,Sikasso
ML,MLI,Mali,ML-4,Ségou
ML,MLI,Mali,ML-5,Mopti
ML,MLI,Mali,ML-6,Tombouctou
ML,MLI,Mali,ML-7,Gao
ML,MLI,Mali,ML-8,Kidal
ML,MLI,Mali,ML-BKO,Bamako
MM,MMR,Myanmar,MM-01,Sagaing
MM,MMR,Myanmar,MM-02,Bago
MM,MMR,Myanmar,MM-03,Magway
MM,MMR,Myanmar,MM-04,Mandalay
MM,MMR,Myanmar,MM-05,Taninthayi
MM,MMR,Myanmar,MM-06,Yangon
MM,MMR,Myanmar,MM-07,Ayeyawady
MM,MMR,Myanmar,MM-11,Kachin
MM,MMR,Myanmar,MM-12,Kayah
MM,MMR,Myanmar,MM-13,Kayin
MM,MMR,Myanmar,MM-14,Chin
MM,MMR,Myanmar,MM-15,Mon
MM,MMR,Myanmar,MM-16,Rakhine
MM,MMR,Myanmar,MM-17,Shan
MM,MMR,Myanmar,MM-18,Nay Pyi Taw
MN,MNG,Mongolia,MN-035,Orhon
MN,MNG,Mongolia,MN-037,Darhan uul
MN,MNG,Mongolia,MN-039,Hentiy
MN,MNG,Mongolia,MN-041,Hövsgöl
MN,MNG,Mongolia,MN-043,Hovd
MN,MNG,Mongolia,MN-046,Uvs
MN,MNG,Mongolia,MN-047,Töv
MN,MNG,Mongolia,MN-049,Selenge
MN,MNG,Mongolia,MN-051,Sühbaatar
MN,MNG,Mongolia,MN-053,Ömnögovĭ
MN,MNG,Mongolia,MN-055,Övörhangay
MN,MNG,Mongolia,MN-057,Dzavhan
MN,MNG,Mongolia,MN-059,Dundgovĭ
MN,MNG,Mongolia,MN-061,Dornod
MN,MNG,Mongolia,MN-063,Dornogovĭ
MN,MNG,Mongolia,MN-064,Govĭ-Sümber
MN,MNG,Mongolia,MN-065,Govĭ-Altay
MN,MNG,Mongolia,MN-067,Bulgan
MN,MNG,Mongolia,MN-069,Bayanhongor
MN,MNG,Mongolia,MN-071,Bayan-Ölgiy
MN,MNG,Mongolia,MN-073,Arhangay
MN,MNG,Mongolia,MN-1,Ulaanbaatar
MO,MAC,Macao,MO-MO,Macau
MP,MNP,Northern Mariana Islands,MP-MP,Northern Mariana Islands
MQ,MTQ,Martinique,MQ-MQ,Martinique
MR,MRT,Mauritania,MR-01,Hodh ech Chargui
MR,MRT,Mauritania,MR-02,Hodh el Gharbi
MR,MRT,Mauritania,MR-03,Assaba
MR,MRT,Mauritania,MR-04,Gorgol
MR,MRT,Mauritania,MR-05,Brakna
MR,MRT,Mauritania,MR-06,Trarza
MR,MRT,Mauritania,MR-07,Adrar
MR,MRT,Mauritania,MR-08,Dakhlet Nouâdhibou
MR,MRT,Mauritania,MR-09,Tagant
MR,MRT,Mauritania,MR-10,Guidimaka
MR,MRT,Mauritania,MR-11,Tiris Zemmour
MR,MRT,Mauritania,MR-12,Inchiri
MR,MRT,Mauritania,MR-NKC,Nouakchott
MS,MSR,Montserrat,MS-MS,Montserrat
MT,MLT,Malta,MT-01,Attard
MT,MLT,Malta,MT-02,Balzan
MT,MLT,Malta,MT-03,Birgu
MT,MLT,Malta,MT-04,Birkirkara
MT,MLT,Malta,MT-05,Birżebbuġa
MT,MLT,Malta,MT-06,Bormla
MT,MLT,Malta,MT-07,Dingli
MT,MLT,Malta,MT-08,Fgura
MT,MLT,Malta,MT-09,Floriana
MT,MLT,Malta,MT-10,Fontana
MT,MLT,Malta,MT-11,Gudja
MT,MLT,Malta,MT-12,Gżira
MT,MLT,Malta,MT-13,Għajnsielem
MT,MLT,Malta,MT-14,Għarb
MT,MLT,Malta,MT-15,Għargħur
MT,MLT,Malta,MT-16,Għasri
MT,MLT,Malta,MT-17,Għaxaq
MT,MLT,Malta,MT-18,Ħamrun
MT,MLT,Malta,MT-19,Iklin
MT,MLT,Malta,MT-20,Isla
MT,MLT,Malta,MT-21,Kalkara
MT,MLT,Malta,MT-22,Kerċem
MT,MLT,Malta,MT-23,Kirkop
MT,MLT,Malta,MT-24,Lija
MT,MLT,Malta,MT-25,Luqa
MT,MLT,Malta,MT-26,Marsa
MT,MLT,Malta,MT-27,Marsaskala
MT,MLT,Malta,MT-28,Marsaxlokk
MT,MLT,Malta,MT-29,Mdina
MT,MLT,Malta,MT-30,Mellieħa
MT,MLT,Malta,MT-31,Mġarr
MT,MLT,Malta,MT-32,Mosta
MT,MLT,Malta,MT-33,Mqabba
MT,MLT,Malta,MT-34,Msida
MT,MLT,Malta,MT-35,Mtarfa
MT,MLT,Malta,MT-36,Munxar
MT,MLT,Malta,MT-37,Nadur
MT,MLT,Malta,MT-38,Naxxar
MT,MLT,Malta,MT-39,Paola
MT,MLT,Malta,MT-40,Pembroke
MT,MLT,Malta,MT-41,Pietà
MT,MLT,Malta,MT-42,Qala
MT,MLT,Malta,MT-43,Qormi
MT,MLT,Malta,MT-44,Qrendi
MT,MLT,Malta,MT-45,Rabat Gozo
MT,MLT,Malta,MT-46,Rabat Malta
MT,MLT,Malta,MT-47,Safi
MT,MLT,Malta,MT-48,Saint Julian’s
MT,MLT,Malta,MT-49,Saint John
MT,MLT,Malta,MT-50,Saint Lawrence
MT,MLT,Malta,MT-51,Saint Paul’s Bay
MT,MLT,Malta,MT-52,Sannat
MT,MLT,Malta,MT-53,Saint Lucia’s
MT,MLT,Malta,MT-54,Santa Venera
MT,MLT,Malta,MT-55,Siġġiewi
MT,MLT,Malta,MT-56,Sliema
MT,MLT,Malta,MT-57,Swieqi
MT,MLT,Malta,MT-58,Ta’ Xbiex
MT,MLT,Malta,MT-59,Tarxien
MT,MLT,Malta,MT-60,Valletta
MT,MLT,Malta,MT-61,Xagħra
MT,MLT,Malta,MT-62,Xewkija
MT,MLT,Malta,MT-63,Xgħajra
MT,MLT,Malta,MT-64,Żabbar
MT,MLT,Malta,MT-65,Żebbuġ Gozo
MT,MLT,Malta,MT-66,Żebbuġ Malta
MT,MLT,Malta,MT-67,Żejtun
MT,MLT,Malta,MT-68,Żurrieq
MU,MUS,Mauritius,MU-AG,Agalega Islands
MU,MUS,Mauritius,MU-BL,Black River
MU,MUS,Mauritius,MU-BR,Beau Bassin-Rose Hill
MU,MUS,Mauritius,MU-CC,Cargados Carajos Shoals
MU,MUS,Mauritius,MU-CU,Curepipe
MU,MUS,Mauritius,MU-FL,Flacq
MU,MUS,Mauritius,MU-GP,Grand Port
MU,MUS,Mauritius,MU-MO,Moka
MU,MUS,Mauritius,MU-PA,Pamplemousses
MU,MUS,Mauritius,MU-PL,Port Louis
MU,MUS,Mauritius,MU-PU,Port Louis
MU,MUS,Mauritius,MU-PW,Plaines Wilhems
MU,MUS,Mauritius,MU-QB,Quatre Bornes
MU,MUS,Mauritius,MU-RO,Rodrigues Island
MU,MUS,Mauritius,MU-RR,Rivière du Rempart
MU,MUS,Mauritius,MU-SA,Savanne
MU,MUS,Mauritius,MU-VP,Vacoas-Phoenix
MV,MDV,Maldives,MV-00,Alifu Dhaalu
MV,MDV,Maldives,MV-01,Addu Atholhu
MV,MDV,Maldives,MV-02,Alifu Alifu
MV,MDV,Maldives,MV-03,Faadhippolhu
MV,MDV,Maldives,MV-04,Felidhu Atholhu
MV,MDV,Maldives,MV-05,Hadhdhunmathi
MV,MDV,Maldives,MV-07,Haa Alifu
MV,MDV,Maldives,MV-08,Kolhumadulu
MV,MDV,Maldives,MV-12,Meemu
MV,MDV,Maldives,MV-13,Maalhosmadulu Uthuruburi
MV,MDV,Maldives,MV-14,Faafu
MV,MDV,Maldives,MV-17,Dhaalu
MV,MDV,Maldives,MV-20,Baa
MV,MDV,Maldives,MV-23,Haa Dhaalu
MV,MDV,Maldives,MV-24,Miladhunmadulu Uthuruburi
MV,MDV,Maldives,MV-25,Miladhunmadulu Dhekunuburi
MV,MDV,Maldives,MV-26,Kaafu
MV,MDV,Maldives,MV-27,Gaafu Alifu
MV,MDV,Maldives,MV-28,Gaafu Dhaalu
MV,MDV,Maldives,MV-29,Fuvammulah
MV,MDV,Maldives,MV-CE,Central
MV,MDV,Maldives,MV-MLE,Maale
MV,MDV,Maldives,MV-NC,Medhu-Uthuru
MV,MDV,Maldives,MV-NO,North
MV,MDV,Maldives,MV-SC,Medhu-Dhekunu
MV,MDV,Maldives,MV-SU,Dhekunu
MV,MDV,Maldives,MV-UN,Mathi-Uthuru
MV,MDV,Maldives,MV-US,Mathi-Dhekunu
MW,MWI,Malawi,MW-BA,Balaka
MW,MWI,Malawi,MW-BL,Blantyre
MW,MWI,Malawi,MW-C,Central Region
MW,MWI,Malawi,MW-CK,Chikwawa
MW,MWI,Malawi,MW-CR,Chiradzulu
MW,MWI,Malawi,MW-CT,Chitipa
MW,MWI,Malawi,MW-DE,Dedza
MW,MWI,Malawi,MW-DO,Dowa
MW,MWI,Malawi,MW-KR,Karonga
MW,MWI,Malawi,MW-KS,Kasungu
MW,MWI,Malawi,MW-LI,Lilongwe
MW,MWI,Malawi,MW-LK,Likoma
MW,MWI,Malawi,MW-MC,Mchinji
MW,MWI,Malawi,MW-MG,Mangochi
MW,MWI,Malawi,MW-MH,Machinga
MW,MWI,Malawi,MW-MU,Mulanje
MW,MWI,Malawi,MW-MW,Mwanza
MW,MWI,Malawi,MW-MZ,Mzimba
MW,MWI,Malawi,MW-N,Chakumpoto
MW,MWI,Malawi,MW-NB,Nkhata Bay
MW,MWI,Malawi,MW-NE,Neno
MW,MWI,Malawi,MW-NI,Ntchisi
MW,MWI,Malawi,MW-NK,Nkhotakota
MW,MWI,Malawi,MW-NS,Nsanje
MW,MWI,Malawi,MW-NU,Ntcheu
MW,MWI,Malawi,MW-PH,Phalombe
MW,MWI,Malawi,MW-RU,Rumphi
MW,MWI,Malawi,MW-S,Chakumwera
MW,MWI,Malawi,MW-SA,Salima
MW,MWI,Malawi,MW-TH,Thyolo
MW,MWI,Malawi,MW-ZO,Zomba
MX,MEX,Mexico,MX-AGU,Aguascalientes
MX,MEX,Mexico,MX-BCN,Baja California
MX,MEX,Mexico,MX-BCS,Baja California Sur
MX,MEX,Mexico,MX-CAM,Campeche
MX,MEX,Mexico,MX-CHH,Chihuahua
MX,MEX,Mexico,MX-CHP,Chiapas
MX,MEX,Mexico,MX-COA,Coahuila
MX,MEX,Mexico,MX-COL,Colima
MX,MEX,Mexico,MX-DIF,Distrito Federal
MX,MEX,Mexico,MX-DUR,Durango
MX,MEX,Mexico,MX-GRO,Guerrero
MX,MEX,Mexico,MX-GUA,Guanajuato
MX,MEX,Mexico,MX-HID,Hidalgo
MX,MEX,Mexico,MX-JAL,Jalisco
MX,MEX,Mexico,MX-MEX,México
MX,MEX,Mexico,MX-MIC,Michoacán
MX,MEX,Mexico,MX-MOR,Morelos
MX,MEX,Mexico,MX-NAY,Nayarit
MX,MEX,Mexico,MX-NLE,Nuevo León
MX,MEX,Mexico,MX-OAX,Oaxaca
MX,MEX,Mexico,MX-PUE,Puebla
MX,MEX,Mexico,MX-QUE,Querétaro
MX,MEX,Mexico,MX-ROO,Quintana Roo
MX,MEX,Mexico,MX-SIN,Sinaloa
MX,MEX,Mexico,MX-SLP,San Luis Potosí
MX,MEX,Mexico,MX-SON,Sonora
MX,MEX,Mexico,MX-TAB,Tabasco
MX,MEX,Mexico,MX-TAM,Tamaulipas
MX,MEX,Mexico,MX-TLA,Tlaxcala
MX,MEX,Mexico,MX-VER,Veracruz
MX,MEX,Mexico,MX-YUC,Yucatán
MX,MEX,Mexico,MX-ZAC,Zacatecas
MY,MYS,Malaysia,MY-01,Johor
MY,MYS,Malaysia,MY-02,Kedah
MY,MYS,Malaysia,MY-03,Kelantan
MY,MYS,Malaysia,MY-04,Melaka
MY,MYS,Malaysia,MY-05,Negeri Sembilan
MY,MYS,Malaysia,MY-06,Pahang
MY,MYS,Malaysia,MY-07,Pulau Pinang
MY,MYS,Malaysia,MY-08,Perak
MY,MYS,Malaysia,MY-09,Perlis
MY,MYS,Malaysia,MY-10,Selangor
MY,MYS,Malaysia,MY-11,Terengganu
MY,MYS,Malaysia,MY-12,Sabah
MY,MYS,Malaysia,MY-13,Sarawak
MY,MYS,Malaysia,MY-14,Wilayah Persekutuan Kuala Lumpur
MY,MYS,Malaysia,MY-15,Wilayah Persekutuan Labuan
MY,MYS,Malaysia,MY-16,Wilayah Persekutuan Putrajaya
MZ,MOZ,Mozambique,MZ-A,Niassa
MZ,MOZ,Mozambique,MZ-B,Manica
MZ,MOZ,Mozambique,MZ-G,Gaza
MZ,MOZ,Mozambique,MZ-I,Inhambane
MZ,MOZ,Mozambique,MZ-L,Maputo
MZ,MOZ,Mozambique,MZ-MPM,Maputo
MZ,MOZ,Mozambique,MZ-N,Nampula
MZ,MOZ,Mozambique,MZ-P,Cabo Delgado
MZ,MOZ,Mozambique,MZ-Q,Zambézia
MZ,MOZ,Mozambique,MZ-S,Sofala
MZ,MOZ,Mozambique,MZ-T,Tete
NA,NAM,Namibia,NA-CA,Zambezi
NA,NAM,Namibia,NA-ER,Erongo
NA,NAM,Namibia,NA-HA,Hardap
NA,NAM,Namibia,NA-KA,Karas
NA,NAM,Namibia,NA-KE,Kavango East
NA,NAM,Namibia,NA-KH,Khomas
NA,NAM,Namibia,NA-KU,Kunene
NA,NAM,Namibia,NA-KW,Kavango West
NA,NAM,Namibia,NA-OD,Otjozondjupa
NA,NAM,Namibia,NA-OH,Omaheke
NA,NAM,Namibia,NA-ON,Oshana
NA,NAM,Namibia,NA-OS,Omusati
NA,NAM,Namibia,NA-OT,Oshikoto
NA,NAM,Namibia,NA-OW,Ohangwena
NC,NCL,New Caledonia,NC-NC,New Caledonia
NE,NER,Niger,NE-1,Agadez
NE,NER,Niger,NE-2,Diffa
NE,NER,Niger,NE-3,Dosso
NE,NER,Niger,NE-4,Maradi
NE,NER,Niger,NE-5,Tahoua
NE,NER,Niger,NE-6,Tillabéri
NE,NER,Niger,NE-7,Zinder
NE,NER,Niger,NE-8,Niamey
NF,NFK,Norfolk Island,NF-NF,Norfolk Island
NG,NGA,Nigeria,NG-AB,Abia
NG,NGA,Nigeria,NG-AD,Adamawa
NG,NGA,Nigeria,NG-AK,Akwa Ibom
NG,NGA,Nigeria,NG-AN,Anambra
NG,NGA,Nigeria,NG-BA,Bauchi
NG,NGA,Nigeria,NG-BE,Benue
NG,NGA,Nigeria,NG-BO,Borno
NG,NGA,Nigeria,NG-BY,Bayelsa
NG,NGA,Nigeria,NG-CR,Cross River
NG,NGA,Nigeria,NG-DE,Delta
NG,NGA,Nigeria,NG-EB,Ebonyi
NG,NGA,Nigeria,NG-ED,Edo
NG,NGA,Nigeria,NG-EK,Ekiti
NG,NGA,Nigeria,NG-EN,Enugu
NG,NGA,Nigeria,NG-FC,Abuja Federal Capital Territory
NG,NGA,Nigeria,NG-GO,Gombe
NG,NGA,Nigeria,NG-IM,Imo
NG,NGA,Nigeria,NG-JI,Jigawa
NG,NGA,Nigeria,NG-KD,Kaduna
NG,NGA,Nigeria,NG-KE,Kebbi
NG,NGA,Nigeria,NG-KN,Kano
NG,NGA,Nigeria,NG-KO,Kogi
NG,NGA,Nigeria,NG-KT,Katsina
NG,NGA,Nigeria,NG-KW,Kwara
NG,NGA,Nigeria,NG-LA,Lagos
NG,NGA,Nigeria,NG-NA,Nasarawa
NG,NGA,Nigeria,NG-NI,Niger
NG,NGA,Nigeria,NG-OG,Ogun
NG,NGA,Nigeria,NG-ON,Ondo
NG,NGA,Nigeria,NG-OS,Osun
NG,NGA,Nigeria,NG-OY,Oyo
NG,NGA,Nigeria,NG-PL,Plateau
NG,NGA,Nigeria,NG-RI,Rivers
NG,NGA,Nigeria,NG-SO,Sokoto
NG,NGA,Nigeria,NG-TA,Taraba
NG,NGA,Nigeria,NG-YO,Yobe
NG,NGA,Nigeria,NG-ZA,Zamfara
NI,NIC,Nicaragua,NI-AN,Atlántico Norte
NI,NIC,Nicaragua,NI-AS,Atlántico Sur
NI,NIC,Nicaragua,NI-BO,Boaco
NI,NIC,Nicaragua,NI-CA,Carazo
NI,NIC,Nicaragua,NI-CI,Chinandega
NI,NIC,Nicaragua,NI-CO,Chontales
NI,NIC,Nicaragua,NI-ES,Estelí
NI,NIC,Nicaragua,NI-GR,Granada
NI,NIC,Nicaragua,NI-JI,Jinotega
NI,NIC,Nicaragua,NI-LE,León
NI,NIC,Nicaragua,NI-MD,Madriz
NI,NIC,Nicaragua,NI-MN,Managua
NI,NIC,Nicaragua,NI-MS,Masaya
NI,NIC,Nicaragua,NI-MT,Matagalpa
NI,NIC,Nicaragua,NI-NS,Nueva Segovia
NI,NIC,Nicaragua,NI-RI,Rivas
NI,NIC,Nicaragua,NI-SJ,Río San Juan
NL,NLD,Netherlands,NL-AW,Aruba
NL,NLD,Netherlands,NL-BQ1,Bonaire
NL,NLD,Netherlands,NL-BQ2,Saba
NL,NLD,Netherlands,NL-BQ3,Sint Eustatius
NL,NLD,Netherlands,NL-CW,Curaçao
NL,NLD,Netherlands,NL-DR,Drenthe
NL,NLD,Netherlands,NL-FL,Flevoland
NL,NLD,Netherlands,NL-FR,Fryslân
NL,NLD,Netherlands,NL-GE,Gelderland
NL,NLD,Netherlands,NL-GR,Groningen
NL,NLD,Netherlands,NL-LI,Limburg
NL,NLD,Netherlands,NL-NB,Noord-Brabant
NL,NLD,Netherlands,NL-NH,Noord-Holland
NL,NLD,Netherlands,NL-OV,Overijssel
NL,NLD,Netherlands,NL-SX,Sint Maarten
NL,NLD,Netherlands,NL-UT,Utrecht
NL,NLD,Netherlands,NL-ZE,Zeeland
NL,NLD,Netherlands,NL-ZH,Zuid-Holland
NO,NOR,Norway,NO-01,Østfold
NO,NOR,Norway,NO-02,Akershus
NO,NOR,Norway,NO-03,Oslo
NO,NOR,Norway,NO-04,Hedmark
NO,NOR,Norway,NO-05,Oppland
NO,NOR,Norway,NO-06,Buskerud
NO,NOR,Norway,NO-07,Vestfold
NO,NOR,Norway,NO-08,Telemark
NO,NOR,Norway,NO-09,Aust-Agder
NO,NOR,Norway,NO-10,Vest-Agder
NO,NOR,Norway,NO-11,Rogaland
NO,NOR,Norway,NO-12,Hordaland
NO,NOR,Norway,NO-14,Sogn og Fjordane
NO,NOR,Norway,NO-15,Møre og Romsdal
NO,NOR,Norway,NO-16,Sør-Trøndelag
NO,NOR,Norway,NO-17,Nord-Trøndelag
NO,NOR,Norway,NO-18,Nordland
NO,NOR,Norway,NO-19,Romsa
NO,NOR,Norway,NO-20,Finnmark
NO,NOR,Norway,NO-21,Svalbard
NO,NOR,Norway,NO-22,Jan Mayen
NP,NPL,Nepal,NP-1,Central
NP,NPL,Nepal,NP-2,Madhya Pashchimanchal
NP,NPL,Nepal,NP-3,Pashchimanchal
NP,NPL,Nepal,NP-4,Eastern
NP,NPL,Nepal,NP-5,Far Western
NP,NPL,Nepal,NP-BA,Bagmati
NP,NPL,Nepal,NP-BH,Bheri
NP,NPL,Nepal,NP-DH,Dhawalagiri
NP,NPL,Nepal,NP-GA,Gandaki
NP,NPL,Nepal,NP-JA,Janakpur
NP,NPL,Nepal,NP-KA,Karnali
NP,NPL,Nepal,NP-KO,Kosi
NP,NPL,Nepal,NP-LU,Lumbini
NP,NPL,Nepal,NP-MA,Mahakali
NP,NPL,Nepal,NP-ME,Mechi
NP,NPL,Nepal,NP-NA,Narayani
NP,NPL,Nepal,NP-RA,Rapti
NP,NPL,Nepal,NP-SA,Sagarmatha
NP,NPL,Nepal,NP-SE,Seti
NR,NRU,Nauru,NR-01,Aiwo
NR,NRU,Nauru,NR-02,Anabar
NR,NRU,Nauru,NR-03,Anetan
NR,NRU,Nauru,NR-04,Anibare
NR,NRU,Nauru,NR-05,Baiti
NR,NRU,Nauru,NR-06,Boe
NR,NRU,Nauru,NR-07,Buada
NR,NRU,Nauru,NR-08,Denigomodu
NR,NRU,Nauru,NR-09,Ewa
NR,NRU,Nauru,NR-10,Ijuw
NR,NRU,Nauru,NR-11,Meneng
NR,NRU,Nauru,NR-12,Nibok
NR,NRU,Nauru,NR-13,Uaboe
NR,NRU,Nauru,NR-14,Yaren
NU,NIU,Niue,NU-NU,Niue
NZ,NZL,New Zealand,NZ-AUK,Auckland
NZ,NZL,New Zealand,NZ-BOP,Bay of Plenty
NZ,NZL,New Zealand,NZ-CAN,Canterbury
NZ,NZL,New Zealand,NZ-CIT,Chatham Islands Territory
NZ,NZL,New Zealand,NZ-GIS,Gisborne District
NZ,NZL,New Zealand,NZ-HKB,Hawke's Bay
NZ,NZL,New Zealand,NZ-MBH,Marlborough District
NZ,NZL,New Zealand,NZ-MWT,Manawatu-Wanganui
NZ,NZL,New Zealand,NZ-N,North Island
NZ,NZL,New Zealand,NZ-NSN,Nelson City
NZ,NZL,New Zealand,NZ-NTL,Northland
NZ,NZL,New Zealand,NZ-OTA,Otago
NZ,NZL,New Zealand,NZ-S,South Island
NZ,NZL,New Zealand,NZ-STL,Southland
NZ,NZL,New Zealand,NZ-TAS,Tasman District
NZ,NZL,New Zealand,NZ-TKI,Taranaki
NZ,NZL,New Zealand,NZ-WGN,Wellington
NZ,NZL,New Zealand,NZ-WKO,Waikato
NZ,NZL,New Zealand,NZ-WTC,West Coast
OM,OMN,Oman,OM-BA,Al Bāţinah
OM,OMN,Oman,OM-BU,Al Buraymī
OM,OMN,Oman,OM-DA,Ad Dākhilīyah
OM,OMN,Oman,OM-MA,Masqaţ
OM,OMN,Oman,OM-MU,Musandam
OM,OMN,Oman,OM-SH,Ash Sharqīyah
OM,OMN,Oman,OM-WU,Al Wusţá
OM,OMN,Oman,OM-ZA,Az̧ Z̧āhirah
OM,OMN,Oman,OM-ZU,Z̧ufār
PA,PAN,Panama,PA-1,Bocas del Toro
PA,PAN,Panama,PA-10,Panamá Oeste
PA,PAN,Panama,PA-2,Coclé
PA,PAN,Panama,PA-3,Colón
PA,PAN,Panama,PA-4,Chiriquí
PA,PAN,Panama,PA-5,Darién
PA,PAN,Panama,PA-6,Herrera
PA,PAN,Panama,PA-7,Los Santos
PA,PAN,Panama,PA-8,Panamá
PA,PAN,Panama,PA-9,Veraguas
PA,PAN,Panama,PA-EM,Emberá
PA,PAN,Panama,PA-KY,Kuna Yala
PA,PAN,Panama,PA-NB,Ngöbe-Buglé
PE,PER,Peru,PE-AMA,Amarumayu
PE,PER,Peru,PE-ANC,Ancash
PE,PER,Peru,PE-APU,Apurímac
PE,PER,Peru,PE-ARE,Arequipa
PE,PER,Peru,PE-AYA,Ayacucho
PE,PER,Peru,PE-CAJ,Cajamarca
PE,PER,Peru,PE-CAL,El Callao
PE,PER,Peru,PE-CUS,Cusco
PE,PER,Peru,PE-HUC,Huánuco
PE,PER,Peru,PE-HUV,Huancavelica
PE,PER,Peru,PE-ICA,Ica
PE,PER,Peru,PE-JUN,Hunin
PE,PER,Peru,PE-LAL,La Libertad
PE,PER,Peru,PE-LAM,Lambayeque
PE,PER,Peru,PE-LIM,Lima
PE,PER,Peru,PE-LMA,Lima hatun llaqta
PE,PER,Peru,PE-LOR,Loreto
PE,PER,Peru,PE-MDD,Madre de Dios
PE,PER,Peru,PE-MOQ,Moquegua
PE,PER,Peru,PE-PAS,Pasco
PE,PER,Peru,PE-PIU,Piura
PE,PER,Peru,PE-PUN,Puno
PE,PER,Peru,PE-SAM,San Martin
PE,PER,Peru,PE-TAC,Tacna
PE,PER,Peru,PE-TUM,Tumbes
PE,PER,Peru,PE-UCA,Ucayali
PF,PYF,French Polynesia,PF-PF,French Polynesia
PG,PNG,Papua New Guinea,PG-CPK,Chimbu
PG,PNG,Papua New Guinea,PG-CPM,Central
PG,PNG,Papua New Guinea,PG-EBR,East New Britain
PG,PNG,Papua New Guinea,PG-EHG,Eastern Highlands
PG,PNG,Papua New Guinea,PG-EPW,Enga
PG,PNG,Papua New Guinea,PG-ESW,East Sepik
PG,PNG,Papua New Guinea,PG-GPK,Gulf
PG,PNG,Papua New Guinea,PG-HLA,Hela
PG,PNG,Papua New Guinea,PG-JWK,Jiwaka
PG,PNG,Papua New Guinea,PG-MBA,Milne Bay
PG,PNG,Papua New Guinea,PG-MPL,Morobe
PG,PNG,Papua New Guinea,PG-MPM,Madang
PG,PNG,Papua New Guinea,PG-MRL,Manus
PG,PNG,Papua New Guinea,PG-NCD,National Capital District
PG,PNG,Papua New Guinea,PG-NIK,New Ireland
PG,PNG,Papua New Guinea,PG-NPP,Northern
PG,PNG,Papua New Guinea,PG-NSB,Bougainville
PG,PNG,Papua New Guinea,PG-SAN,West Sepik
PG,PNG,Papua New Guinea,PG-SHM,Southern Highlands
PG,PNG,Papua New Guinea,PG-WBK,West New Britain
PG,PNG,Papua New Guinea,PG-WHM,Western Highlands
PG,PNG,Papua New Guinea,PG-WPD,Western
PH,PHL,Philippines,PH-00,National Capital Region
PH,PHL,Philippines,PH-01,Ilocos
PH,PHL,Philippines,PH-02,Cagayan Valley
PH,PHL,Philippines,PH-03,Central Luzon
PH,PHL,Philippines,PH-05,Bicol
PH,PHL,Philippines,PH-06,Rehiyon ng Kanlurang Bisaya
PH,PHL,Philippines,PH-07,Central Visayas
PH,PHL,Philippines,PH-08,Eastern Visayas
PH,PHL,Philippines,PH-09,Rehiyon ng Tangway ng Sambuwangga
PH,PHL,Philippines,PH-10,Northern Mindanao
PH,PHL,Philippines,PH-11,Davao
PH,PHL,Philippines,PH-12,Rehiyon ng Soccsksargen
PH,PHL,Philippines,PH-13,Caraga
PH,PHL,Philippines,PH-14,Autonomous Region in Muslim Mindanao
PH,PHL,Philippines,PH-15,Cordillera Administrative Region
PH,PHL,Philippines,PH-40,Calabarzon
PH,PHL,Philippines,PH-41,Mimaropa
PH,PHL,Philippines,PH-ABR,Abra
PH,PHL,Philippines,PH-AGN,Agusan del Norte
PH,PHL,Philippines,PH-AGS,Agusan del Sur
PH,PHL,Philippines,PH-AKL,Aklan
PH,PHL,Philippines,PH-ALB,Albay
PH,PHL,Philippines,PH-ANT,Antike
PH,PHL,Philippines,PH-APA,Apayao
PH,PHL,Philippines,PH-AUR,Aurora
PH,PHL,Philippines,PH-BAN,Bataan
PH,PHL,Philippines,PH-BAS,Basilan
PH,PHL,Philippines,PH-BEN,Benget
PH,PHL,Philippines,PH-BIL,Biliran
PH,PHL,Philippines,PH-BOH,Bohol
PH,PHL,Philippines,PH-BTG,Batangas
PH,PHL,Philippines,PH-BTN,Batanes
PH,PHL,Philippines,PH-BUK,Bukidnon
PH,PHL,Philippines,PH-BUL,Bulacan
PH,PHL,Philippines,PH-CAG,Cagayan
PH,PHL,Philippines,PH-CAM,Camiguin
PH,PHL,Philippines,PH-CAN,Camarines Norte
PH,PHL,Philippines,PH-CAP,Capiz
PH,PHL,Philippines,PH-CAS,Camarines Sur
PH,PHL,Philippines,PH-CAT,Catanduanes
PH,PHL,Philippines,PH-CAV,Cavite
PH,PHL,Philippines,PH-CEB,Cebu
PH,PHL,Philippines,PH-COM,Compostela Valley
PH,PHL,Philippines,PH-DAO,Davao Oriental
PH,PHL,Philippines,PH-DAS,Davao del Sur
PH,PHL,Philippines,PH-DAV,Davao del Norte
PH,PHL,Philippines,PH-DIN,Dinagat Islands
PH,PHL,Philippines,PH-EAS,Eastern Samar
PH,PHL,Philippines,PH-GUI,Gimaras
PH,PHL,Philippines,PH-IFU,Ifugao
PH,PHL,Philippines,PH-ILI,Iloilo
PH,PHL,Philippines,PH-ILN,Hilagang Iloko
PH,PHL,Philippines,PH-ILS,Ilocos Sur
PH,PHL,Philippines,PH-ISA,Isabela
PH,PHL,Philippines,PH-KAL,Kalinga
PH,PHL,Philippines,PH-LAG,Laguna
PH,PHL,Philippines,PH-LAN,Hilagang Lanaw
PH,PHL,Philippines,PH-LAS,Lanao del Sur
PH,PHL,Philippines,PH-LEY,Leyte
PH,PHL,Philippines,PH-LUN,La Union
PH,PHL,Philippines,PH-MAD,Marinduke
PH,PHL,Philippines,PH-MAG,Magindanaw
PH,PHL,Philippines,PH-MAS,Masbate
PH,PHL,Philippines,PH-MDC,Kanlurang Mindoro
PH,PHL,Philippines,PH-MDR,Mindoro Oriental
PH,PHL,Philippines,PH-MOU,Lalawigang Bulubundukin
PH,PHL,Philippines,PH-MSC,Kanlurang Misamis
PH,PHL,Philippines,PH-MSR,Misamis Oriental
PH,PHL,Philippines,PH-NCO,Cotabato
PH,PHL,Philippines,PH-NEC,Kanlurang Negros
PH,PHL,Philippines,PH-NER,Negros Oriental
PH,PHL,Philippines,PH-NSA,Hilagang Samar
PH,PHL,Philippines,PH-NUE,Nueva Ecija
PH,PHL,Philippines,PH-NUV,Nueva Vizcaya
PH,PHL,Philippines,PH-PAM,Pampanga
PH,PHL,Philippines,PH-PAN,Pangasinan
PH,PHL,Philippines,PH-PLW,Palawan
PH,PHL,Philippines,PH-QUE,Keson
PH,PHL,Philippines,PH-QUI,Kirino
PH,PHL,Philippines,PH-RIZ,Risal
PH,PHL,Philippines,PH-ROM,Romblon
PH,PHL,Philippines,PH-SAR,Sarangani
PH,PHL,Philippines,PH-SCO,South Cotabato
PH,PHL,Philippines,PH-SIG,Sikihor
PH,PHL,Philippines,PH-SLE,Katimogang Leyte
PH,PHL,Philippines,PH-SLU,Sulu
PH,PHL,Philippines,PH-SOR,Sorsogon
PH,PHL,Philippines,PH-SUK,Sultan Kudarat
PH,PHL,Philippines,PH-SUN,Hilagang Surigaw
PH,PHL,Philippines,PH-SUR,Surigao del Sur
PH,PHL,Philippines,PH-TAR,Tarlac
PH,PHL,Philippines,PH-TAW,Tawi-Tawi
PH,PHL,Philippines,PH-WSA,Samar
PH,PHL,Philippines,PH-ZAN,Hilagang Sambuwangga
PH,PHL,Philippines,PH-ZAS,Timog Sambuwangga
PH,PHL,Philippines,PH-ZMB,Sambales
PH,PHL,Philippines,PH-ZSI,Sambuwangga Sibugay
PK,PAK,Pakistan,PK-BA,Balochistan
PK,PAK,Pakistan,PK-GB,Gilgit-Baltistān
PK,PAK,Pakistan,PK-IS,Islāmābād
PK,PAK,Pakistan,PK-JK,Azad Kashmir
PK,PAK,Pakistan,PK-KP,Khaībar Pakhtūnkhwā
PK,PAK,Pakistan,PK-PB,Panjāb
PK,PAK,Pakistan,PK-SD,Sindh
PK,PAK,Pakistan,PK-TA,Federally Administered Tribal Areas
PL,POL,Poland,PL-DS,Dolnośląskie
PL,POL,Poland,PL-KP,Kujawsko-pomorskie
PL,POL,Poland,PL-LB,Lubuskie
PL,POL,Poland,PL-LD,Łódzkie
PL,POL,Poland,PL-LU,Lubelskie
PL,POL,Poland,PL-MA,Małopolskie
PL,POL,Poland,PL-MZ,Mazowieckie
PL,POL,Poland,PL-OP,Opolskie
PL,POL,Poland,PL-PD,Podlaskie
PL,POL,Poland,PL-PK,Podkarpackie
PL,POL,Poland,PL-PM,Pomorskie
PL,POL,Poland,PL-SK,Świętokrzyskie
PL,POL,Poland,PL-SL,Śląskie
PL,POL,Poland,PL-WN,Warmińsko-mazurskie
PL,POL,Poland,PL-WP,Wielkopolskie
PL,POL,Poland,PL-ZP,Zachodniopomorskie
PM,SPM,Saint Pierre And Miquelon,PM-PM,St. Pierre & Miquelon
PN,PCN,Pitcairn,PN-PN,Pitcairn
PR,PRI,Puerto Rico,PR-PR,Puerto Rico
PS,PSE,"Palestinian Territory, Occupied",PS-BTH,Bayt Laḩm
PS,PSE,"Palestinian Territory, Occupied",PS-DEB,Dayr al Balaḩ
PS,PSE,"Palestinian Territory, Occupied",PS-GZA,Gaza
PS,PSE,"Palestinian Territory, Occupied",PS-HBN,Al Khalīl
PS,PSE,"Palestinian Territory, Occupied",PS-JEM,Al Quds
PS,PSE,"Palestinian Territory, Occupied",PS-JEN,Janīn
PS,PSE,"Palestinian Territory, Occupied",PS-JRH,Arīḩā wa al Aghwār
PS,PSE,"Palestinian Territory, Occupied",PS-KYS,Khan Yunis
PS,PSE,"Palestinian Territory, Occupied",PS-NBS,Nablus
PS,PSE,"Palestinian Territory, Occupied",PS-NGZ,North Gaza
PS,PSE,"Palestinian Territory, Occupied",PS-QQA,Qalqilya
PS,PSE,"Palestinian Territory, Occupied",PS-RBH,Ramallah
PS,PSE,"Palestinian Territory, Occupied",PS-RFH,Rafah
PS,PSE,"Palestinian Territory, Occupied",PS-SLT,Salfit
PS,PSE,"Palestinian Territory, Occupied",PS-TBS,Tubas
PS,PSE,"Palestinian Territory, Occupied",PS-TKM,Tulkarm
PT,PRT,Portugal,PT-01,Aveiro
PT,PRT,Portugal,PT-02,Beja
PT,PRT,Portugal,PT-03,Braga
PT,PRT,Portugal,PT-04,Bragança
PT,PRT,Portugal,PT-05,Castelo Branco
PT,PRT,Portugal,PT-06,Coimbra
PT,PRT,Portugal,PT-07,Évora
PT,PRT,Portugal,PT-08,Faro
PT,PRT,Portugal,PT-09,Guarda
PT,PRT,Portugal,PT-10,Leiria
PT,PRT,Portugal,PT-11,Lisboa
PT,PRT,Portugal,PT-12,Portalegre
PT,PRT,Portugal,PT-13,Porto
PT,PRT,Portugal,PT-14,Santarém
PT,PRT,Portugal,PT-15,Setúbal
PT,PRT,Portugal,PT-16,Viana do Castelo
PT,PRT,Portugal,PT-17,Vila Real
PT,PRT,Portugal,PT-18,Viseu
PT,PRT,Portugal,PT-20,Região Autónoma dos Açores
PT,PRT,Portugal,PT-30,Região Autónoma da Madeira
PW,PLW,Palau,PW-002,Aimeliik
PW,PLW,Palau,PW-004,Airai
PW,PLW,Palau,PW-010,Angaur
PW,PLW,Palau,PW-050,Hatobohei
PW,PLW,Palau,PW-100,Kayangel
PW,PLW,Palau,PW-150,Koror
PW,PLW,Palau,PW-212,Melekeok
PW,PLW,Palau,PW-214,Ngaraard
PW,PLW,Palau,PW-218,Ngarchelong
PW,PLW,Palau,PW-222,Ngardmau
PW,PLW,Palau,PW-224,Ngatpang
PW,PLW,Palau,PW-226,Ngchesar
PW,PLW,Palau,PW-227,Ngeremlengui
PW,PLW,Palau,PW-228,Ngiwal
PW,PLW,Palau,PW-350,Peleliu
PW,PLW,Palau,PW-370,Sonsorol
PY,PRY,Paraguay,PY-1,Concepción
PY,PRY,Paraguay,PY-10,Alto Paraná
PY,PRY,Paraguay,PY-11,Central
PY,PRY,Paraguay,PY-12,Ñeembucú
PY,PRY,Paraguay,PY-13,Amambay
PY,PRY,Paraguay,PY-14,Canindeyú
PY,PRY,Paraguay,PY-15,Presidente Hayes
PY,PRY,Paraguay,PY-16,Alto Paraguay
PY,PRY,Paraguay,PY-19,Boquerón
PY,PRY,Paraguay,PY-2,San Pedro
PY,PRY,Paraguay,PY-3,Cordillera
PY,PRY,Paraguay,PY-4,Guairá
PY,PRY,Paraguay,PY-5,Caaguazú
PY,PRY,Paraguay,PY-6,Caazapá
PY,PRY,Paraguay,PY-7,Itapúa
PY,PRY,Paraguay,PY-8,Misiones
PY,PRY,Paraguay,PY-9,Paraguarí
PY,PRY,Paraguay,PY-ASU,Asunción
QA,QAT,Qatar,QA-DA,Ad Dawḩah
QA,QAT,Qatar,QA-KH,Al Khawr wa adh Dhakhīrah
QA,QAT,Qatar,QA-MS,Ash Shamāl
QA,QAT,Qatar,QA-RA,Ar Rayyān
QA,QAT,Qatar,QA-US,Umm Şalāl
QA,QAT,Qatar,QA-WA,Al Wakrah
QA,QAT,Qatar,QA-ZA,Az̧ Z̧a‘āyin
RE,REU,Reunion,RE-RE,Reunion
RO,ROU,Romania,RO-AB,Alba
RO,ROU,Romania,RO-AG,Argeş
RO,ROU,Romania,RO-AR,Arad
RO,ROU,Romania,RO-B,Bucureşti
RO,ROU,Romania,RO-BC,Bacău
RO,ROU,Romania,RO-BH,Bihor
RO,ROU,Romania,RO-BN,Bistriţa-Năsăud
RO,ROU,Romania,RO-BR,Brăila
RO,ROU,Romania,RO-BT,Botoşani
RO,ROU,Romania,RO-BV,Braşov
RO,ROU,Romania,RO-BZ,Buzău
RO,ROU,Romania,RO-CJ,Cluj
RO,ROU,Romania,RO-CL,Călăraşi
RO,ROU,Romania,RO-CS,Caraş-Severin
RO,ROU,Romania,RO-CT,Constanţa
RO,ROU,Romania,RO-CV,Covasna
RO,ROU,Romania,RO-DB,Dâmboviţa
RO,ROU,Romania,RO-DJ,Dolj
RO,ROU,Romania,RO-GJ,Gorj
RO,ROU,Romania,RO-GL,Galaţi
RO,ROU,Romania,RO-GR,Giurgiu
RO,ROU,Romania,RO-HD,Hunedoara
RO,ROU,Romania,RO-HR,Harghita
RO,ROU,Romania,RO-IF,Ilfov
RO,ROU,Romania,RO-IL,Ialomiţa
RO,ROU,Romania,RO-IS,Iaşi
RO,ROU,Romania,RO-MH,Mehedinţi
RO,ROU,Romania,RO-MM,Maramureş
RO,ROU,Romania,RO-MS,Mureş
RO,ROU,Romania,RO-NT,Neamţ
RO,ROU,Romania,RO-OT,Olt
RO,ROU,Romania,RO-PH,Prahova
RO,ROU,Romania,RO-SB,Sibiu
RO,ROU,Romania,RO-SJ,Sălaj
RO,ROU,Romania,RO-SM,Satu Mare
RO,ROU,Romania,RO-SV,Suceava
RO,ROU,Romania,RO-TL,Tulcea
RO,ROU,Romania,RO-TM,Timiş
RO,ROU,Romania,RO-TR,Teleorman
RO,ROU,Romania,RO-VL,Vâlcea
RO,ROU,Romania,RO-VN,Vrancea
RO,ROU,Romania,RO-VS,Vaslui
RS,SRB,Serbia,RS-00,Beograd
RS,SRB,Serbia,RS-01,Severnobački okrug
RS,SRB,Serbia,RS-02,Srednjebanatski okrug
RS,SRB,Serbia,RS-03,Severnobanatski okrug
RS,SRB,Serbia,RS-04,Južnobanatski okrug
RS,SRB,Serbia,RS-05,Zapadnobački okrug
RS,SRB,Serbia,RS-06,Južnobački okrug
RS,SRB,Serbia,RS-07,Sremski okrug
RS,SRB,Serbia,RS-08,Mačvanski okrug
RS,SRB,Serbia,RS-09,Kolubarski okrug
RS,SRB,Serbia,RS-10,Podunavski okrug
RS,SRB,Serbia,RS-11,Braničevski okrug
RS,SRB,Serbia,RS-12,Šumadijski okrug
RS,SRB,Serbia,RS-13,Pomoravski okrug
RS,SRB,Serbia,RS-14,Borski okrug
RS,SRB,Serbia,RS-15,Zaječarski okrug
RS,SRB,Serbia,RS-16,Zlatiborski okrug
RS,SRB,Serbia,RS-17,Moravički okrug
RS,SRB,Serbia,RS-18,Raški okrug
RS,SRB,Serbia,RS-19,Rasinski okrug
RS,SRB,Serbia,RS-20,Nišavski okrug
RS,SRB,Serbia,RS-21,Toplički okrug
RS,SRB,Serbia,RS-22,Pirotski okrug
RS,SRB,Serbia,RS-23,Jablanički okrug
RS,SRB,Serbia,RS-24,Pčinjski okrug
RS,SRB,Serbia,RS-25,Kosovski okrug
RS,SRB,Serbia,RS-26,Pećki okrug
RS,SRB,Serbia,RS-27,Prizrenski okrug
RS,SRB,Serbia,RS-28,Kosovsko-Mitrovački okrug
RS,SRB,Serbia,RS-29,Kosovsko-Pomoravski okrug
RS,SRB,Serbia,RS-KM,Kosovo-Metohija
RS,SRB,Serbia,RS-VO,Vojvodina
RU,RUS,Russian Federation,RU-AD,Adygeja: Respublika
RU,RUS,Russian Federation,RU-AL,Altaj: Respublika
RU,RUS,Russian Federation,RU-ALT,Altajskij kraj
RU,RUS,Russian Federation,RU-AMU,Amurskaja oblast'
RU,RUS,Russian Federation,RU-ARK,Arhangel'skaja oblast'
RU,RUS,Russian Federation,RU-AST,Astrahanskaja oblast'
RU,RUS,Russian Federation,RU-BA,Bashkortostan: Respublika
RU,RUS,Russian Federation,RU-BEL,Belgorodskaja oblast'
RU,RUS,Russian Federation,RU-BRY,Brjanskaja oblast'
RU,RUS,Russian Federation,RU-BU,Burjatija: Respublika
RU,RUS,Russian Federation,RU-CE,Čečenskaja Respublika
RU,RUS,Russian Federation,RU-CHE,Čeljabinskaja oblast'
RU,RUS,Russian Federation,RU-CHU,Chukotskiy avtonomnyy okrug
RU,RUS,Russian Federation,RU-CU,Chuvashskaya Respublika
RU,RUS,Russian Federation,RU-DA,Dagestan: Respublika
RU,RUS,Russian Federation,RU-IN,Ingušetija: Respublika
RU,RUS,Russian Federation,RU-IRK,Irkutskaja oblast'
RU,RUS,Russian Federation,RU-IVA,Ivanovskaja oblast'
RU,RUS,Russian Federation,RU-KAM,Kamčatskij kraj
RU,RUS,Russian Federation,RU-KB,Kabardino-Balkarskaja Respublika
RU,RUS,Russian Federation,RU-KC,Karačaevo-Čerkesskaja Respublika
RU,RUS,Russian Federation,RU-KDA,Krasnodarskij kraj
RU,RUS,Russian Federation,RU-KEM,Kemerovskaja oblast'
RU,RUS,Russian Federation,RU-KGD,Kaliningradskaja oblast'
RU,RUS,Russian Federation,RU-KGN,Kurganskaja oblast'
RU,RUS,Russian Federation,RU-KHA,Habarovskij kraj
RU,RUS,Russian Federation,RU-KHM,Hanty-Mansijskij avtonomnyj okrug
RU,RUS,Russian Federation,RU-KIR,Kirovskaja oblast'
RU,RUS,Russian Federation,RU-KK,Hakasija: Respublika
RU,RUS,Russian Federation,RU-KL,Kalmykija: Respublika
RU,RUS,Russian Federation,RU-KLU,Kaluzhskaya oblast'
RU,RUS,Russian Federation,RU-KO,Komi: Respublika
RU,RUS,Russian Federation,RU-KOS,Kostromskaja oblast'
RU,RUS,Russian Federation,RU-KR,Karelija: Respublika
RU,RUS,Russian Federation,RU-KRS,Kurskaja oblast'
RU,RUS,Russian Federation,RU-KYA,Krasnojarskij kraj
RU,RUS,Russian Federation,RU-LEN,Leningradskaja oblast'
RU,RUS,Russian Federation,RU-LIP,Lipeckaja oblast'
RU,RUS,Russian Federation,RU-MAG,Magadanskaja oblast'
RU,RUS,Russian Federation,RU-ME,Marij Èl: Respublika
RU,RUS,Russian Federation,RU-MO,Mordovija: Respublika
RU,RUS,Russian Federation,RU-MOS,Moskovskaja oblast'
RU,RUS,Russian Federation,RU-MOW,Moskva
RU,RUS,Russian Federation,RU-MUR,Murmanskaja oblast'
RU,RUS,Russian Federation,RU-NEN,Neneckij avtonomnyj okrug
RU,RUS,Russian Federation,RU-NGR,Novgorodskaja oblast'
RU,RUS,Russian Federation,RU-NIZ,Nižegorodskaja oblast'
RU,RUS,Russian Federation,RU-NVS,Novosibirskaja oblast'
RU,RUS,Russian Federation,RU-OMS,Omskaja oblast'
RU,RUS,Russian Federation,RU-ORE,Orenburgskaja oblast'
RU,RUS,Russian Federation,RU-ORL,Orlovskaja oblast'
RU,RUS,Russian Federation,RU-PER,Permskij kraj
RU,RUS,Russian Federation,RU-PNZ,Penzenskaja oblast'
RU,RUS,Russian Federation,RU-PRI,Primorskij kraj
RU,RUS,Russian Federation,RU-PSK,Pskovskaja oblast'
RU,RUS,Russian Federation,RU-ROS,Rostovskaja oblast'
RU,RUS,Russian Federation,RU-RYA,Rjazanskaja oblast'
RU,RUS,Russian Federation,RU-SA,Saha: Respublika
RU,RUS,Russian Federation,RU-SAK,Sahalinskaja oblast'
RU,RUS,Russian Federation,RU-SAM,Samarskaja oblast'
RU,RUS,Russian Federation,RU-SAR,Saratovskaja oblast'
RU,RUS,Russian Federation,RU-SE,Severnaja Osetija: Respublika
RU,RUS,Russian Federation,RU-SMO,Smolenskaja oblast'
RU,RUS,Russian Federation,RU-SPE,Sankt-Peterburg
RU,RUS,Russian Federation,RU-STA,Stavropol'skij kraj
RU,RUS,Russian Federation,RU-SVE,Sverdlovskaja oblast'
RU,RUS,Russian Federation,RU-TA,Tatarstan: Respublika
RU,RUS,Russian Federation,RU-TAM,Tambovskaja oblast'
RU,RUS,Russian Federation,RU-TOM,Tomskaja oblast'
RU,RUS,Russian Federation,RU-TUL,Tul'skaja oblast'
RU,RUS,Russian Federation,RU-TVE,Tverskaja oblast'
RU,RUS,Russian Federation,RU-TY,Tyva: Respublika
RU,RUS,Russian Federation,RU-TYU,Tjumenskaja oblast'
RU,RUS,Russian Federation,RU-UD,Udmurtskaja Respublika
RU,RUS,Russian Federation,RU-ULY,Ul'janovskaja oblast'
RU,RUS,Russian Federation,RU-VGG,Volgogradskaja oblast'
RU,RUS,Russian Federation,RU-VLA,Vladimirskaja oblast'
RU,RUS,Russian Federation,RU-VLG,Vologodskaja oblast'
RU,RUS,Russian Federation,RU-VOR,Voronezhskaya oblast'
RU,RUS,Russian Federation,RU-YAN,Jamalo-Neneckij avtonomnyj okrug
RU,RUS,Russian Federation,RU-YAR,Jaroslavskaja oblast'
RU,RUS,Russian Federation,RU-YEV,Evrejskaja avtonomnaja oblast'
RU,RUS,Russian Federation,RU-ZAB,Zabajkal'skij kraj
RW,RWA,Rwanda,RW-01,Ville de Kigal
RW,RWA,Rwanda,RW-02,Est
RW,RWA,Rwanda,RW-03,Nord
RW,RWA,Rwanda,RW-04,Ouest
RW,RWA,Rwanda,RW-05,Sud
SA,SAU,Saudi Arabia,SA-01,Ar Riyāḑ
SA,SAU,Saudi Arabia,SA-02,Makkah al Mukarramah
SA,SAU,Saudi Arabia,SA-03,Al Madīnah al Munawwarah
SA,SAU,Saudi Arabia,SA-04,Ash Sharqīyah
SA,SAU,Saudi Arabia,SA-05,Al Qaşīm
SA,SAU,Saudi Arabia,SA-06,Ḩā'il
SA,SAU,Saudi Arabia,SA-07,Tabūk
SA,SAU,Saudi Arabia,SA-08,Al Ḩudūd ash Shamālīyah
SA,SAU,Saudi Arabia,SA-09,Jāzān
SA,SAU,Saudi Arabia,SA-10,Najrān
SA,SAU,Saudi Arabia,SA-11,Al Bāḩah
SA,SAU,Saudi Arabia,SA-12,Al Jawf
SA,SAU,Saudi Arabia,SA-14,'Asīr
SB,SLB,Solomon Islands,SB-CE,Central
SB,SLB,Solomon Islands,SB-CH,Choiseul
SB,SLB,Solomon Islands,SB-CT,Capital Territory
SB,SLB,Solomon Islands,SB-GU,Guadalcanal
SB,SLB,Solomon Islands,SB-IS,Isabel
SB,SLB,Solomon Islands,SB-MK,Makira-Ulawa
SB,SLB,Solomon Islands,SB-ML,Malaita
SB,SLB,Solomon Islands,SB-RB,Rennell and Bellona
SB,SLB,Solomon Islands,SB-TE,Temotu
SB,SLB,Solomon Islands,SB-WE,Western
SC,SYC,Seychelles,SC-01,Anse aux Pins
SC,SYC,Seychelles,SC-02,Ans Bwalo
SC,SYC,Seychelles,SC-03,Anse Etoile
SC,SYC,Seychelles,SC-04,Au Cap
SC,SYC,Seychelles,SC-05,Anse Royale
SC,SYC,Seychelles,SC-06,Baie Lazare
SC,SYC,Seychelles,SC-07,Baie Sainte-Anne
SC,SYC,Seychelles,SC-08,Beau Vallon
SC,SYC,Seychelles,SC-09,Bel Air
SC,SYC,Seychelles,SC-10,Bel Ombre
SC,SYC,Seychelles,SC-11,Cascade
SC,SYC,Seychelles,SC-12,Glacis
SC,SYC,Seychelles,SC-13,Grand'Anse Mahé
SC,SYC,Seychelles,SC-14,Grand'Anse Praslin
SC,SYC,Seychelles,SC-15,Ladig
SC,SYC,Seychelles,SC-16,English River
SC,SYC,Seychelles,SC-17,Mon Bikston
SC,SYC,Seychelles,SC-18,Mon Fleri
SC,SYC,Seychelles,SC-19,Plaisance
SC,SYC,Seychelles,SC-20,Pointe La Rue
SC,SYC,Seychelles,SC-21,Porglo
SC,SYC,Seychelles,SC-22,Saint Louis
SC,SYC,Seychelles,SC-23,Takamaka
SC,SYC,Seychelles,SC-24,Lemamel
SC,SYC,Seychelles,SC-25,Roche Caïman
SD,SDN,Sudan,SD-DC,Central Darfur
SD,SDN,Sudan,SD-DE,East Darfur
SD,SDN,Sudan,SD-DN,North Darfur
SD,SDN,Sudan,SD-DS,Janūb Dārfūr
SD,SDN,Sudan,SD-DW,Gharb Dārfūr
SD,SDN,Sudan,SD-GD,Al Qaḑārif
SD,SDN,Sudan,SD-GZ,Al Jazīrah
SD,SDN,Sudan,SD-KA,Kassala
SD,SDN,Sudan,SD-KH,Al Kharţūm
SD,SDN,Sudan,SD-KN,North Kordofan
SD,SDN,Sudan,SD-KS,Janūb Kurdufān
SD,SDN,Sudan,SD-NB,An Nīl al Azraq
SD,SDN,Sudan,SD-NO,Ash Shamālīyah
SD,SDN,Sudan,SD-NR,An Nīl
SD,SDN,Sudan,SD-NW,An Nīl al Abyaḑ
SD,SDN,Sudan,SD-RS,Al Baḩr al Aḩmar
SD,SDN,Sudan,SD-SI,Sennar
SE,SWE,Sweden,SE-AB,Stockholms län
SE,SWE,Sweden,SE-AC,Västerbottens län
SE,SWE,Sweden,SE-BD,Norrbottens län
SE,SWE,Sweden,SE-C,Uppsala län
SE,SWE,Sweden,SE-D,Södermanlands län
SE,SWE,Sweden,SE-E,Östergötlands län
SE,SWE,Sweden,SE-F,Jönköpings län
SE,SWE,Sweden,SE-G,Kronobergs län
SE,SWE,Sweden,SE-H,Kalmar län
SE,SWE,Sweden,SE-I,Gotlands län
SE,SWE,Sweden,SE-K,Blekinge län
SE,SWE,Sweden,SE-M,Skåne län
SE,SWE,Sweden,SE-N,Hallands län
SE,SWE,Sweden,SE-O,Västra Götalands län
SE,SWE,Sweden,SE-S,Värmlands län
SE,SWE,Sweden,SE-T,Örebro län
SE,SWE,Sweden,SE-U,Västmanlands län
SE,SWE,Sweden,SE-W,Dalarnas län
SE,SWE,Sweden,SE-X,Gävleborgs län
SE,SWE,Sweden,SE-Y,Västernorrlands län
SE,SWE,Sweden,SE-Z,Jämtlands län
SG,SGP,Singapore,SG-01,Central Singapore
SG,SGP,Singapore,SG-02,North East
SG,SGP,Singapore,SG-03,North West
SG,SGP,Singapore,SG-04,South East
SG,SGP,Singapore,SG-05,South West
SH,SHN,"Saint Helena, Ascension and Tristan Da Cunna",SH-AC,Ascension
SH,SHN,"Saint Helena, Ascension and Tristan Da Cunna",SH-HL,Saint Helena
SH,SHN,"Saint Helena, Ascension and Tristan Da Cunna",SH-TA,Tristan da Cunha
SI,SVN,Slovenia,SI-001,Ajdovščina
SI,SVN,Slovenia,SI-002,Beltinci
SI,SVN,Slovenia,SI-003,Bled
SI,SVN,Slovenia,SI-004,Bohinj
SI,SVN,Slovenia,SI-005,Borovnica
SI,SVN,Slovenia,SI-006,Bovec
SI,SVN,Slovenia,SI-007,Brda
SI,SVN,Slovenia,SI-008,Brezovica
SI,SVN,Slovenia,SI-009,Brežice
SI,SVN,Slovenia,SI-010,Tišina
SI,SVN,Slovenia,SI-011,Celje
SI,SVN,Slovenia,SI-012,Cerklje na Gorenjskem
SI,SVN,Slovenia,SI-013,Cerknica
SI,SVN,Slovenia,SI-014,Cerkno
SI,SVN,Slovenia,SI-015,Črenšovci
SI,SVN,Slovenia,SI-016,Črna na Koroškem
SI,SVN,Slovenia,SI-017,Črnomelj
SI,SVN,Slovenia,SI-018,Destrnik
SI,SVN,Slovenia,SI-019,Divača
SI,SVN,Slovenia,SI-020,Dobrepolje
SI,SVN,Slovenia,SI-021,Dobrova-Polhov Gradec
SI,SVN,Slovenia,SI-022,Dol pri Ljubljani
SI,SVN,Slovenia,SI-023,Domžale
SI,SVN,Slovenia,SI-024,Dornava
SI,SVN,Slovenia,SI-025,Dravograd
SI,SVN,Slovenia,SI-026,Duplek
SI,SVN,Slovenia,SI-027,Gorenja vas-Poljane
SI,SVN,Slovenia,SI-028,Gorišnica
SI,SVN,Slovenia,SI-029,Gornja Radgona
SI,SVN,Slovenia,SI-030,Gornji Grad
SI,SVN,Slovenia,SI-031,Gornji Petrovci
SI,SVN,Slovenia,SI-032,Grosuplje
SI,SVN,Slovenia,SI-033,Šalovci
SI,SVN,Slovenia,SI-034,Hrastnik
SI,SVN,Slovenia,SI-035,Hrpelje-Kozina
SI,SVN,Slovenia,SI-036,Idrija
SI,SVN,Slovenia,SI-037,Ig
SI,SVN,Slovenia,SI-038,Ilirska Bistrica
SI,SVN,Slovenia,SI-039,Ivančna Gorica
SI,SVN,Slovenia,SI-040,Izola
SI,SVN,Slovenia,SI-041,Jesenice
SI,SVN,Slovenia,SI-042,Juršinci
SI,SVN,Slovenia,SI-043,Kamnik
SI,SVN,Slovenia,SI-044,Kanal
SI,SVN,Slovenia,SI-045,Kidričevo
SI,SVN,Slovenia,SI-046,Kobarid
SI,SVN,Slovenia,SI-047,Kobilje
SI,SVN,Slovenia,SI-048,Kočevje
SI,SVN,Slovenia,SI-049,Komen
SI,SVN,Slovenia,SI-050,Koper
SI,SVN,Slovenia,SI-051,Kozje
SI,SVN,Slovenia,SI-052,Kranj
SI,SVN,Slovenia,SI-053,Kranjska Gora
SI,SVN,Slovenia,SI-054,Krško
SI,SVN,Slovenia,SI-055,Kungota
SI,SVN,Slovenia,SI-056,Kuzma
SI,SVN,Slovenia,SI-057,Laško
SI,SVN,Slovenia,SI-058,Lenart
SI,SVN,Slovenia,SI-059,Lendava
SI,SVN,Slovenia,SI-060,Litija
SI,SVN,Slovenia,SI-061,Ljubljana
SI,SVN,Slovenia,SI-062,Ljubno
SI,SVN,Slovenia,SI-063,Ljutomer
SI,SVN,Slovenia,SI-064,Logatec
SI,SVN,Slovenia,SI-065,Loška Dolina
SI,SVN,Slovenia,SI-066,Loški Potok
SI,SVN,Slovenia,SI-067,Luče
SI,SVN,Slovenia,SI-068,Lukovica
SI,SVN,Slovenia,SI-069,Majšperk
SI,SVN,Slovenia,SI-070,Maribor
SI,SVN,Slovenia,SI-071,Medvode
SI,SVN,Slovenia,SI-072,Mengeš
SI,SVN,Slovenia,SI-073,Metlika
SI,SVN,Slovenia,SI-074,Mežica
SI,SVN,Slovenia,SI-075,Miren-Kostanjevica
SI,SVN,Slovenia,SI-076,Mislinja
SI,SVN,Slovenia,SI-077,Moravče
SI,SVN,Slovenia,SI-078,Moravske Toplice
SI,SVN,Slovenia,SI-079,Mozirje
SI,SVN,Slovenia,SI-080,Murska Sobota
SI,SVN,Slovenia,SI-081,Muta
SI,SVN,Slovenia,SI-082,Naklo
SI,SVN,Slovenia,SI-083,Nazarje
SI,SVN,Slovenia,SI-084,Nova Gorica
SI,SVN,Slovenia,SI-085,Novo Mesto
SI,SVN,Slovenia,SI-086,Odranci
SI,SVN,Slovenia,SI-087,Ormož
SI,SVN,Slovenia,SI-088,Osilnica
SI,SVN,Slovenia,SI-089,Pesnica
SI,SVN,Slovenia,SI-090,Piran
SI,SVN,Slovenia,SI-091,Pivka
SI,SVN,Slovenia,SI-092,Podčetrtek
SI,SVN,Slovenia,SI-093,Podvelka
SI,SVN,Slovenia,SI-094,Postojna
SI,SVN,Slovenia,SI-095,Preddvor
SI,SVN,Slovenia,SI-096,Ptuj
SI,SVN,Slovenia,SI-097,Puconci
SI,SVN,Slovenia,SI-098,Rače-Fram
SI,SVN,Slovenia,SI-099,Radeče
SI,SVN,Slovenia,SI-100,Radenci
SI,SVN,Slovenia,SI-101,Radlje ob Dravi
SI,SVN,Slovenia,SI-102,Radovljica
SI,SVN,Slovenia,SI-103,Ravne na Koroškem
SI,SVN,Slovenia,SI-104,Ribnica
SI,SVN,Slovenia,SI-105,Rogašovci
SI,SVN,Slovenia,SI-106,Rogaška Slatina
SI,SVN,Slovenia,SI-107,Rogatec
SI,SVN,Slovenia,SI-108,Ruše
SI,SVN,Slovenia,SI-109,Semič
SI,SVN,Slovenia,SI-110,Sevnica
SI,SVN,Slovenia,SI-111,Sežana
SI,SVN,Slovenia,SI-112,Slovenj Gradec
SI,SVN,Slovenia,SI-113,Slovenska Bistrica
SI,SVN,Slovenia,SI-114,Slovenske Konjice
SI,SVN,Slovenia,SI-115,Starše
SI,SVN,Slovenia,SI-116,Sveti Jurij
SI,SVN,Slovenia,SI-117,Šenčur
SI,SVN,Slovenia,SI-118,Šentilj
SI,SVN,Slovenia,SI-119,Šentjernej
SI,SVN,Slovenia,SI-120,Šentjur
SI,SVN,Slovenia,SI-121,Škocjan
SI,SVN,Slovenia,SI-122,Škofja Loka
SI,SVN,Slovenia,SI-123,Škofljica
SI,SVN,Slovenia,SI-124,Šmarje pri Jelšah
SI,SVN,Slovenia,SI-125,Šmartno ob Paki
SI,SVN,Slovenia,SI-126,Šoštanj
SI,SVN,Slovenia,SI-127,Štore
SI,SVN,Slovenia,SI-128,Tolmin
SI,SVN,Slovenia,SI-129,Trbovlje
SI,SVN,Slovenia,SI-130,Trebnje
SI,SVN,Slovenia,SI-131,Tržič
SI,SVN,Slovenia,SI-132,Turnišče
SI,SVN,Slovenia,SI-133,Velenje
SI,SVN,Slovenia,SI-134,Velike Lašče
SI,SVN,Slovenia,SI-135,Videm
SI,SVN,Slovenia,SI-136,Vipava
SI,SVN,Slovenia,SI-137,Vitanje
SI,SVN,Slovenia,SI-138,Vodice
SI,SVN,Slovenia,SI-139,Vojnik
SI,SVN,Slovenia,SI-140,Vrhnika
SI,SVN,Slovenia,SI-141,Vuzenica
SI,SVN,Slovenia,SI-142,Zagorje ob Savi
SI,SVN,Slovenia,SI-143,Zavrč
SI,SVN,Slovenia,SI-144,Zreče
SI,SVN,Slovenia,SI-146,Železniki
SI,SVN,Slovenia,SI-147,Žiri
SI,SVN,Slovenia,SI-148,Benedikt
SI,SVN,Slovenia,SI-149,Bistrica ob Sotli
SI,SVN,Slovenia,SI-150,Bloke
SI,SVN,Slovenia,SI-151,Braslovče
SI,SVN,Slovenia,SI-152,Cankova
SI,SVN,Slovenia,SI-153,Cerkvenjak
SI,SVN,Slovenia,SI-154,Dobje
SI,SVN,Slovenia,SI-155,Dobrna
SI,SVN,Slovenia,SI-156,Dobrovnik
SI,SVN,Slovenia,SI-157,Dolenjske Toplice
SI,SVN,Slovenia,SI-158,Grad
SI,SVN,Slovenia,SI-159,Hajdina
SI,SVN,Slovenia,SI-160,Hoče-Slivnica
SI,SVN,Slovenia,SI-161,Hodoš
SI,SVN,Slovenia,SI-162,Horjul
SI,SVN,Slovenia,SI-163,Jezersko
SI,SVN,Slovenia,SI-164,Komenda
SI,SVN,Slovenia,SI-165,Kostel
SI,SVN,Slovenia,SI-166,Križevci
SI,SVN,Slovenia,SI-167,Lovrenc na Pohorju
SI,SVN,Slovenia,SI-168,Markovci
SI,SVN,Slovenia,SI-169,Miklavž na Dravskem Polju
SI,SVN,Slovenia,SI-170,Mirna Peč
SI,SVN,Slovenia,SI-171,Oplotnica
SI,SVN,Slovenia,SI-172,Podlehnik
SI,SVN,Slovenia,SI-173,Polzela
SI,SVN,Slovenia,SI-174,Prebold
SI,SVN,Slovenia,SI-175,Prevalje
SI,SVN,Slovenia,SI-176,Razkrižje
SI,SVN,Slovenia,SI-177,Ribnica na Pohorju
SI,SVN,Slovenia,SI-178,Selnica ob Dravi
SI,SVN,Slovenia,SI-179,Sodražica
SI,SVN,Slovenia,SI-180,Solčava
SI,SVN,Slovenia,SI-181,Sveta Ana
SI,SVN,Slovenia,SI-182,Sveti Andraž v Slovenskih Goricah
SI,SVN,Slovenia,SI-183,Šempeter-Vrtojba
SI,SVN,Slovenia,SI-184,Tabor
SI,SVN,Slovenia,SI-185,Trnovska Vas
SI,SVN,Slovenia,SI-186,Trzin
SI,SVN,Slovenia,SI-187,Velika Polana
SI,SVN,Slovenia,SI-188,Veržej
SI,SVN,Slovenia,SI-189,Vransko
SI,SVN,Slovenia,SI-190,Žalec
SI,SVN,Slovenia,SI-191,Žetale
SI,SVN,Slovenia,SI-192,Žirovnica
SI,SVN,Slovenia,SI-193,Žužemberk
SI,SVN,Slovenia,SI-194,Šmartno pri Litiji
SI,SVN,Slovenia,SI-195,Apače
SI,SVN,Slovenia,SI-196,Cirkulane
SI,SVN,Slovenia,SI-197,Kosanjevica na Krki
SI,SVN,Slovenia,SI-198,Makole
SI,SVN,Slovenia,SI-199,Mokronog-Trebelno
SI,SVN,Slovenia,SI-200,Poljčane
SI,SVN,Slovenia,SI-201,Renče-Vogrsko
SI,SVN,Slovenia,SI-202,Središče ob Dravi
SI,SVN,Slovenia,SI-203,Straža
SI,SVN,Slovenia,SI-204,Sveta Trojica v Slovenskih Goricah
SI,SVN,Slovenia,SI-205,Sveti Tomaž
SI,SVN,Slovenia,SI-206,Šmarješke Toplice
SI,SVN,Slovenia,SI-207,Gorje
SI,SVN,Slovenia,SI-208,Log-Dragomer
SI,SVN,Slovenia,SI-209,Rečica ob Savinji
SI,SVN,Slovenia,SI-210,Sveti Jurij v Slovenskih Goricah
SI,SVN,Slovenia,SI-211,Šentrupert
SI,SVN,Slovenia,SI-212,Mirna
SJ,SJM,Svalbard And Jan Mayen,SJ-SJ,Svalbard & Jan Mayen Islands
SK,SVK,Slovakia,SK-BC,Banskobystrický kraj
SK,SVK,Slovakia,SK-BL,Bratislavský kraj
SK,SVK,Slovakia,SK-KI,Košický kraj
SK,SVK,Slovakia,SK-NI,Nitriansky kraj
SK,SVK,Slovakia,SK-PV,Prešovský kraj
SK,SVK,Slovakia,SK-TA,Trnavský kraj
SK,SVK,Slovakia,SK-TC,Trenčiansky kraj
SK,SVK,Slovakia,SK-ZI,Žilinský kraj
SL,SLE,Sierra Leone,SL-E,Eastern
SL,SLE,Sierra Leone,SL-N,Northern
SL,SLE,Sierra Leone,SL-S,Southern
SL,SLE,Sierra Leone,SL-W,Western Area
SM,SMR,San Marino,SM-01,Acquaviva
SM,SMR,San Marino,SM-02,Chiesanuova
SM,SMR,San Marino,SM-03,Domagnano
SM,SMR,San Marino,SM-04,Faetano
SM,SMR,San Marino,SM-05,Fiorentino
SM,SMR,San Marino,SM-06,Borgo Maggiore
SM,SMR,San Marino,SM-07,San Marino
SM,SMR,San Marino,SM-08,Montegiardino
SM,SMR,San Marino,SM-09,Serravalle
SN,SEN,Senegal,SN-DB,Diourbel
SN,SEN,Senegal,SN-DK,Dakar
SN,SEN,Senegal,SN-FK,Fatick
SN,SEN,Senegal,SN-KA,Kaffrine
SN,SEN,Senegal,SN-KD,Kolda
SN,SEN,Senegal,SN-KE,Kédougou
SN,SEN,Senegal,SN-KL,Kaolack
SN,SEN,Senegal,SN-LG,Louga
SN,SEN,Senegal,SN-MT,Matam
SN,SEN,Senegal,SN-SE,Sédhiou
SN,SEN,Senegal,SN-SL,Saint-Louis
SN,SEN,Senegal,SN-TC,Tambacounda
SN,SEN,Senegal,SN-TH,Thiès
SN,SEN,Senegal,SN-ZG,Ziguinchor
SO,SOM,Somalia,SO-AW,Awdal
SO,SOM,Somalia,SO-BK,Bakool
SO,SOM,Somalia,SO-BN,Banaadir
SO,SOM,Somalia,SO-BR,Bari
SO,SOM,Somalia,SO-BY,Bay
SO,SOM,Somalia,SO-GA,Galguduud
SO,SOM,Somalia,SO-GE,Gedo
SO,SOM,Somalia,SO-HI,Hiiraan
SO,SOM,Somalia,SO-JD,Jubbada Dhexe
SO,SOM,Somalia,SO-JH,Jubbada Hoose
SO,SOM,Somalia,SO-MU,Mudug
SO,SOM,Somalia,SO-NU,Nugaal
SO,SOM,Somalia,SO-SA,Sanaag
SO,SOM,Somalia,SO-SD,Shabeellaha Dhexe
SO,SOM,Somalia,SO-SH,Shabeellaha Hoose
SO,SOM,Somalia,SO-SO,Sool
SO,SOM,Somalia,SO-TO,Togdheer
SO,SOM,Somalia,SO-WO,Woqooyi Galbeed
SR,SUR,Suriname,SR-BR,Brokopondo
SR,SUR,Suriname,SR-CM,Commewijne
SR,SUR,Suriname,SR-CR,Coronie
SR,SUR,Suriname,SR-MA,Marowijne
SR,SUR,Suriname,SR-NI,Nickerie
SR,SUR,Suriname,SR-PM,Paramaribo
SR,SUR,Suriname,SR-PR,Para
SR,SUR,Suriname,SR-SA,Saramacca
SR,SUR,Suriname,SR-SI,Sipaliwini
SR,SUR,Suriname,SR-WA,Wanica
SS,SSD,South Sudan,SS-BN,Northern Bahr el Ghazal
SS,SSD,South Sudan,SS-BW,Western Bahr el Ghazal
SS,SSD,South Sudan,SS-EC,Central Equatoria
SS,SSD,South Sudan,SS-EE,Eastern Equatoria
SS,SSD,South Sudan,SS-EW,Western Equatoria
SS,SSD,South Sudan,SS-JG,Jonglei
SS,SSD,South Sudan,SS-LK,Lakes
SS,SSD,South Sudan,SS-NU,Upper Nile
SS,SSD,South Sudan,SS-UY,Unity
SS,SSD,South Sudan,SS-WR,Warrap
ST,STP,Sao Tome And Principe,ST-P,Príncipe
ST,STP,Sao Tome And Principe,ST-S,São Tomé
SV,SLV,El Salvador,SV-AH,Ahuachapán
SV,SLV,El Salvador,SV-CA,Cabañas
SV,SLV,El Salvador,SV-CH,Chalatenango
SV,SLV,El Salvador,SV-CU,Cuscatlán
SV,SLV,El Salvador,SV-LI,La Libertad
SV,SLV,El Salvador,SV-MO,Morazán
SV,SLV,El Salvador,SV-PA,La Paz
SV,SLV,El Salvador,SV-SA,Santa Ana
SV,SLV,El Salvador,SV-SM,San Miguel
SV,SLV,El Salvador,SV-SO,Sonsonate
SV,SLV,El Salvador,SV-SS,San Salvador
SV,SLV,El Salvador,SV-SV,San Vicente
SV,SLV,El Salvador,SV-UN,La Unión
SV,SLV,El Salvador,SV-US,Usulután
SX,SXM,Sint Maarten,SX-SX,St. Maarten
SY,SYR,Syrian Arab Republic,SY-DI,Dimashq
SY,SYR,Syrian Arab Republic,SY-DR,Dar'ā
SY,SYR,Syrian Arab Republic,SY-DY,Dayr az Zawr
SY,SYR,Syrian Arab Republic,SY-HA,Al Ḩasakah
SY,SYR,Syrian Arab Republic,SY-HI,Ḩimş
SY,SYR,Syrian Arab Republic,SY-HL,Ḩalab
SY,SYR,Syrian Arab Republic,SY-HM,Ḩamāh
SY,SYR,Syrian Arab Republic,SY-ID,Idlib
SY,SYR,Syrian Arab Republic,SY-LA,Al Lādhiqīyah
SY,SYR,Syrian Arab Republic,SY-QU,Al Qunayţirah
SY,SYR,Syrian Arab Republic,SY-RA,Ar Raqqah
SY,SYR,Syrian Arab Republic,SY-RD,Rīf Dimashq
SY,SYR,Syrian Arab Republic,SY-SU,As Suwaydā'
SY,SYR,Syrian Arab Republic,SY-TA,Ţarţūs
SZ,SWZ,Swaziland,SZ-HH,Hhohho
SZ,SWZ,Swaziland,SZ-LU,Lubombo
SZ,SWZ,Swaziland,SZ-MA,Manzini
SZ,SWZ,Swaziland,SZ-SH,Shiselweni
TC,TCA,Turks And Caicos Islands,TC-TC,Turks & Caicos Islands
TD,TCD,Chad,TD-BA,Al Baţḩah
TD,TCD,Chad,TD-BG,Baḩr al Ghazāl
TD,TCD,Chad,TD-BO,Borkou
TD,TCD,Chad,TD-CB,Chari-Baguirmi
TD,TCD,Chad,TD-EE,Ennedi-Est
TD,TCD,Chad,TD-EO,Ennedi-Ouest
TD,TCD,Chad,TD-GR,Guéra
TD,TCD,Chad,TD-HL,Hadjer Lamis
TD,TCD,Chad,TD-KA,Kanem
TD,TCD,Chad,TD-LC,Al Buḩayrah
TD,TCD,Chad,TD-LO,Logone-Occidental
TD,TCD,Chad,TD-LR,Logone-Oriental
TD,TCD,Chad,TD-MA,Mandoul
TD,TCD,Chad,TD-MC,Moyen-Chari
TD,TCD,Chad,TD-ME,Mayo-Kebbi-Est
TD,TCD,Chad,TD-MO,Mayo-Kebbi-Ouest
TD,TCD,Chad,TD-ND,Madīnat Injamīnā
TD,TCD,Chad,TD-OD,Ouaddaï
TD,TCD,Chad,TD-SA,Salamat
TD,TCD,Chad,TD-SI,Sila
TD,TCD,Chad,TD-TA,Tandjilé
TD,TCD,Chad,TD-TI,Tibastī
TD,TCD,Chad,TD-WF,Wadi Fira
TF,ATF,French Southern Territories,TF-TF,French Southern Territories
TG,TGO,Togo,TG-C,Centre
TG,TGO,Togo,TG-K,Kara
TG,TGO,Togo,TG-M,Maritime
TG,TGO,Togo,TG-P,Plateaux
TG,TGO,Togo,TG-S,Savannes
TH,THA,Thailand,TH-10,Krung Thep Maha Nakhon
TH,THA,Thailand,TH-11,Samut Prakan
TH,THA,Thailand,TH-12,Nonthaburi
TH,THA,Thailand,TH-13,Pathum Thani
TH,THA,Thailand,TH-14,Phra Nakhon Si Ayutthaya
TH,THA,Thailand,TH-15,Ang Thong
TH,THA,Thailand,TH-16,Lop Buri
TH,THA,Thailand,TH-17,Sing Buri
TH,THA,Thailand,TH-18,Chai Nat
TH,THA,Thailand,TH-19,Saraburi
TH,THA,Thailand,TH-20,Chon Buri
TH,THA,Thailand,TH-21,Rayong
TH,THA,Thailand,TH-22,Chanthaburi
TH,THA,Thailand,TH-23,Trat
TH,THA,Thailand,TH-24,Chachoengsao
TH,THA,Thailand,TH-25,Prachin Buri
TH,THA,Thailand,TH-26,Nakhon Nayok
TH,THA,Thailand,TH-27,Sa Kaeo
TH,THA,Thailand,TH-30,Nakhon Ratchasima
TH,THA,Thailand,TH-31,Buri Ram
TH,THA,Thailand,TH-32,Surin
TH,THA,Thailand,TH-33,Si Sa Ket
TH,THA,Thailand,TH-34,Ubon Ratchathani
TH,THA,Thailand,TH-35,Yasothon
TH,THA,Thailand,TH-36,Chaiyaphum
TH,THA,Thailand,TH-37,Amnat Charoen
TH,THA,Thailand,TH-38,Bueng Kan
TH,THA,Thailand,TH-39,Nong Bua Lam Phu
TH,THA,Thailand,TH-40,Khon Kaen
TH,THA,Thailand,TH-41,Udon Thani
TH,THA,Thailand,TH-42,Loei
TH,THA,Thailand,TH-43,Nong Khai
TH,THA,Thailand,TH-44,Maha Sarakham
TH,THA,Thailand,TH-45,Roi Et
TH,THA,Thailand,TH-46,Kalasin
TH,THA,Thailand,TH-47,Sakon Nakhon
TH,THA,Thailand,TH-48,Nakhon Phanom
TH,THA,Thailand,TH-49,Mukdahan
TH,THA,Thailand,TH-50,Chiang Mai
TH,THA,Thailand,TH-51,Lamphun
TH,THA,Thailand,TH-52,Lampang
TH,THA,Thailand,TH-53,Uttaradit
TH,THA,Thailand,TH-54,Phrae
TH,THA,Thailand,TH-55,Nan
TH,THA,Thailand,TH-56,Phayao
TH,THA,Thailand,TH-57,Chiang Rai
TH,THA,Thailand,TH-58,Mae Hong Son
TH,THA,Thailand,TH-60,Nakhon Sawan
TH,THA,Thailand,TH-61,Uthai Thani
TH,THA,Thailand,TH-62,Kamphaeng Phet
TH,THA,Thailand,TH-63,Tak
TH,THA,Thailand,TH-64,Sukhothai
TH,THA,Thailand,TH-65,Phitsanulok
TH,THA,Thailand,TH-66,Phichit
TH,THA,Thailand,TH-67,Phetchabun
TH,THA,Thailand,TH-70,Ratchaburi
TH,THA,Thailand,TH-71,Kanchanaburi
TH,THA,Thailand,TH-72,Suphan Buri
TH,THA,Thailand,TH-73,Nakhon Pathom
TH,THA,Thailand,TH-74,Samut Sakhon
TH,THA,Thailand,TH-75,Samut Songkhram
TH,THA,Thailand,TH-76,Phetchaburi
TH,THA,Thailand,TH-77,Prachuap Khiri Khan
TH,THA,Thailand,TH-80,Nakhon Si Thammarat
TH,THA,Thailand,TH-81,Krabi
TH,THA,Thailand,TH-82,Phangnga
TH,THA,Thailand,TH-83,Phuket
TH,THA,Thailand,TH-84,Surat Thani
TH,THA,Thailand,TH-85,Ranong
TH,THA,Thailand,TH-86,Chumphon
TH,THA,Thailand,TH-90,Songkhla
TH,THA,Thailand,TH-91,Satun
TH,THA,Thailand,TH-92,Trang
TH,THA,Thailand,TH-93,Phatthalung
TH,THA,Thailand,TH-94,Pattani
TH,THA,Thailand,TH-95,Yala
TH,THA,Thailand,TH-96,Narathiwat
TH,THA,Thailand,TH-S,Phatthaya
TJ,TJK,Tajikistan,TJ-DU,Dushanbe
TJ,TJK,Tajikistan,TJ-GB,Kŭhistoni Badakhshon
TJ,TJK,Tajikistan,TJ-KT,Khatlon
TJ,TJK,Tajikistan,TJ-SU,Sughd
TK,TKL,Tokelau,TK-TK,Tokelau
TL,TLS,Timor,TL-AL,Aileu
TL,TLS,Timor,TL-AN,Ainaro
TL,TLS,Timor,TL-BA,Baucau
TL,TLS,Timor,TL-BO,Bobonaro
TL,TLS,Timor,TL-CO,Cova Lima
TL,TLS,Timor,TL-DI,Díli
TL,TLS,Timor,TL-ER,Ermera
TL,TLS,Timor,TL-LA,Lautém
TL,TLS,Timor,TL-LI,Likisá
TL,TLS,Timor,TL-MF,Manufahi
TL,TLS,Timor,TL-MT,Manatuto
TL,TLS,Timor,TL-OE,Oecussi
TL,TLS,Timor,TL-VI,Vikeke
TM,TKM,Turkmenistan,TM-A,Ahal
TM,TKM,Turkmenistan,TM-B,Balkan
TM,TKM,Turkmenistan,TM-D,Daşoguz
TM,TKM,Turkmenistan,TM-L,Lebap
TM,TKM,Turkmenistan,TM-M,Mary
TM,TKM,Turkmenistan,TM-S,Aşgabat
TN,TUN,Tunisia,TN-11,Tunis
TN,TUN,Tunisia,TN-12,Ariana
TN,TUN,Tunisia,TN-13,Ben Arous
TN,TUN,Tunisia,TN-14,La Manouba
TN,TUN,Tunisia,TN-21,Nabeul
TN,TUN,Tunisia,TN-22,Zaghouan
TN,TUN,Tunisia,TN-23,Bizerte
TN,TUN,Tunisia,TN-31,Béja
TN,TUN,Tunisia,TN-32,Jendouba
TN,TUN,Tunisia,TN-33,Le Kef
TN,TUN,Tunisia,TN-34,Siliana
TN,TUN,Tunisia,TN-41,Kairouan
TN,TUN,Tunisia,TN-42,Kasserine
TN,TUN,Tunisia,TN-43,Sidi Bouzid
TN,TUN,Tunisia,TN-51,Sousse
TN,TUN,Tunisia,TN-52,Monastir
TN,TUN,Tunisia,TN-53,Mahdia
TN,TUN,Tunisia,TN-61,Sfax
TN,TUN,Tunisia,TN-71,Gafsa
TN,TUN,Tunisia,TN-72,Tozeur
TN,TUN,Tunisia,TN-73,Kebili
TN,TUN,Tunisia,TN-81,Gabès
TN,TUN,Tunisia,TN-82,Medenine
TN,TUN,Tunisia,TN-83,Tataouine
TO,TON,Tonga,TO-01,'Eua
TO,TON,Tonga,TO-02,Ha'apai
TO,TON,Tonga,TO-03,Niuas
TO,TON,Tonga,TO-04,Tongatapu
TO,TON,Tonga,TO-05,Vava'u
TR,TUR,Turkey,TR-01,Adana
TR,TUR,Turkey,TR-02,Adıyaman
TR,TUR,Turkey,TR-03,Afyonkarahisar
TR,TUR,Turkey,TR-04,Ağrı
TR,TUR,Turkey,TR-05,Amasya
TR,TUR,Turkey,TR-06,Ankara
TR,TUR,Turkey,TR-07,Antalya
TR,TUR,Turkey,TR-08,Artvin
TR,TUR,Turkey,TR-09,Aydın
TR,TUR,Turkey,TR-10,Balıkesir
TR,TUR,Turkey,TR-11,Bilecik
TR,TUR,Turkey,TR-12,Bingöl
TR,TUR,Turkey,TR-13,Bitlis
TR,TUR,Turkey,TR-14,Bolu
TR,TUR,Turkey,TR-15,Burdur
TR,TUR,Turkey,TR-16,Bursa
TR,TUR,Turkey,TR-17,Çanakkale
TR,TUR,Turkey,TR-18,Çankırı
TR,TUR,Turkey,TR-19,Çorum
TR,TUR,Turkey,TR-20,Denizli
TR,TUR,Turkey,TR-21,Diyarbakır
TR,TUR,Turkey,TR-22,Edirne
TR,TUR,Turkey,TR-23,Elazığ
TR,TUR,Turkey,TR-24,Erzincan
TR,TUR,Turkey,TR-25,Erzurum
TR,TUR,Turkey,TR-26,Eskişehir
TR,TUR,Turkey,TR-27,Gaziantep
TR,TUR,Turkey,TR-28,Giresun
TR,TUR,Turkey,TR-29,Gümüşhane
TR,TUR,Turkey,TR-30,Hakkâri
TR,TUR,Turkey,TR-31,Hatay
TR,TUR,Turkey,TR-32,Isparta
TR,TUR,Turkey,TR-33,Mersin
TR,TUR,Turkey,TR-34,İstanbul
TR,TUR,Turkey,TR-35,İzmir
TR,TUR,Turkey,TR-36,Kars
TR,TUR,Turkey,TR-37,Kastamonu
TR,TUR,Turkey,TR-38,Kayseri
TR,TUR,Turkey,TR-39,Kırklareli
TR,TUR,Turkey,TR-40,Kırşehir
TR,TUR,Turkey,TR-41,Kocaeli
TR,TUR,Turkey,TR-42,Konya
TR,TUR,Turkey,TR-43,Kütahya
TR,TUR,Turkey,TR-44,Malatya
TR,TUR,Turkey,TR-45,Manisa
TR,TUR,Turkey,TR-46,Kahramanmaraş
TR,TUR,Turkey,TR-47,Mardin
TR,TUR,Turkey,TR-48,Muğla
TR,TUR,Turkey,TR-49,Muş
TR,TUR,Turkey,TR-50,Nevşehir
TR,TUR,Turkey,TR-51,Niğde
TR,TUR,Turkey,TR-52,Ordu
TR,TUR,Turkey,TR-53,Rize
TR,TUR,Turkey,TR-54,Sakarya
TR,TUR,Turkey,TR-55,Samsun
TR,TUR,Turkey,TR-56,Siirt
TR,TUR,Turkey,TR-57,Sinop
TR,TUR,Turkey,TR-58,Sivas
TR,TUR,Turkey,TR-59,Tekirdağ
TR,TUR,Turkey,TR-60,Tokat
TR,TUR,Turkey,TR-61,Trabzon
TR,TUR,Turkey,TR-62,Tunceli
TR,TUR,Turkey,TR-63,Şanlıurfa
TR,TUR,Turkey,TR-64,Uşak
TR,TUR,Turkey,TR-65,Van
TR,TUR,Turkey,TR-66,Yozgat
TR,TUR,Turkey,TR-67,Zonguldak
TR,TUR,Turkey,TR-68,Aksaray
TR,TUR,Turkey,TR-69,Bayburt
TR,TUR,Turkey,TR-70,Karaman
TR,TUR,Turkey,TR-71,Kırıkkale
TR,TUR,Turkey,TR-72,Batman
TR,TUR,Turkey,TR-73,Şırnak
TR,TUR,Turkey,TR-74,Bartın
TR,TUR,Turkey,TR-75,Ardahan
TR,TUR,Turkey,TR-76,Iğdır
TR,TUR,Turkey,TR-77,Yalova
TR,TUR,Turkey,TR-78,Karabük
TR,TUR,Turkey,TR-79,Kilis
TR,TUR,Turkey,TR-80,Osmaniye
TR,TUR,Turkey,TR-81,Düzce
TT,TTO,Trinidad And Tobago,TT-ARI,Arima
TT,TTO,Trinidad And Tobago,TT-CHA,Chaguanas
TT,TTO,Trinidad And Tobago,TT-CTT,Couva-Tabaquite-Talparo
TT,TTO,Trinidad And Tobago,TT-DMN,Diego Martin
TT,TTO,Trinidad And Tobago,TT-ETO,Eastern Tobago
TT,TTO,Trinidad And Tobago,TT-PED,Penal-Debe
TT,TTO,Trinidad And Tobago,TT-POS,Port of Spain
TT,TTO,Trinidad And Tobago,TT-PRT,Princes Town
TT,TTO,Trinidad And Tobago,TT-PTF,Point Fortin
TT,TTO,Trinidad And Tobago,TT-RCM,Rio Claro-Mayaro
TT,TTO,Trinidad And Tobago,TT-SFO,San Fernando
TT,TTO,Trinidad And Tobago,TT-SGE,Sangre Grande
TT,TTO,Trinidad And Tobago,TT-SIP,Siparia
TT,TTO,Trinidad And Tobago,TT-SJL,San Juan-Laventille
TT,TTO,Trinidad And Tobago,TT-TUP,Tunapuna-Piarco
TT,TTO,Trinidad And Tobago,TT-WTO,Western Tobago
TV,TUV,Tuvalu,TV-FUN,Funafuti
TV,TUV,Tuvalu,TV-NIT,Niutao
TV,TUV,Tuvalu,TV-NKF,Nukufetau
TV,TUV,Tuvalu,TV-NKL,Nukulaelae
TV,TUV,Tuvalu,TV-NMA,Nanumea
TV,TUV,Tuvalu,TV-NMG,Nanumanga
TV,TUV,Tuvalu,TV-NUI,Nui
TV,TUV,Tuvalu,TV-VAI,Vaitupu
TW,TWN,"Taiwan, Province Of China",TW-CHA,Changhua
TW,TWN,"Taiwan, Province Of China",TW-CYI,Chiayi
TW,TWN,"Taiwan, Province Of China",TW-CYQ,Chiayi
TW,TWN,"Taiwan, Province Of China",TW-HSQ,Hsinchu
TW,TWN,"Taiwan, Province Of China",TW-HSZ,Hsinchu
TW,TWN,"Taiwan, Province Of China",TW-HUA,Hualien
TW,TWN,"Taiwan, Province Of China",TW-ILA,Ilan
TW,TWN,"Taiwan, Province Of China",TW-KEE,Keelung
TW,TWN,"Taiwan, Province Of China",TW-KHH,Kaohsiung
TW,TWN,"Taiwan, Province Of China",TW-KHQ,Kaohsiung
TW,TWN,"Taiwan, Province Of China",TW-MIA,Miaoli
TW,TWN,"Taiwan, Province Of China",TW-NAN,Nantou
TW,TWN,"Taiwan, Province Of China",TW-PEN,Penghu
TW,TWN,"Taiwan, Province Of China",TW-PIF,Pingtung
TW,TWN,"Taiwan, Province Of China",TW-TAO,Taoyuan
TW,TWN,"Taiwan, Province Of China",TW-TNN,Tainan
TW,TWN,"Taiwan, Province Of China",TW-TNQ,Tainan
TW,TWN,"Taiwan, Province Of China",TW-TPE,Taipei
TW,TWN,"Taiwan, Province Of China",TW-TPQ,Taipei
TW,TWN,"Taiwan, Province Of China",TW-TTT,Taitung
TW,TWN,"Taiwan, Province Of China",TW-TXG,Taichung
TW,TWN,"Taiwan, Province Of China",TW-TXQ,Taichung
TW,TWN,"Taiwan, Province Of China",TW-YUN,Yunlin
TZ,TZA,"Tanzania, United Republic Of",TZ-01,Arusha
TZ,TZA,"Tanzania, United Republic Of",TZ-02,Dar es Salaam
TZ,TZA,"Tanzania, United Republic Of",TZ-03,Dodoma
TZ,TZA,"Tanzania, United Republic Of",TZ-04,Iringa
TZ,TZA,"Tanzania, United Republic Of",TZ-05,Kagera
TZ,TZA,"Tanzania, United Republic Of",TZ-06,Kaskazini Pemba
TZ,TZA,"Tanzania, United Republic Of",TZ-07,Kaskazini Unguja
TZ,TZA,"Tanzania, United Republic Of",TZ-08,Kigoma
TZ,TZA,"Tanzania, United Republic Of",TZ-09,Kilimanjaro
TZ,TZA,"Tanzania, United Republic Of",TZ-10,Kusini Pemba
TZ,TZA,"Tanzania, United Republic Of",TZ-11,Kusini Unguja
TZ,TZA,"Tanzania, United Republic Of",TZ-12,Lindi
TZ,TZA,"Tanzania, United Republic Of",TZ-13,Mara
TZ,TZA,"Tanzania, United Republic Of",TZ-14,Mbeya
TZ,TZA,"Tanzania, United Republic Of",TZ-15,Mjini Magharibi
TZ,TZA,"Tanzania, United Republic Of",TZ-16,Morogoro
TZ,TZA,"Tanzania, United Republic Of",TZ-17,Mtwara
TZ,TZA,"Tanzania, United Republic Of",TZ-18,Mwanza
TZ,TZA,"Tanzania, United Republic Of",TZ-19,Coast
TZ,TZA,"Tanzania, United Republic Of",TZ-20,Rukwa
TZ,TZA,"Tanzania, United Republic Of",TZ-21,Ruvuma
TZ,TZA,"Tanzania, United Republic Of",TZ-22,Shinyanga
TZ,TZA,"Tanzania, United Republic Of",TZ-23,Singida
TZ,TZA,"Tanzania, United Republic Of",TZ-24,Tabora
TZ,TZA,"Tanzania, United Republic Of",TZ-25,Tanga
TZ,TZA,"Tanzania, United Republic Of",TZ-26,Manyara
TZ,TZA,"Tanzania, United Republic Of",TZ-27,Geita
TZ,TZA,"Tanzania, United Republic Of",TZ-28,Katavi
TZ,TZA,"Tanzania, United Republic Of",TZ-29,Njombe
TZ,TZA,"Tanzania, United Republic Of",TZ-30,Simiyu
UA,UKR,Ukraine,UA-05,Vinnytska oblast
UA,UKR,Ukraine,UA-07,Volynska oblast
UA,UKR,Ukraine,UA-09,Luhanska oblast
UA,UKR,Ukraine,UA-12,Dnipropetrovska oblast
UA,UKR,Ukraine,UA-14,Donetska oblast
UA,UKR,Ukraine,UA-18,Zhytomyrska oblast
UA,UKR,Ukraine,UA-21,Zakarpatska oblast
UA,UKR,Ukraine,UA-23,Zaporizka oblast
UA,UKR,Ukraine,UA-26,Ivano-Frankivska oblast
UA,UKR,Ukraine,UA-30,Kyiv
UA,UKR,Ukraine,UA-32,Kyivska oblast
UA,UKR,Ukraine,UA-35,Kirovohradska oblast
UA,UKR,Ukraine,UA-40,Sevastopol
UA,UKR,Ukraine,UA-43,Avtonomna Respublika Krym
UA,UKR,Ukraine,UA-46,Lvivska oblast
UA,UKR,Ukraine,UA-48,Mykolaivska oblast
UA,UKR,Ukraine,UA-51,Odeska oblast
UA,UKR,Ukraine,UA-53,Poltavska oblast
UA,UKR,Ukraine,UA-56,Rivnenska oblast
UA,UKR,Ukraine,UA-59,Sumska oblast
UA,UKR,Ukraine,UA-61,Ternopilska oblast
UA,UKR,Ukraine,UA-63,Kharkivska oblast
UA,UKR,Ukraine,UA-65,Khersonska oblast
UA,UKR,Ukraine,UA-68,Khmelnytska oblast
UA,UKR,Ukraine,UA-71,Cherkaska oblast
UA,UKR,Ukraine,UA-74,Chernihivska oblast
UA,UKR,Ukraine,UA-77,Chernivetska oblast
UG,UGA,Uganda,UG-101,Kalangala
UG,UGA,Uganda,UG-102,Kampala
UG,UGA,Uganda,UG-103,Kiboga
UG,UGA,Uganda,UG-104,Luwero
UG,UGA,Uganda,UG-105,Masaka
UG,UGA,Uganda,UG-106,Mpigi
UG,UGA,Uganda,UG-107,Mubende
UG,UGA,Uganda,UG-108,Mukono
UG,UGA,Uganda,UG-109,Nakasongola
UG,UGA,Uganda,UG-110,Rakai
UG,UGA,Uganda,UG-111,Sembabule
UG,UGA,Uganda,UG-112,Kayunga
UG,UGA,Uganda,UG-113,Wakiso
UG,UGA,Uganda,UG-114,Mityana
UG,UGA,Uganda,UG-115,Nakaseke
UG,UGA,Uganda,UG-116,Lyantonde
UG,UGA,Uganda,UG-117,Buikwe
UG,UGA,Uganda,UG-118,Bukomansibi
UG,UGA,Uganda,UG-119,Butambala
UG,UGA,Uganda,UG-120,Buvuma
UG,UGA,Uganda,UG-121,Gomba
UG,UGA,Uganda,UG-122,Kalungu
UG,UGA,Uganda,UG-123,Kyankwanzi
UG,UGA,Uganda,UG-124,Lwengo
UG,UGA,Uganda,UG-201,Bugiri
UG,UGA,Uganda,UG-202,Busia
UG,UGA,Uganda,UG-203,Iganga
UG,UGA,Uganda,UG-204,Jinja
UG,UGA,Uganda,UG-205,Kamuli
UG,UGA,Uganda,UG-206,Kapchorwa
UG,UGA,Uganda,UG-207,Katakwi
UG,UGA,Uganda,UG-208,Kumi
UG,UGA,Uganda,UG-209,Mbale
UG,UGA,Uganda,UG-210,Pallisa
UG,UGA,Uganda,UG-211,Soroti
UG,UGA,Uganda,UG-212,Tororo
UG,UGA,Uganda,UG-213,Kaberamaido
UG,UGA,Uganda,UG-214,Mayuge
UG,UGA,Uganda,UG-215,Sironko
UG,UGA,Uganda,UG-216,Amuria
UG,UGA,Uganda,UG-217,Budaka
UG,UGA,Uganda,UG-218,Bukwa
UG,UGA,Uganda,UG-219,Butaleja
UG,UGA,Uganda,UG-220,Kaliro
UG,UGA,Uganda,UG-221,Manafwa
UG,UGA,Uganda,UG-222,Namutumba
UG,UGA,Uganda,UG-223,Bududa
UG,UGA,Uganda,UG-224,Bukedea
UG,UGA,Uganda,UG-225,Bulambuli
UG,UGA,Uganda,UG-226,Buyende
UG,UGA,Uganda,UG-227,Kibuku
UG,UGA,Uganda,UG-228,Kween
UG,UGA,Uganda,UG-229,Luuka
UG,UGA,Uganda,UG-230,Namayingo
UG,UGA,Uganda,UG-231,Ngora
UG,UGA,Uganda,UG-232,Serere
UG,UGA,Uganda,UG-301,Adjumani
UG,UGA,Uganda,UG-302,Apac
UG,UGA,Uganda,UG-303,Arua
UG,UGA,Uganda,UG-304,Gulu
UG,UGA,Uganda,UG-305,Kitgum
UG,UGA,Uganda,UG-306,Kotido
UG,UGA,Uganda,UG-307,Lira
UG,UGA,Uganda,UG-308,Moroto
UG,UGA,Uganda,UG-309,Moyo
UG,UGA,Uganda,UG-310,Nebbi
UG,UGA,Uganda,UG-311,Nakapiripirit
UG,UGA,Uganda,UG-312,Pader
UG,UGA,Uganda,UG-313,Yumbe
UG,UGA,Uganda,UG-314,Amolatar
UG,UGA,Uganda,UG-315,Kaabong
UG,UGA,Uganda,UG-316,Koboko
UG,UGA,Uganda,UG-317,Abim
UG,UGA,Uganda,UG-318,Dokolo
UG,UGA,Uganda,UG-319,Amuru
UG,UGA,Uganda,UG-320,Maracha
UG,UGA,Uganda,UG-321,Oyam
UG,UGA,Uganda,UG-322,Agago
UG,UGA,Uganda,UG-323,Alebtong
UG,UGA,Uganda,UG-324,Amudat
UG,UGA,Uganda,UG-325,Buhweju
UG,UGA,Uganda,UG-326,Kole
UG,UGA,Uganda,UG-327,Lamwo
UG,UGA,Uganda,UG-328,Napak
UG,UGA,Uganda,UG-329,Nwoya
UG,UGA,Uganda,UG-330,Otuke
UG,UGA,Uganda,UG-331,Zombo
UG,UGA,Uganda,UG-401,Bundibugyo
UG,UGA,Uganda,UG-402,Bushenyi
UG,UGA,Uganda,UG-403,Hoima
UG,UGA,Uganda,UG-404,Kabale
UG,UGA,Uganda,UG-405,Kabarole
UG,UGA,Uganda,UG-406,Kasese
UG,UGA,Uganda,UG-407,Kibaale
UG,UGA,Uganda,UG-408,Kisoro
UG,UGA,Uganda,UG-409,Masindi
UG,UGA,Uganda,UG-410,Mbarara
UG,UGA,Uganda,UG-411,Ntungamo
UG,UGA,Uganda,UG-412,Rukungiri
UG,UGA,Uganda,UG-413,Kamwenge
UG,UGA,Uganda,UG-414,Kanungu
UG,UGA,Uganda,UG-415,Kyenjojo
UG,UGA,Uganda,UG-416,Ibanda
UG,UGA,Uganda,UG-417,Isingiro
UG,UGA,Uganda,UG-418,Kiruhura
UG,UGA,Uganda,UG-419,Buliisa
UG,UGA,Uganda,UG-420,Kiryandongo
UG,UGA,Uganda,UG-421,Kyegegwa
UG,UGA,Uganda,UG-422,Mitooma
UG,UGA,Uganda,UG-423,Ntoroko
UG,UGA,Uganda,UG-424,Rubirizi
UG,UGA,Uganda,UG-425,Sheema
UG,UGA,Uganda,UG-C,Central
UG,UGA,Uganda,UG-E,Eastern
UG,UGA,Uganda,UG-N,Northern
UG,UGA,Uganda,UG-W,Western
UM,UMI,United States Minor Outlying Islands,UM-67,Johnston Atoll
UM,UMI,United States Minor Outlying Islands,UM-71,Midway Islands
UM,UMI,United States Minor Outlying Islands,UM-76,Navassa Island
UM,UMI,United States Minor Outlying Islands,UM-79,Wake Island
UM,UMI,United States Minor Outlying Islands,UM-81,Baker Island
UM,UMI,United States Minor Outlying Islands,UM-84,Howland Island
UM,UMI,United States Minor Outlying Islands,UM-86,Jarvis Island
UM,UMI,United States Minor Outlying Islands,UM-89,Kingman Reef
UM,UMI,United States Minor Outlying Islands,UM-95,Palmyra Atoll
US,USA,United States,US-AK,Alaska
US,USA,United States,US-AL,Alabama
US,USA,United States,US-AR,Arkansas
US,USA,United States,US-AS,American Samoa
US,USA,United States,US-AZ,Arizona
US,USA,United States,US-CA,California
US,USA,United States,US-CO,Colorado
US,USA,United States,US-CT,Connecticut
US,USA,United States,US-DC,District of Columbia
US,USA,United States,US-DE,Delaware
US,USA,United States,US-FL,Florida
US,USA,United States,US-GA,Georgia
US,USA,United States,US-GU,Guam
US,USA,United States,US-HI,Hawaii
US,USA,United States,US-IA,Iowa
US,USA,United States,US-ID,Idaho
US,USA,United States,US-IL,Illinois
US,USA,United States,US-IN,Indiana
US,USA,United States,US-KS,Kansas
US,USA,United States,US-KY,Kentucky
US,USA,United States,US-LA,Louisiana
US,USA,United States,US-MA,Massachusetts
US,USA,United States,US-MD,Maryland
US,USA,United States,US-ME,Maine
US,USA,United States,US-MI,Michigan
US,USA,United States,US-MN,Minnesota
US,USA,United States,US-MO,Missouri
US,USA,United States,US-MP,Northern Mariana Islands
US,USA,United States,US-MS,Mississippi
US,USA,United States,US-MT,Montana
US,USA,United States,US-NC,North Carolina
US,USA,United States,US-ND,North Dakota
US,USA,United States,US-NE,Nebraska
US,USA,United States,US-NH,New Hampshire
US,USA,United States,US-NJ,New Jersey
US,USA,United States,US-NM,New Mexico
US,USA,United States,US-NV,Nevada
US,USA,United States,US-NY,New York
US,USA,United States,US-OH,Ohio
US,USA,United States,US-OK,Oklahoma
US,USA,United States,US-OR,Oregon
US,USA,United States,US-PA,Pennsylvania
US,USA,United States,US-PR,Puerto Rico
US,USA,United States,US-RI,Rhode Island
US,USA,United States,US-SC,South Carolina
US,USA,United States,US-SD,South Dakota
US,USA,United States,US-TN,Tennessee
US,USA,United States,US-TX,Texas
US,USA,United States,US-UM,United States Minor Outlying Islands
US,USA,United States,US-UT,Utah
US,USA,United States,US-VA,Virginia
US,USA,United States,US-VT,Vermont
US,USA,United States,US-WA,Washington
US,USA,United States,US-WI,Wisconsin
US,USA,United States,US-WV,West Virginia
US,USA,United States,US-WY,Wyoming
UY,URY,Uruguay,UY-AR,Artigas
UY,URY,Uruguay,UY-CA,Canelones
UY,URY,Uruguay,UY-CL,Cerro Largo
UY,URY,Uruguay,UY-CO,Colonia
UY,URY,Uruguay,UY-DU,Durazno
UY,URY,Uruguay,UY-FD,Florida
UY,URY,Uruguay,UY-FS,Flores
UY,URY,Uruguay,UY-LA,Lavalleja
UY,URY,Uruguay,UY-MA,Maldonado
UY,URY,Uruguay,UY-MO,Montevideo
UY,URY,Uruguay,UY-PA,Paysandú
UY,URY,Uruguay,UY-RN,Río Negro
UY,URY,Uruguay,UY-RO,Rocha
UY,URY,Uruguay,UY-RV,Rivera
UY,URY,Uruguay,UY-SA,Salto
UY,URY,Uruguay,UY-SJ,San José
UY,URY,Uruguay,UY-SO,Soriano
UY,URY,Uruguay,UY-TA,Tacuarembó
UY,URY,Uruguay,UY-TT,Treinta y Tres
UZ,UZB,Uzbekistan,UZ-AN,Andijon
UZ,UZB,Uzbekistan,UZ-BU,Buxoro
UZ,UZB,Uzbekistan,UZ-FA,Farg‘ona
UZ,UZB,Uzbekistan,UZ-JI,Jizzax
UZ,UZB,Uzbekistan,UZ-NG,Namangan
UZ,UZB,Uzbekistan,UZ-NW,Navoiy
UZ,UZB,Uzbekistan,UZ-QA,Qashqadaryo
UZ,UZB,Uzbekistan,UZ-QR,Qoraqalpog‘iston Respublikasi
UZ,UZB,Uzbekistan,UZ-SA,Samarqand
UZ,UZB,Uzbekistan,UZ-SI,Sirdaryo
UZ,UZB,Uzbekistan,UZ-SU,Surxondaryo
UZ,UZB,Uzbekistan,UZ-TK,Toshkent
UZ,UZB,Uzbekistan,UZ-TO,Toshkent
UZ,UZB,Uzbekistan,UZ-XO,Xorazm
VA,VAT,Holy See (Vatican City State),VA-VA,Vatican City
VC,VCT,Saint Vincent And The Grenadines,VC-01,Charlotte
VC,VCT,Saint Vincent And The Grenadines,VC-02,Saint Andrew
VC,VCT,Saint Vincent And The Grenadines,VC-03,Saint David
VC,VCT,Saint Vincent And The Grenadines,VC-04,Saint George
VC,VCT,Saint Vincent And The Grenadines,VC-05,Saint Patrick
VC,VCT,Saint Vincent And The Grenadines,VC-06,Grenadines
VE,VEN,Venezuela,VE-A,Distrito Capital
VE,VEN,Venezuela,VE-B,Anzoátegui
VE,VEN,Venezuela,VE-C,Apure
VE,VEN,Venezuela,VE-D,Aragua
VE,VEN,Venezuela,VE-E,Barinas
VE,VEN,Venezuela,VE-F,Bolívar
VE,VEN,Venezuela,VE-G,Carabobo
VE,VEN,Venezuela,VE-H,Cojedes
VE,VEN,Venezuela,VE-I,Falcón
VE,VEN,Venezuela,VE-J,Guárico
VE,VEN,Venezuela,VE-K,Lara
VE,VEN,Venezuela,VE-L,Mérida
VE,VEN,Venezuela,VE-M,Miranda
VE,VEN,Venezuela,VE-N,Monagas
VE,VEN,Venezuela,VE-O,Nueva Esparta
VE,VEN,Venezuela,VE-P,Portuguesa
VE,VEN,Venezuela,VE-R,Sucre
VE,VEN,Venezuela,VE-S,Táchira
VE,VEN,Venezuela,VE-T,Trujillo
VE,VEN,Venezuela,VE-U,Yaracuy
VE,VEN,Venezuela,VE-V,Zulia
VE,VEN,Venezuela,VE-W,Dependencias Federales
VE,VEN,Venezuela,VE-X,Vargas
VE,VEN,Venezuela,VE-Y,Delta Amacuro
VE,VEN,Venezuela,VE-Z,Amazonas
VG,VGB,"Virgin Islands, British",VG-VG,Virgin Islands
VI,VIR,"Virgin Islands, U.S.",VI-VI,Virgin Islands
VN,VNM,Viet Nam,VN-01,Lai Châu
VN,VNM,Viet Nam,VN-02,Lào Cai
VN,VNM,Viet Nam,VN-03,Hà Giang
VN,VNM,Viet Nam,VN-04,Cao Bằng
VN,VNM,Viet Nam,VN-05,Sơn La
VN,VNM,Viet Nam,VN-06,Yên Bái
VN,VNM,Viet Nam,VN-07,Tuyên Quang
VN,VNM,Viet Nam,VN-09,Lạng Sơn
VN,VNM,Viet Nam,VN-13,Quảng Ninh
VN,VNM,Viet Nam,VN-14,Hòa Bình
VN,VNM,Viet Nam,VN-18,Ninh Bình
VN,VNM,Viet Nam,VN-20,Thái Bình
VN,VNM,Viet Nam,VN-21,Thanh Hóa
VN,VNM,Viet Nam,VN-22,Nghệ An
VN,VNM,Viet Nam,VN-23,Hà Tĩnh
VN,VNM,Viet Nam,VN-24,Quảng Bình
VN,VNM,Viet Nam,VN-25,Quảng Trị
VN,VNM,Viet Nam,VN-26,Thừa Thiên-Huế
VN,VNM,Viet Nam,VN-27,Quảng Nam
VN,VNM,Viet Nam,VN-28,Kon Tum
VN,VNM,Viet Nam,VN-29,Quảng Ngãi
VN,VNM,Viet Nam,VN-30,Gia Lai
VN,VNM,Viet Nam,VN-31,Bình Định
VN,VNM,Viet Nam,VN-32,Phú Yên
VN,VNM,Viet Nam,VN-33,Đắk Lắk
VN,VNM,Viet Nam,VN-34,Khánh Hòa
VN,VNM,Viet Nam,VN-35,Lâm Ðồng
VN,VNM,Viet Nam,VN-36,Ninh Thuận
VN,VNM,Viet Nam,VN-37,Tây Ninh
VN,VNM,Viet Nam,VN-39,Ðồng Nai
VN,VNM,Viet Nam,VN-40,Bình Thuận
VN,VNM,Viet Nam,VN-41,Long An
VN,VNM,Viet Nam,VN-43,Bà Rịa - Vũng Tàu
VN,VNM,Viet Nam,VN-44,An Giang
VN,VNM,Viet Nam,VN-45,Ðồng Tháp
VN,VNM,Viet Nam,VN-46,Tiền Giang
VN,VNM,Viet Nam,VN-47,Kiến Giang
VN,VNM,Viet Nam,VN-49,Vĩnh Long
VN,VNM,Viet Nam,VN-50,Bến Tre
VN,VNM,Viet Nam,VN-51,Trà Vinh
VN,VNM,Viet Nam,VN-52,Sóc Trăng
VN,VNM,Viet Nam,VN-53,Bắc Kạn
VN,VNM,Viet Nam,VN-54,Bắc Giang
VN,VNM,Viet Nam,VN-55,Bạc Liêu
VN,VNM,Viet Nam,VN-56,Bắc Ninh
VN,VNM,Viet Nam,VN-57,Bình Dương
VN,VNM,Viet Nam,VN-58,Bình Phước
VN,VNM,Viet Nam,VN-59,Cà Mau
VN,VNM,Viet Nam,VN-61,Hải Dương
VN,VNM,Viet Nam,VN-63,Hà Nam
VN,VNM,Viet Nam,VN-66,Hưng Yên
VN,VNM,Viet Nam,VN-67,Nam Ðịnh
VN,VNM,Viet Nam,VN-68,Phú Thọ
VN,VNM,Viet Nam,VN-69,Thái Nguyên
VN,VNM,Viet Nam,VN-70,Vĩnh Phúc
VN,VNM,Viet Nam,VN-71,Điện Biên
VN,VNM,Viet Nam,VN-72,Đắk Nông
VN,VNM,Viet Nam,VN-73,Hậu Giang
VN,VNM,Viet Nam,VN-CT,Can Tho
VN,VNM,Viet Nam,VN-DN,Da Nang
VN,VNM,Viet Nam,VN-HN,Ha Noi
VN,VNM,Viet Nam,VN-HP,Hai Phong
VN,VNM,Viet Nam,VN-SG,Ho Chi Minh
VU,VUT,Vanuatu,VU-MAP,Malampa
VU,VUT,Vanuatu,VU-PAM,Pénama
VU,VUT,Vanuatu,VU-SAM,Sanma
VU,VUT,Vanuatu,VU-SEE,Shéfa
VU,VUT,Vanuatu,VU-TAE,Taféa
VU,VUT,Vanuatu,VU-TOB,Torba
WF,WLF,Wallis And Futuna,WF-WF,Wallis & Futuna Islands
WS,WSM,Samoa,WS-AA,A'ana
WS,WSM,Samoa,WS-AL,Aiga-i-le-Tai
WS,WSM,Samoa,WS-AT,Atua
WS,WSM,Samoa,WS-FA,Fa'asaleleaga
WS,WSM,Samoa,WS-GE,Gaga'emauga
WS,WSM,Samoa,WS-GI,Gagaifomauga
WS,WSM,Samoa,WS-PA,Palauli
WS,WSM,Samoa,WS-SA,Satupa'itea
WS,WSM,Samoa,WS-TU,Tuamasaga
WS,WSM,Samoa,WS-VF,Va'a-o-Fonoti
WS,WSM,Samoa,WS-VS,Vaisigano
YE,YEM,Yemen,YE-AB,Abyān
YE,YEM,Yemen,YE-AD,'Adan
YE,YEM,Yemen,YE-AM,'Amrān
YE,YEM,Yemen,YE-BA,Al Bayḑā'
YE,YEM,Yemen,YE-DA,Aḑ Ḑāli'
YE,YEM,Yemen,YE-DH,Dhamār
YE,YEM,Yemen,YE-HD,Ḩaḑramawt
YE,YEM,Yemen,YE-HJ,Ḩajjah
YE,YEM,Yemen,YE-HU,Al Ḩudaydah
YE,YEM,Yemen,YE-IB,Ibb
YE,YEM,Yemen,YE-JA,Al Jawf
YE,YEM,Yemen,YE-LA,Laḩij
YE,YEM,Yemen,YE-MA,Ma'rib
YE,YEM,Yemen,YE-MR,Al Mahrah
YE,YEM,Yemen,YE-MW,Al Maḩwīt
YE,YEM,Yemen,YE-RA,Raymah
YE,YEM,Yemen,YE-SA,Amānat al ‘Āşimah
YE,YEM,Yemen,YE-SD,Şāʻdah
YE,YEM,Yemen,YE-SH,Shabwah
YE,YEM,Yemen,YE-SN,Şanʻā'
YE,YEM,Yemen,YE-TA,Tāʻizz
YT,MYT,Mayotte,YT-YT,Mayotte
ZA,ZAF,South Africa,ZA-EC,Eastern Cape
ZA,ZAF,South Africa,ZA-FS,Foreisetata
ZA,ZAF,South Africa,ZA-GT,Gauteng
ZA,ZAF,South Africa,ZA-LP,Limpopo
ZA,ZAF,South Africa,ZA-MP,iMpumalanga
ZA,ZAF,South Africa,ZA-NC,iTlhagwini-Kapa
ZA,ZAF,South Africa,ZA-NL,GaZulu-Natala
ZA,ZAF,South Africa,ZA-NW,Bokone Bophirima
ZA,ZAF,South Africa,ZA-WC,iTjhingalanga-Kapa
ZM,ZMB,Zambia,ZM-01,Western
ZM,ZMB,Zambia,ZM-02,Central
ZM,ZMB,Zambia,ZM-03,Eastern
ZM,ZMB,Zambia,ZM-04,Luapula
ZM,ZMB,Zambia,ZM-05,Northern
ZM,ZMB,Zambia,ZM-06,North-Western
ZM,ZMB,Zambia,ZM-07,Southern
ZM,ZMB,Zambia,ZM-08,Copperbelt
ZM,ZMB,Zambia,ZM-09,Lusaka
ZM,ZMB,Zambia,ZM-10,Muchinga
ZW,ZWE,Zimbabwe,ZW-BU,Bulawayo
ZW,ZWE,Zimbabwe,ZW-HA,Harare
ZW,ZWE,Zimbabwe,ZW-MA,Manicaland
ZW,ZWE,Zimbabwe,ZW-MC,Mashonaland Central
ZW,ZWE,Zimbabwe,ZW-ME,Mashonaland East
ZW,ZWE,Zimbabwe,ZW-MI,Midlands
ZW,ZWE,Zimbabwe,ZW-MN,Matabeleland North
ZW,ZWE,Zimbabwe,ZW-MS,Matabeleland South
ZW,ZWE,Zimbabwe,ZW-MV,Masvingo
ZW,ZWE,Zimbabwe,ZW-MW,Mashonaland West
